{"type": "FeatureCollection", "features": [{"type": "Feature", "geometry": {"type": "Polygon", "coordinates": [[[-75.13499999999999, 39.925], [-75.125, 39.925], [-75.125, 39.935], [-75.13499999999999, 39.935], [-75.13499999999999, 39.925]]]}, "properties": {"max_tracer_relative": 1.7e-06, "fraction_of_peak": 1.0, "above_threshold": true}}, {"type": "Feature", "geometry": {"type": "Polygon", "coordinates": [[[-75.125, 39.925], [-75.11500000000001, 39.925], [-75.11500000000001, 39.935], [-75.125, 39.935], [-75.125, 39.925]]]}, "properties": {"max_tracer_relative": 1.3e-06, "fraction_of_peak": 0.7647058823529412, "above_threshold": true}}, {"type": "Feature", "geometry": {"type": "Polygon", "coordinates": [[[-75.13499999999999, 39.935], [-75.125, 39.935], [-75.125, 39.94499999999999], [-75.13499999999999, 39.94499999999999], [-75.13499999999999, 39.935]]]}, "properties": {"max_tracer_relative": 8.4e-07, "fraction_of_peak": 0.49411764705882355, "above_threshold": true}}, {"type": "Feature", "geometry": {"type": "Polygon", "coordinates": [[[-75.125, 39.935], [-75.11500000000001, 39.935], [-75.11500000000001, 39.94499999999999], [-75.125, 39.94499999999999], [-75.125, 39.935]]]}, "properties": {"max_tracer_relative": 1.3e-06, "fraction_of_peak": 0.7647058823529412, "above_threshold": true}}, {"type": "Feature", "geometry": {"type": "Polygon", "coordinates": [[[-75.11500000000001, 39.935], [-75.10499999999999, 39.935], [-75.10499999999999, 39.94499999999999], [-75.11500000000001, 39.94499999999999], [-75.11500000000001, 39.935]]]}, "properties": {"max_tracer_relative": 4.4e-07, "fraction_of_peak": 0.25882352941176473, "above_threshold": true}}, {"type": "Feature", "geometry": {"type": "Polygon", "coordinates": [[[-75.10499999999999, 39.935], [-75.095, 39.935], [-75.095, 39.94499999999999], [-75.10499999999999, 39.94499999999999], [-75.10499999999999, 39.935]]]}, "properties": {"max_tracer_relative": 4.8e-08, "fraction_of_peak": 0.02823529411764706, "above_threshold": true}}, {"type": "Feature", "geometry": {"type": "Polygon", "coordinates": [[[-75.14500000000001, 39.94500000000001], [-75.13499999999999, 39.94500000000001], [-75.13499999999999, 39.955], [-75.14500000000001, 39.955], [-75.14500000000001, 39.94500000000001]]]}, "properties": {"max_tracer_relative": 1.8e-08, "fraction_of_peak": 0.010588235294117647, "above_threshold": true}}, {"type": "Feature", "geometry": {"type": "Polygon", "coordinates": [[[-75.13499999999999, 39.94500000000001], [-75.125, 39.94500000000001], [-75.125, 39.955], [-75.13499999999999, 39.955], [-75.13499999999999, 39.94500000000001]]]}, "properties": {"max_tracer_relative": 3e-07, "fraction_of_peak": 0.1764705882352941, "above_threshold": true}}, {"type": "Feature", "geometry": {"type": "Polygon", "coordinates": [[[-75.125, 39.94500000000001], [-75.11500000000001, 39.94500000000001], [-75.11500000000001, 39.955], [-75.125, 39.955], [-75.125, 39.94500000000001]]]}, "properties": {"max_tracer_relative": 7.4e-07, "fraction_of_peak": 0.43529411764705883, "above_threshold": true}}, {"type": "Feature", "geometry": {"type": "Polygon", "coordinates": [[[-75.11500000000001, 39.94500000000001], [-75.10499999999999, 39.94500000000001], [-75.10499999999999, 39.955], [-75.11500000000001, 39.955], [-75.11500000000001, 39.94500000000001]]]}, "properties": {"max_tracer_relative": 6.8e-07, "fraction_of_peak": 0.39999999999999997, "above_threshold": true}}, {"type": "Feature", "geometry": {"type": "Polygon", "coordinates": [[[-75.10499999999999, 39.94500000000001], [-75.095, 39.94500000000001], [-75.095, 39.955], [-75.10499999999999, 39.955], [-75.10499999999999, 39.94500000000001]]]}, "properties": {"max_tracer_relative": 2.5e-07, "fraction_of_peak": 0.14705882352941174, "above_threshold": true}}, {"type": "Feature", "geometry": {"type": "Polygon", "coordinates": [[[-75.095, 39.94500000000001], [-75.08500000000001, 39.94500000000001], [-75.08500000000001, 39.955], [-75.095, 39.955], [-75.095, 39.94500000000001]]]}, "properties": {"max_tracer_relative": 6.1e-08, "fraction_of_peak": 0.03588235294117647, "above_threshold": true}}, {"type": "Feature", "geometry": {"type": "Polygon", "coordinates": [[[-75.14500000000001, 39.955], [-75.13499999999999, 39.955], [-75.13499999999999, 39.965], [-75.14500000000001, 39.965], [-75.14500000000001, 39.955]]]}, "properties": {"max_tracer_relative": 2.6e-08, "fraction_of_peak": 0.015294117647058824, "above_threshold": true}}, {"type": "Feature", "geometry": {"type": "Polygon", "coordinates": [[[-75.13499999999999, 39.955], [-75.125, 39.955], [-75.125, 39.965], [-75.13499999999999, 39.965], [-75.13499999999999, 39.955]]]}, "properties": {"max_tracer_relative": 1.8e-07, "fraction_of_peak": 0.10588235294117647, "above_threshold": true}}, {"type": "Feature", "geometry": {"type": "Polygon", "coordinates": [[[-75.125, 39.955], [-75.11500000000001, 39.955], [-75.11500000000001, 39.965], [-75.125, 39.965], [-75.125, 39.955]]]}, "properties": {"max_tracer_relative": 5.2e-07, "fraction_of_peak": 0.30588235294117644, "above_threshold": true}}, {"type": "Feature", "geometry": {"type": "Polygon", "coordinates": [[[-75.11500000000001, 39.955], [-75.10499999999999, 39.955], [-75.10499999999999, 39.965], [-75.11500000000001, 39.965], [-75.11500000000001, 39.955]]]}, "properties": {"max_tracer_relative": 4.7e-07, "fraction_of_peak": 0.27647058823529413, "above_threshold": true}}, {"type": "Feature", "geometry": {"type": "Polygon", "coordinates": [[[-75.10499999999999, 39.955], [-75.095, 39.955], [-75.095, 39.965], [-75.10499999999999, 39.965], [-75.10499999999999, 39.955]]]}, "properties": {"max_tracer_relative": 3.7e-07, "fraction_of_peak": 0.21764705882352942, "above_threshold": true}}, {"type": "Feature", "geometry": {"type": "Polygon", "coordinates": [[[-75.095, 39.955], [-75.08500000000001, 39.955], [-75.08500000000001, 39.965], [-75.095, 39.965], [-75.095, 39.955]]]}, "properties": {"max_tracer_relative": 1.5e-07, "fraction_of_peak": 0.08823529411764705, "above_threshold": true}}, {"type": "Feature", "geometry": {"type": "Polygon", "coordinates": [[[-75.08500000000001, 39.955], [-75.07499999999999, 39.955], [-75.07499999999999, 39.965], [-75.08500000000001, 39.965], [-75.08500000000001, 39.955]]]}, "properties": {"max_tracer_relative": 5e-08, "fraction_of_peak": 0.029411764705882353, "above_threshold": true}}, {"type": "Feature", "geometry": {"type": "Polygon", "coordinates": [[[-75.14500000000001, 39.965], [-75.13499999999999, 39.965], [-75.13499999999999, 39.974999999999994], [-75.14500000000001, 39.974999999999994], [-75.14500000000001, 39.965]]]}, "properties": {"max_tracer_relative": 2.8e-08, "fraction_of_peak": 0.016470588235294115, "above_threshold": true}}, {"type": "Feature", "geometry": {"type": "Polygon", "coordinates": [[[-75.13499999999999, 39.965], [-75.125, 39.965], [-75.125, 39.974999999999994], [-75.13499999999999, 39.974999999999994], [-75.13499999999999, 39.965]]]}, "properties": {"max_tracer_relative": 1.2e-07, "fraction_of_peak": 0.07058823529411765, "above_threshold": true}}, {"type": "Feature", "geometry": {"type": "Polygon", "coordinates": [[[-75.125, 39.965], [-75.11500000000001, 39.965], [-75.11500000000001, 39.974999999999994], [-75.125, 39.974999999999994], [-75.125, 39.965]]]}, "properties": {"max_tracer_relative": 3.7e-07, "fraction_of_peak": 0.21764705882352942, "above_threshold": true}}, {"type": "Feature", "geometry": {"type": "Polygon", "coordinates": [[[-75.11500000000001, 39.965], [-75.10499999999999, 39.965], [-75.10499999999999, 39.974999999999994], [-75.11500000000001, 39.974999999999994], [-75.11500000000001, 39.965]]]}, "properties": {"max_tracer_relative": 3.9e-07, "fraction_of_peak": 0.22941176470588237, "above_threshold": true}}, {"type": "Feature", "geometry": {"type": "Polygon", "coordinates": [[[-75.10499999999999, 39.965], [-75.095, 39.965], [-75.095, 39.974999999999994], [-75.10499999999999, 39.974999999999994], [-75.10499999999999, 39.965]]]}, "properties": {"max_tracer_relative": 3.1e-07, "fraction_of_peak": 0.18235294117647058, "above_threshold": true}}, {"type": "Feature", "geometry": {"type": "Polygon", "coordinates": [[[-75.095, 39.965], [-75.08500000000001, 39.965], [-75.08500000000001, 39.974999999999994], [-75.095, 39.974999999999994], [-75.095, 39.965]]]}, "properties": {"max_tracer_relative": 2.3e-07, "fraction_of_peak": 0.13529411764705881, "above_threshold": true}}, {"type": "Feature", "geometry": {"type": "Polygon", "coordinates": [[[-75.08500000000001, 39.965], [-75.07499999999999, 39.965], [-75.07499999999999, 39.974999999999994], [-75.08500000000001, 39.974999999999994], [-75.08500000000001, 39.965]]]}, "properties": {"max_tracer_relative": 1.3e-07, "fraction_of_peak": 0.07647058823529411, "above_threshold": true}}, {"type": "Feature", "geometry": {"type": "Polygon", "coordinates": [[[-75.07499999999999, 39.965], [-75.065, 39.965], [-75.065, 39.974999999999994], [-75.07499999999999, 39.974999999999994], [-75.07499999999999, 39.965]]]}, "properties": {"max_tracer_relative": 4.9e-08, "fraction_of_peak": 0.028823529411764706, "above_threshold": true}}, {"type": "Feature", "geometry": {"type": "Polygon", "coordinates": [[[-75.065, 39.965], [-75.055, 39.965], [-75.055, 39.974999999999994], [-75.065, 39.974999999999994], [-75.065, 39.965]]]}, "properties": {"max_tracer_relative": 1.8e-08, "fraction_of_peak": 0.010588235294117647, "above_threshold": true}}, {"type": "Feature", "geometry": {"type": "Polygon", "coordinates": [[[-75.14500000000001, 39.974999999999994], [-75.13499999999999, 39.974999999999994], [-75.13499999999999, 39.985], [-75.14500000000001, 39.985], [-75.14500000000001, 39.974999999999994]]]}, "properties": {"max_tracer_relative": 2.2e-08, "fraction_of_peak": 0.012941176470588234, "above_threshold": true}}, {"type": "Feature", "geometry": {"type": "Polygon", "coordinates": [[[-75.13499999999999, 39.974999999999994], [-75.125, 39.974999999999994], [-75.125, 39.985], [-75.13499999999999, 39.985], [-75.13499999999999, 39.974999999999994]]]}, "properties": {"max_tracer_relative": 1.1e-07, "fraction_of_peak": 0.06470588235294118, "above_threshold": true}}, {"type": "Feature", "geometry": {"type": "Polygon", "coordinates": [[[-75.125, 39.974999999999994], [-75.11500000000001, 39.974999999999994], [-75.11500000000001, 39.985], [-75.125, 39.985], [-75.125, 39.974999999999994]]]}, "properties": {"max_tracer_relative": 2.5e-07, "fraction_of_peak": 0.14705882352941174, "above_threshold": true}}, {"type": "Feature", "geometry": {"type": "Polygon", "coordinates": [[[-75.11500000000001, 39.974999999999994], [-75.10499999999999, 39.974999999999994], [-75.10499999999999, 39.985], [-75.11500000000001, 39.985], [-75.11500000000001, 39.974999999999994]]]}, "properties": {"max_tracer_relative": 3e-07, "fraction_of_peak": 0.1764705882352941, "above_threshold": true}}, {"type": "Feature", "geometry": {"type": "Polygon", "coordinates": [[[-75.10499999999999, 39.974999999999994], [-75.095, 39.974999999999994], [-75.095, 39.985], [-75.10499999999999, 39.985], [-75.10499999999999, 39.974999999999994]]]}, "properties": {"max_tracer_relative": 2.9e-07, "fraction_of_peak": 0.17058823529411762, "above_threshold": true}}, {"type": "Feature", "geometry": {"type": "Polygon", "coordinates": [[[-75.095, 39.974999999999994], [-75.08500000000001, 39.974999999999994], [-75.08500000000001, 39.985], [-75.095, 39.985], [-75.095, 39.974999999999994]]]}, "properties": {"max_tracer_relative": 2.1e-07, "fraction_of_peak": 0.12352941176470589, "above_threshold": true}}, {"type": "Feature", "geometry": {"type": "Polygon", "coordinates": [[[-75.08500000000001, 39.974999999999994], [-75.07499999999999, 39.974999999999994], [-75.07499999999999, 39.985], [-75.08500000000001, 39.985], [-75.08500000000001, 39.974999999999994]]]}, "properties": {"max_tracer_relative": 1.8e-07, "fraction_of_peak": 0.10588235294117647, "above_threshold": true}}, {"type": "Feature", "geometry": {"type": "Polygon", "coordinates": [[[-75.07499999999999, 39.974999999999994], [-75.065, 39.974999999999994], [-75.065, 39.985], [-75.07499999999999, 39.985], [-75.07499999999999, 39.974999999999994]]]}, "properties": {"max_tracer_relative": 1.1e-07, "fraction_of_peak": 0.06470588235294118, "above_threshold": true}}, {"type": "Feature", "geometry": {"type": "Polygon", "coordinates": [[[-75.065, 39.974999999999994], [-75.055, 39.974999999999994], [-75.055, 39.985], [-75.065, 39.985], [-75.065, 39.974999999999994]]]}, "properties": {"max_tracer_relative": 4.2e-08, "fraction_of_peak": 0.024705882352941175, "above_threshold": true}}, {"type": "Feature", "geometry": {"type": "Polygon", "coordinates": [[[-75.055, 39.974999999999994], [-75.04499999999999, 39.974999999999994], [-75.04499999999999, 39.985], [-75.055, 39.985], [-75.055, 39.974999999999994]]]}, "properties": {"max_tracer_relative": 2e-08, "fraction_of_peak": 0.011764705882352941, "above_threshold": true}}, {"type": "Feature", "geometry": {"type": "Polygon", "coordinates": [[[-75.13499999999999, 39.985], [-75.125, 39.985], [-75.125, 39.995000000000005], [-75.13499999999999, 39.995000000000005], [-75.13499999999999, 39.985]]]}, "properties": {"max_tracer_relative": 8.9e-08, "fraction_of_peak": 0.05235294117647059, "above_threshold": true}}, {"type": "Feature", "geometry": {"type": "Polygon", "coordinates": [[[-75.125, 39.985], [-75.11500000000001, 39.985], [-75.11500000000001, 39.995000000000005], [-75.125, 39.995000000000005], [-75.125, 39.985]]]}, "properties": {"max_tracer_relative": 2.2e-07, "fraction_of_peak": 0.12941176470588237, "above_threshold": true}}, {"type": "Feature", "geometry": {"type": "Polygon", "coordinates": [[[-75.11500000000001, 39.985], [-75.10499999999999, 39.985], [-75.10499999999999, 39.995000000000005], [-75.11500000000001, 39.995000000000005], [-75.11500000000001, 39.985]]]}, "properties": {"max_tracer_relative": 2.3e-07, "fraction_of_peak": 0.13529411764705881, "above_threshold": true}}, {"type": "Feature", "geometry": {"type": "Polygon", "coordinates": [[[-75.10499999999999, 39.985], [-75.095, 39.985], [-75.095, 39.995000000000005], [-75.10499999999999, 39.995000000000005], [-75.10499999999999, 39.985]]]}, "properties": {"max_tracer_relative": 2.9e-07, "fraction_of_peak": 0.17058823529411762, "above_threshold": true}}, {"type": "Feature", "geometry": {"type": "Polygon", "coordinates": [[[-75.095, 39.985], [-75.08500000000001, 39.985], [-75.08500000000001, 39.995000000000005], [-75.095, 39.995000000000005], [-75.095, 39.985]]]}, "properties": {"max_tracer_relative": 2.5e-07, "fraction_of_peak": 0.14705882352941174, "above_threshold": true}}, {"type": "Feature", "geometry": {"type": "Polygon", "coordinates": [[[-75.08500000000001, 39.985], [-75.07499999999999, 39.985], [-75.07499999999999, 39.995000000000005], [-75.08500000000001, 39.995000000000005], [-75.08500000000001, 39.985]]]}, "properties": {"max_tracer_relative": 1.5e-07, "fraction_of_peak": 0.08823529411764705, "above_threshold": true}}, {"type": "Feature", "geometry": {"type": "Polygon", "coordinates": [[[-75.07499999999999, 39.985], [-75.065, 39.985], [-75.065, 39.995000000000005], [-75.07499999999999, 39.995000000000005], [-75.07499999999999, 39.985]]]}, "properties": {"max_tracer_relative": 1.3e-07, "fraction_of_peak": 0.07647058823529411, "above_threshold": true}}, {"type": "Feature", "geometry": {"type": "Polygon", "coordinates": [[[-75.065, 39.985], [-75.055, 39.985], [-75.055, 39.995000000000005], [-75.065, 39.995000000000005], [-75.065, 39.985]]]}, "properties": {"max_tracer_relative": 8.6e-08, "fraction_of_peak": 0.05058823529411765, "above_threshold": true}}, {"type": "Feature", "geometry": {"type": "Polygon", "coordinates": [[[-75.055, 39.985], [-75.04499999999999, 39.985], [-75.04499999999999, 39.995000000000005], [-75.055, 39.995000000000005], [-75.055, 39.985]]]}, "properties": {"max_tracer_relative": 4.5e-08, "fraction_of_peak": 0.026470588235294117, "above_threshold": true}}, {"type": "Feature", "geometry": {"type": "Polygon", "coordinates": [[[-75.04500000000002, 39.985], [-75.035, 39.985], [-75.035, 39.995000000000005], [-75.04500000000002, 39.995000000000005], [-75.04500000000002, 39.985]]]}, "properties": {"max_tracer_relative": 2.5e-08, "fraction_of_peak": 0.014705882352941176, "above_threshold": true}}, {"type": "Feature", "geometry": {"type": "Polygon", "coordinates": [[[-75.13499999999999, 39.995000000000005], [-75.125, 39.995000000000005], [-75.125, 40.004999999999995], [-75.13499999999999, 40.004999999999995], [-75.13499999999999, 39.995000000000005]]]}, "properties": {"max_tracer_relative": 7.3e-08, "fraction_of_peak": 0.04294117647058824, "above_threshold": true}}, {"type": "Feature", "geometry": {"type": "Polygon", "coordinates": [[[-75.125, 39.995000000000005], [-75.11500000000001, 39.995000000000005], [-75.11500000000001, 40.004999999999995], [-75.125, 40.004999999999995], [-75.125, 39.995000000000005]]]}, "properties": {"max_tracer_relative": 2e-07, "fraction_of_peak": 0.11764705882352941, "above_threshold": true}}, {"type": "Feature", "geometry": {"type": "Polygon", "coordinates": [[[-75.11500000000001, 39.995000000000005], [-75.10499999999999, 39.995000000000005], [-75.10499999999999, 40.004999999999995], [-75.11500000000001, 40.004999999999995], [-75.11500000000001, 39.995000000000005]]]}, "properties": {"max_tracer_relative": 2.3e-07, "fraction_of_peak": 0.13529411764705881, "above_threshold": true}}, {"type": "Feature", "geometry": {"type": "Polygon", "coordinates": [[[-75.10499999999999, 39.995000000000005], [-75.095, 39.995000000000005], [-75.095, 40.004999999999995], [-75.10499999999999, 40.004999999999995], [-75.10499999999999, 39.995000000000005]]]}, "properties": {"max_tracer_relative": 2.1e-07, "fraction_of_peak": 0.12352941176470589, "above_threshold": true}}, {"type": "Feature", "geometry": {"type": "Polygon", "coordinates": [[[-75.095, 39.995000000000005], [-75.08500000000001, 39.995000000000005], [-75.08500000000001, 40.004999999999995], [-75.095, 40.004999999999995], [-75.095, 39.995000000000005]]]}, "properties": {"max_tracer_relative": 2.2e-07, "fraction_of_peak": 0.12941176470588237, "above_threshold": true}}, {"type": "Feature", "geometry": {"type": "Polygon", "coordinates": [[[-75.08500000000001, 39.995000000000005], [-75.07499999999999, 39.995000000000005], [-75.07499999999999, 40.004999999999995], [-75.08500000000001, 40.004999999999995], [-75.08500000000001, 39.995000000000005]]]}, "properties": {"max_tracer_relative": 1.7e-07, "fraction_of_peak": 0.09999999999999999, "above_threshold": true}}, {"type": "Feature", "geometry": {"type": "Polygon", "coordinates": [[[-75.07499999999999, 39.995000000000005], [-75.065, 39.995000000000005], [-75.065, 40.004999999999995], [-75.07499999999999, 40.004999999999995], [-75.07499999999999, 39.995000000000005]]]}, "properties": {"max_tracer_relative": 1.2e-07, "fraction_of_peak": 0.07058823529411765, "above_threshold": true}}, {"type": "Feature", "geometry": {"type": "Polygon", "coordinates": [[[-75.065, 39.995000000000005], [-75.055, 39.995000000000005], [-75.055, 40.004999999999995], [-75.065, 40.004999999999995], [-75.065, 39.995000000000005]]]}, "properties": {"max_tracer_relative": 1.2e-07, "fraction_of_peak": 0.07058823529411765, "above_threshold": true}}, {"type": "Feature", "geometry": {"type": "Polygon", "coordinates": [[[-75.055, 39.995000000000005], [-75.04499999999999, 39.995000000000005], [-75.04499999999999, 40.004999999999995], [-75.055, 40.004999999999995], [-75.055, 39.995000000000005]]]}, "properties": {"max_tracer_relative": 6.6e-08, "fraction_of_peak": 0.0388235294117647, "above_threshold": true}}, {"type": "Feature", "geometry": {"type": "Polygon", "coordinates": [[[-75.04500000000002, 39.995000000000005], [-75.035, 39.995000000000005], [-75.035, 40.004999999999995], [-75.04500000000002, 40.004999999999995], [-75.04500000000002, 39.995000000000005]]]}, "properties": {"max_tracer_relative": 4.3e-08, "fraction_of_peak": 0.025294117647058825, "above_threshold": true}}, {"type": "Feature", "geometry": {"type": "Polygon", "coordinates": [[[-75.035, 39.995000000000005], [-75.025, 39.995000000000005], [-75.025, 40.004999999999995], [-75.035, 40.004999999999995], [-75.035, 39.995000000000005]]]}, "properties": {"max_tracer_relative": 2.3e-08, "fraction_of_peak": 0.013529411764705882, "above_threshold": true}}, {"type": "Feature", "geometry": {"type": "Polygon", "coordinates": [[[-75.13499999999999, 40.004999999999995], [-75.125, 40.004999999999995], [-75.125, 40.015], [-75.13499999999999, 40.015], [-75.13499999999999, 40.004999999999995]]]}, "properties": {"max_tracer_relative": 3.6e-08, "fraction_of_peak": 0.021176470588235293, "above_threshold": true}}, {"type": "Feature", "geometry": {"type": "Polygon", "coordinates": [[[-75.125, 40.004999999999995], [-75.11500000000001, 40.004999999999995], [-75.11500000000001, 40.015], [-75.125, 40.015], [-75.125, 40.004999999999995]]]}, "properties": {"max_tracer_relative": 1.4e-07, "fraction_of_peak": 0.08235294117647059, "above_threshold": true}}, {"type": "Feature", "geometry": {"type": "Polygon", "coordinates": [[[-75.11500000000001, 40.004999999999995], [-75.10499999999999, 40.004999999999995], [-75.10499999999999, 40.015], [-75.11500000000001, 40.015], [-75.11500000000001, 40.004999999999995]]]}, "properties": {"max_tracer_relative": 1.9e-07, "fraction_of_peak": 0.11176470588235295, "above_threshold": true}}, {"type": "Feature", "geometry": {"type": "Polygon", "coordinates": [[[-75.10499999999999, 40.004999999999995], [-75.095, 40.004999999999995], [-75.095, 40.015], [-75.10499999999999, 40.015], [-75.10499999999999, 40.004999999999995]]]}, "properties": {"max_tracer_relative": 2.2e-07, "fraction_of_peak": 0.12941176470588237, "above_threshold": true}}, {"type": "Feature", "geometry": {"type": "Polygon", "coordinates": [[[-75.095, 40.004999999999995], [-75.08500000000001, 40.004999999999995], [-75.08500000000001, 40.015], [-75.095, 40.015], [-75.095, 40.004999999999995]]]}, "properties": {"max_tracer_relative": 2e-07, "fraction_of_peak": 0.11764705882352941, "above_threshold": true}}, {"type": "Feature", "geometry": {"type": "Polygon", "coordinates": [[[-75.08500000000001, 40.004999999999995], [-75.07499999999999, 40.004999999999995], [-75.07499999999999, 40.015], [-75.08500000000001, 40.015], [-75.08500000000001, 40.004999999999995]]]}, "properties": {"max_tracer_relative": 1.7e-07, "fraction_of_peak": 0.09999999999999999, "above_threshold": true}}, {"type": "Feature", "geometry": {"type": "Polygon", "coordinates": [[[-75.07499999999999, 40.004999999999995], [-75.065, 40.004999999999995], [-75.065, 40.015], [-75.07499999999999, 40.015], [-75.07499999999999, 40.004999999999995]]]}, "properties": {"max_tracer_relative": 1.1e-07, "fraction_of_peak": 0.06470588235294118, "above_threshold": true}}, {"type": "Feature", "geometry": {"type": "Polygon", "coordinates": [[[-75.065, 40.004999999999995], [-75.055, 40.004999999999995], [-75.055, 40.015], [-75.065, 40.015], [-75.065, 40.004999999999995]]]}, "properties": {"max_tracer_relative": 9.2e-08, "fraction_of_peak": 0.05411764705882353, "above_threshold": true}}, {"type": "Feature", "geometry": {"type": "Polygon", "coordinates": [[[-75.055, 40.004999999999995], [-75.04499999999999, 40.004999999999995], [-75.04499999999999, 40.015], [-75.055, 40.015], [-75.055, 40.004999999999995]]]}, "properties": {"max_tracer_relative": 8.4e-08, "fraction_of_peak": 0.04941176470588235, "above_threshold": true}}, {"type": "Feature", "geometry": {"type": "Polygon", "coordinates": [[[-75.04500000000002, 40.004999999999995], [-75.035, 40.004999999999995], [-75.035, 40.015], [-75.04500000000002, 40.015], [-75.04500000000002, 40.004999999999995]]]}, "properties": {"max_tracer_relative": 6.3e-08, "fraction_of_peak": 0.03705882352941176, "above_threshold": true}}, {"type": "Feature", "geometry": {"type": "Polygon", "coordinates": [[[-75.035, 40.004999999999995], [-75.025, 40.004999999999995], [-75.025, 40.015], [-75.035, 40.015], [-75.035, 40.004999999999995]]]}, "properties": {"max_tracer_relative": 4.3e-08, "fraction_of_peak": 0.025294117647058825, "above_threshold": true}}, {"type": "Feature", "geometry": {"type": "Polygon", "coordinates": [[[-75.025, 40.004999999999995], [-75.01499999999999, 40.004999999999995], [-75.01499999999999, 40.015], [-75.025, 40.015], [-75.025, 40.004999999999995]]]}, "properties": {"max_tracer_relative": 2.6e-08, "fraction_of_peak": 0.015294117647058824, "above_threshold": true}}, {"type": "Feature", "geometry": {"type": "Polygon", "coordinates": [[[-74.98500000000001, 40.004999999999995], [-74.975, 40.004999999999995], [-74.975, 40.015], [-74.98500000000001, 40.015], [-74.98500000000001, 40.004999999999995]]]}, "properties": {"max_tracer_relative": 1.8e-08, "fraction_of_peak": 0.010588235294117647, "above_threshold": true}}, {"type": "Feature", "geometry": {"type": "Polygon", "coordinates": [[[-75.13499999999999, 40.015], [-75.125, 40.015], [-75.125, 40.025000000000006], [-75.13499999999999, 40.025000000000006], [-75.13499999999999, 40.015]]]}, "properties": {"max_tracer_relative": 2.2e-08, "fraction_of_peak": 0.012941176470588234, "above_threshold": true}}, {"type": "Feature", "geometry": {"type": "Polygon", "coordinates": [[[-75.125, 40.015], [-75.11500000000001, 40.015], [-75.11500000000001, 40.025000000000006], [-75.125, 40.025000000000006], [-75.125, 40.015]]]}, "properties": {"max_tracer_relative": 8.3e-08, "fraction_of_peak": 0.0488235294117647, "above_threshold": true}}, {"type": "Feature", "geometry": {"type": "Polygon", "coordinates": [[[-75.11500000000001, 40.015], [-75.10499999999999, 40.015], [-75.10499999999999, 40.025000000000006], [-75.11500000000001, 40.025000000000006], [-75.11500000000001, 40.015]]]}, "properties": {"max_tracer_relative": 1.4e-07, "fraction_of_peak": 0.08235294117647059, "above_threshold": true}}, {"type": "Feature", "geometry": {"type": "Polygon", "coordinates": [[[-75.10499999999999, 40.015], [-75.095, 40.015], [-75.095, 40.025000000000006], [-75.10499999999999, 40.025000000000006], [-75.10499999999999, 40.015]]]}, "properties": {"max_tracer_relative": 1.9e-07, "fraction_of_peak": 0.11176470588235295, "above_threshold": true}}, {"type": "Feature", "geometry": {"type": "Polygon", "coordinates": [[[-75.095, 40.015], [-75.08500000000001, 40.015], [-75.08500000000001, 40.025000000000006], [-75.095, 40.025000000000006], [-75.095, 40.015]]]}, "properties": {"max_tracer_relative": 1.8e-07, "fraction_of_peak": 0.10588235294117647, "above_threshold": true}}, {"type": "Feature", "geometry": {"type": "Polygon", "coordinates": [[[-75.08500000000001, 40.015], [-75.07499999999999, 40.015], [-75.07499999999999, 40.025000000000006], [-75.08500000000001, 40.025000000000006], [-75.08500000000001, 40.015]]]}, "properties": {"max_tracer_relative": 1.7e-07, "fraction_of_peak": 0.09999999999999999, "above_threshold": true}}, {"type": "Feature", "geometry": {"type": "Polygon", "coordinates": [[[-75.07499999999999, 40.015], [-75.065, 40.015], [-75.065, 40.025000000000006], [-75.07499999999999, 40.025000000000006], [-75.07499999999999, 40.015]]]}, "properties": {"max_tracer_relative": 1.1e-07, "fraction_of_peak": 0.06470588235294118, "above_threshold": true}}, {"type": "Feature", "geometry": {"type": "Polygon", "coordinates": [[[-75.065, 40.015], [-75.055, 40.015], [-75.055, 40.025000000000006], [-75.065, 40.025000000000006], [-75.065, 40.015]]]}, "properties": {"max_tracer_relative": 8.1e-08, "fraction_of_peak": 0.04764705882352941, "above_threshold": true}}, {"type": "Feature", "geometry": {"type": "Polygon", "coordinates": [[[-75.055, 40.015], [-75.04499999999999, 40.015], [-75.04499999999999, 40.025000000000006], [-75.055, 40.025000000000006], [-75.055, 40.015]]]}, "properties": {"max_tracer_relative": 6.8e-08, "fraction_of_peak": 0.04, "above_threshold": true}}, {"type": "Feature", "geometry": {"type": "Polygon", "coordinates": [[[-75.04500000000002, 40.015], [-75.035, 40.015], [-75.035, 40.025000000000006], [-75.04500000000002, 40.025000000000006], [-75.04500000000002, 40.015]]]}, "properties": {"max_tracer_relative": 9.2e-08, "fraction_of_peak": 0.05411764705882353, "above_threshold": true}}, {"type": "Feature", "geometry": {"type": "Polygon", "coordinates": [[[-75.035, 40.015], [-75.025, 40.015], [-75.025, 40.025000000000006], [-75.035, 40.025000000000006], [-75.035, 40.015]]]}, "properties": {"max_tracer_relative": 6.5e-08, "fraction_of_peak": 0.038235294117647055, "above_threshold": true}}, {"type": "Feature", "geometry": {"type": "Polygon", "coordinates": [[[-75.025, 40.015], [-75.01499999999999, 40.015], [-75.01499999999999, 40.025000000000006], [-75.025, 40.025000000000006], [-75.025, 40.015]]]}, "properties": {"max_tracer_relative": 4.2e-08, "fraction_of_peak": 0.024705882352941175, "above_threshold": true}}, {"type": "Feature", "geometry": {"type": "Polygon", "coordinates": [[[-75.01500000000001, 40.015], [-75.005, 40.015], [-75.005, 40.025000000000006], [-75.01500000000001, 40.025000000000006], [-75.01500000000001, 40.015]]]}, "properties": {"max_tracer_relative": 2.4e-08, "fraction_of_peak": 0.01411764705882353, "above_threshold": true}}, {"type": "Feature", "geometry": {"type": "Polygon", "coordinates": [[[-75.005, 40.015], [-74.995, 40.015], [-74.995, 40.025000000000006], [-75.005, 40.025000000000006], [-75.005, 40.015]]]}, "properties": {"max_tracer_relative": 2.3e-08, "fraction_of_peak": 0.013529411764705882, "above_threshold": true}}, {"type": "Feature", "geometry": {"type": "Polygon", "coordinates": [[[-75.125, 40.025000000000006], [-75.11500000000001, 40.025000000000006], [-75.11500000000001, 40.035], [-75.125, 40.035], [-75.125, 40.025000000000006]]]}, "properties": {"max_tracer_relative": 3.9e-08, "fraction_of_peak": 0.022941176470588236, "above_threshold": true}}, {"type": "Feature", "geometry": {"type": "Polygon", "coordinates": [[[-75.11500000000001, 40.025000000000006], [-75.10499999999999, 40.025000000000006], [-75.10499999999999, 40.035], [-75.11500000000001, 40.035], [-75.11500000000001, 40.025000000000006]]]}, "properties": {"max_tracer_relative": 1.2e-07, "fraction_of_peak": 0.07058823529411765, "above_threshold": true}}, {"type": "Feature", "geometry": {"type": "Polygon", "coordinates": [[[-75.10499999999999, 40.025000000000006], [-75.095, 40.025000000000006], [-75.095, 40.035], [-75.10499999999999, 40.035], [-75.10499999999999, 40.025000000000006]]]}, "properties": {"max_tracer_relative": 1.6e-07, "fraction_of_peak": 0.09411764705882353, "above_threshold": true}}, {"type": "Feature", "geometry": {"type": "Polygon", "coordinates": [[[-75.095, 40.025000000000006], [-75.08500000000001, 40.025000000000006], [-75.08500000000001, 40.035], [-75.095, 40.035], [-75.095, 40.025000000000006]]]}, "properties": {"max_tracer_relative": 1.7e-07, "fraction_of_peak": 0.09999999999999999, "above_threshold": true}}, {"type": "Feature", "geometry": {"type": "Polygon", "coordinates": [[[-75.08500000000001, 40.025000000000006], [-75.07499999999999, 40.025000000000006], [-75.07499999999999, 40.035], [-75.08500000000001, 40.035], [-75.08500000000001, 40.025000000000006]]]}, "properties": {"max_tracer_relative": 1.2e-07, "fraction_of_peak": 0.07058823529411765, "above_threshold": true}}, {"type": "Feature", "geometry": {"type": "Polygon", "coordinates": [[[-75.07499999999999, 40.025000000000006], [-75.065, 40.025000000000006], [-75.065, 40.035], [-75.07499999999999, 40.035], [-75.07499999999999, 40.025000000000006]]]}, "properties": {"max_tracer_relative": 1.1e-07, "fraction_of_peak": 0.06470588235294118, "above_threshold": true}}, {"type": "Feature", "geometry": {"type": "Polygon", "coordinates": [[[-75.065, 40.025000000000006], [-75.055, 40.025000000000006], [-75.055, 40.035], [-75.065, 40.035], [-75.065, 40.025000000000006]]]}, "properties": {"max_tracer_relative": 8.7e-08, "fraction_of_peak": 0.051176470588235295, "above_threshold": true}}, {"type": "Feature", "geometry": {"type": "Polygon", "coordinates": [[[-75.055, 40.025000000000006], [-75.04499999999999, 40.025000000000006], [-75.04499999999999, 40.035], [-75.055, 40.035], [-75.055, 40.025000000000006]]]}, "properties": {"max_tracer_relative": 6.1e-08, "fraction_of_peak": 0.03588235294117647, "above_threshold": true}}, {"type": "Feature", "geometry": {"type": "Polygon", "coordinates": [[[-75.04500000000002, 40.025000000000006], [-75.035, 40.025000000000006], [-75.035, 40.035], [-75.04500000000002, 40.035], [-75.04500000000002, 40.025000000000006]]]}, "properties": {"max_tracer_relative": 7e-08, "fraction_of_peak": 0.041176470588235294, "above_threshold": true}}, {"type": "Feature", "geometry": {"type": "Polygon", "coordinates": [[[-75.035, 40.025000000000006], [-75.025, 40.025000000000006], [-75.025, 40.035], [-75.035, 40.035], [-75.035, 40.025000000000006]]]}, "properties": {"max_tracer_relative": 6.9e-08, "fraction_of_peak": 0.04058823529411765, "above_threshold": true}}, {"type": "Feature", "geometry": {"type": "Polygon", "coordinates": [[[-75.025, 40.025000000000006], [-75.01499999999999, 40.025000000000006], [-75.01499999999999, 40.035], [-75.025, 40.035], [-75.025, 40.025000000000006]]]}, "properties": {"max_tracer_relative": 6e-08, "fraction_of_peak": 0.03529411764705882, "above_threshold": true}}, {"type": "Feature", "geometry": {"type": "Polygon", "coordinates": [[[-75.01500000000001, 40.025000000000006], [-75.005, 40.025000000000006], [-75.005, 40.035], [-75.01500000000001, 40.035], [-75.01500000000001, 40.025000000000006]]]}, "properties": {"max_tracer_relative": 4.4e-08, "fraction_of_peak": 0.025882352941176467, "above_threshold": true}}, {"type": "Feature", "geometry": {"type": "Polygon", "coordinates": [[[-75.005, 40.025000000000006], [-74.995, 40.025000000000006], [-74.995, 40.035], [-75.005, 40.035], [-75.005, 40.025000000000006]]]}, "properties": {"max_tracer_relative": 2.5e-08, "fraction_of_peak": 0.014705882352941176, "above_threshold": true}}, {"type": "Feature", "geometry": {"type": "Polygon", "coordinates": [[[-74.995, 40.025000000000006], [-74.98499999999999, 40.025000000000006], [-74.98499999999999, 40.035], [-74.995, 40.035], [-74.995, 40.025000000000006]]]}, "properties": {"max_tracer_relative": 2.2e-08, "fraction_of_peak": 0.012941176470588234, "above_threshold": true}}, {"type": "Feature", "geometry": {"type": "Polygon", "coordinates": [[[-75.125, 40.035], [-75.11500000000001, 40.035], [-75.11500000000001, 40.045], [-75.125, 40.045], [-75.125, 40.035]]]}, "properties": {"max_tracer_relative": 2.9e-08, "fraction_of_peak": 0.017058823529411765, "above_threshold": true}}, {"type": "Feature", "geometry": {"type": "Polygon", "coordinates": [[[-75.11500000000001, 40.035], [-75.10499999999999, 40.035], [-75.10499999999999, 40.045], [-75.11500000000001, 40.045], [-75.11500000000001, 40.035]]]}, "properties": {"max_tracer_relative": 9.4e-08, "fraction_of_peak": 0.05529411764705882, "above_threshold": true}}, {"type": "Feature", "geometry": {"type": "Polygon", "coordinates": [[[-75.10499999999999, 40.035], [-75.095, 40.035], [-75.095, 40.045], [-75.10499999999999, 40.045], [-75.10499999999999, 40.035]]]}, "properties": {"max_tracer_relative": 1.1e-07, "fraction_of_peak": 0.06470588235294118, "above_threshold": true}}, {"type": "Feature", "geometry": {"type": "Polygon", "coordinates": [[[-75.095, 40.035], [-75.08500000000001, 40.035], [-75.08500000000001, 40.045], [-75.095, 40.045], [-75.095, 40.035]]]}, "properties": {"max_tracer_relative": 1.3e-07, "fraction_of_peak": 0.07647058823529411, "above_threshold": true}}, {"type": "Feature", "geometry": {"type": "Polygon", "coordinates": [[[-75.08500000000001, 40.035], [-75.07499999999999, 40.035], [-75.07499999999999, 40.045], [-75.08500000000001, 40.045], [-75.08500000000001, 40.035]]]}, "properties": {"max_tracer_relative": 1.2e-07, "fraction_of_peak": 0.07058823529411765, "above_threshold": true}}, {"type": "Feature", "geometry": {"type": "Polygon", "coordinates": [[[-75.07499999999999, 40.035], [-75.065, 40.035], [-75.065, 40.045], [-75.07499999999999, 40.045], [-75.07499999999999, 40.035]]]}, "properties": {"max_tracer_relative": 1e-07, "fraction_of_peak": 0.058823529411764705, "above_threshold": true}}, {"type": "Feature", "geometry": {"type": "Polygon", "coordinates": [[[-75.065, 40.035], [-75.055, 40.035], [-75.055, 40.045], [-75.065, 40.045], [-75.065, 40.035]]]}, "properties": {"max_tracer_relative": 9.4e-08, "fraction_of_peak": 0.05529411764705882, "above_threshold": true}}, {"type": "Feature", "geometry": {"type": "Polygon", "coordinates": [[[-75.055, 40.035], [-75.04499999999999, 40.035], [-75.04499999999999, 40.045], [-75.055, 40.045], [-75.055, 40.035]]]}, "properties": {"max_tracer_relative": 6.8e-08, "fraction_of_peak": 0.04, "above_threshold": true}}, {"type": "Feature", "geometry": {"type": "Polygon", "coordinates": [[[-75.04500000000002, 40.035], [-75.035, 40.035], [-75.035, 40.045], [-75.04500000000002, 40.045], [-75.04500000000002, 40.035]]]}, "properties": {"max_tracer_relative": 5.1e-08, "fraction_of_peak": 0.03, "above_threshold": true}}, {"type": "Feature", "geometry": {"type": "Polygon", "coordinates": [[[-75.035, 40.035], [-75.025, 40.035], [-75.025, 40.045], [-75.035, 40.045], [-75.035, 40.035]]]}, "properties": {"max_tracer_relative": 5.9e-08, "fraction_of_peak": 0.03470588235294118, "above_threshold": true}}, {"type": "Feature", "geometry": {"type": "Polygon", "coordinates": [[[-75.025, 40.035], [-75.01499999999999, 40.035], [-75.01499999999999, 40.045], [-75.025, 40.045], [-75.025, 40.035]]]}, "properties": {"max_tracer_relative": 5.5e-08, "fraction_of_peak": 0.03235294117647059, "above_threshold": true}}, {"type": "Feature", "geometry": {"type": "Polygon", "coordinates": [[[-75.01500000000001, 40.035], [-75.005, 40.035], [-75.005, 40.045], [-75.01500000000001, 40.045], [-75.01500000000001, 40.035]]]}, "properties": {"max_tracer_relative": 4.7e-08, "fraction_of_peak": 0.02764705882352941, "above_threshold": true}}, {"type": "Feature", "geometry": {"type": "Polygon", "coordinates": [[[-75.005, 40.035], [-74.995, 40.035], [-74.995, 40.045], [-75.005, 40.045], [-75.005, 40.035]]]}, "properties": {"max_tracer_relative": 4.9e-08, "fraction_of_peak": 0.028823529411764706, "above_threshold": true}}, {"type": "Feature", "geometry": {"type": "Polygon", "coordinates": [[[-74.995, 40.035], [-74.98499999999999, 40.035], [-74.98499999999999, 40.045], [-74.995, 40.045], [-74.995, 40.035]]]}, "properties": {"max_tracer_relative": 2.5e-08, "fraction_of_peak": 0.014705882352941176, "above_threshold": true}}, {"type": "Feature", "geometry": {"type": "Polygon", "coordinates": [[[-74.98500000000001, 40.035], [-74.975, 40.035], [-74.975, 40.045], [-74.98500000000001, 40.045], [-74.98500000000001, 40.035]]]}, "properties": {"max_tracer_relative": 1.8e-08, "fraction_of_peak": 0.010588235294117647, "above_threshold": true}}, {"type": "Feature", "geometry": {"type": "Polygon", "coordinates": [[[-75.125, 40.045], [-75.11500000000001, 40.045], [-75.11500000000001, 40.05499999999999], [-75.125, 40.05499999999999], [-75.125, 40.045]]]}, "properties": {"max_tracer_relative": 2.2e-08, "fraction_of_peak": 0.012941176470588234, "above_threshold": true}}, {"type": "Feature", "geometry": {"type": "Polygon", "coordinates": [[[-75.11500000000001, 40.045], [-75.10499999999999, 40.045], [-75.10499999999999, 40.05499999999999], [-75.11500000000001, 40.05499999999999], [-75.11500000000001, 40.045]]]}, "properties": {"max_tracer_relative": 7e-08, "fraction_of_peak": 0.041176470588235294, "above_threshold": true}}, {"type": "Feature", "geometry": {"type": "Polygon", "coordinates": [[[-75.10499999999999, 40.045], [-75.095, 40.045], [-75.095, 40.05499999999999], [-75.10499999999999, 40.05499999999999], [-75.10499999999999, 40.045]]]}, "properties": {"max_tracer_relative": 8e-08, "fraction_of_peak": 0.047058823529411764, "above_threshold": true}}, {"type": "Feature", "geometry": {"type": "Polygon", "coordinates": [[[-75.095, 40.045], [-75.08500000000001, 40.045], [-75.08500000000001, 40.05499999999999], [-75.095, 40.05499999999999], [-75.095, 40.045]]]}, "properties": {"max_tracer_relative": 1.2e-07, "fraction_of_peak": 0.07058823529411765, "above_threshold": true}}, {"type": "Feature", "geometry": {"type": "Polygon", "coordinates": [[[-75.08500000000001, 40.045], [-75.07499999999999, 40.045], [-75.07499999999999, 40.05499999999999], [-75.08500000000001, 40.05499999999999], [-75.08500000000001, 40.045]]]}, "properties": {"max_tracer_relative": 1.2e-07, "fraction_of_peak": 0.07058823529411765, "above_threshold": true}}, {"type": "Feature", "geometry": {"type": "Polygon", "coordinates": [[[-75.07499999999999, 40.045], [-75.065, 40.045], [-75.065, 40.05499999999999], [-75.07499999999999, 40.05499999999999], [-75.07499999999999, 40.045]]]}, "properties": {"max_tracer_relative": 1e-07, "fraction_of_peak": 0.058823529411764705, "above_threshold": true}}, {"type": "Feature", "geometry": {"type": "Polygon", "coordinates": [[[-75.065, 40.045], [-75.055, 40.045], [-75.055, 40.05499999999999], [-75.065, 40.05499999999999], [-75.065, 40.045]]]}, "properties": {"max_tracer_relative": 8.2e-08, "fraction_of_peak": 0.048235294117647064, "above_threshold": true}}, {"type": "Feature", "geometry": {"type": "Polygon", "coordinates": [[[-75.055, 40.045], [-75.04499999999999, 40.045], [-75.04499999999999, 40.05499999999999], [-75.055, 40.05499999999999], [-75.055, 40.045]]]}, "properties": {"max_tracer_relative": 6.8e-08, "fraction_of_peak": 0.04, "above_threshold": true}}, {"type": "Feature", "geometry": {"type": "Polygon", "coordinates": [[[-75.04500000000002, 40.045], [-75.035, 40.045], [-75.035, 40.05499999999999], [-75.04500000000002, 40.05499999999999], [-75.04500000000002, 40.045]]]}, "properties": {"max_tracer_relative": 5.1e-08, "fraction_of_peak": 0.03, "above_threshold": true}}, {"type": "Feature", "geometry": {"type": "Polygon", "coordinates": [[[-75.035, 40.045], [-75.025, 40.045], [-75.025, 40.05499999999999], [-75.035, 40.05499999999999], [-75.035, 40.045]]]}, "properties": {"max_tracer_relative": 4.4e-08, "fraction_of_peak": 0.025882352941176467, "above_threshold": true}}, {"type": "Feature", "geometry": {"type": "Polygon", "coordinates": [[[-75.025, 40.045], [-75.01499999999999, 40.045], [-75.01499999999999, 40.05499999999999], [-75.025, 40.05499999999999], [-75.025, 40.045]]]}, "properties": {"max_tracer_relative": 5e-08, "fraction_of_peak": 0.029411764705882353, "above_threshold": true}}, {"type": "Feature", "geometry": {"type": "Polygon", "coordinates": [[[-75.01500000000001, 40.045], [-75.005, 40.045], [-75.005, 40.05499999999999], [-75.01500000000001, 40.05499999999999], [-75.01500000000001, 40.045]]]}, "properties": {"max_tracer_relative": 5.2e-08, "fraction_of_peak": 0.03058823529411765, "above_threshold": true}}, {"type": "Feature", "geometry": {"type": "Polygon", "coordinates": [[[-75.005, 40.045], [-74.995, 40.045], [-74.995, 40.05499999999999], [-75.005, 40.05499999999999], [-75.005, 40.045]]]}, "properties": {"max_tracer_relative": 4e-08, "fraction_of_peak": 0.023529411764705882, "above_threshold": true}}, {"type": "Feature", "geometry": {"type": "Polygon", "coordinates": [[[-74.995, 40.045], [-74.98499999999999, 40.045], [-74.98499999999999, 40.05499999999999], [-74.995, 40.05499999999999], [-74.995, 40.045]]]}, "properties": {"max_tracer_relative": 4.2e-08, "fraction_of_peak": 0.024705882352941175, "above_threshold": true}}, {"type": "Feature", "geometry": {"type": "Polygon", "coordinates": [[[-74.98500000000001, 40.045], [-74.975, 40.045], [-74.975, 40.05499999999999], [-74.98500000000001, 40.05499999999999], [-74.98500000000001, 40.045]]]}, "properties": {"max_tracer_relative": 3.4e-08, "fraction_of_peak": 0.02, "above_threshold": true}}, {"type": "Feature", "geometry": {"type": "Polygon", "coordinates": [[[-75.11500000000001, 40.05500000000001], [-75.10499999999999, 40.05500000000001], [-75.10499999999999, 40.065], [-75.11500000000001, 40.065], [-75.11500000000001, 40.05500000000001]]]}, "properties": {"max_tracer_relative": 3.6e-08, "fraction_of_peak": 0.021176470588235293, "above_threshold": true}}, {"type": "Feature", "geometry": {"type": "Polygon", "coordinates": [[[-75.10499999999999, 40.05500000000001], [-75.095, 40.05500000000001], [-75.095, 40.065], [-75.10499999999999, 40.065], [-75.10499999999999, 40.05500000000001]]]}, "properties": {"max_tracer_relative": 6.5e-08, "fraction_of_peak": 0.038235294117647055, "above_threshold": true}}, {"type": "Feature", "geometry": {"type": "Polygon", "coordinates": [[[-75.095, 40.05500000000001], [-75.08500000000001, 40.05500000000001], [-75.08500000000001, 40.065], [-75.095, 40.065], [-75.095, 40.05500000000001]]]}, "properties": {"max_tracer_relative": 8.2e-08, "fraction_of_peak": 0.048235294117647064, "above_threshold": true}}, {"type": "Feature", "geometry": {"type": "Polygon", "coordinates": [[[-75.08500000000001, 40.05500000000001], [-75.07499999999999, 40.05500000000001], [-75.07499999999999, 40.065], [-75.08500000000001, 40.065], [-75.08500000000001, 40.05500000000001]]]}, "properties": {"max_tracer_relative": 1.1e-07, "fraction_of_peak": 0.06470588235294118, "above_threshold": true}}, {"type": "Feature", "geometry": {"type": "Polygon", "coordinates": [[[-75.07499999999999, 40.05500000000001], [-75.065, 40.05500000000001], [-75.065, 40.065], [-75.07499999999999, 40.065], [-75.07499999999999, 40.05500000000001]]]}, "properties": {"max_tracer_relative": 1.1e-07, "fraction_of_peak": 0.06470588235294118, "above_threshold": true}}, {"type": "Feature", "geometry": {"type": "Polygon", "coordinates": [[[-75.065, 40.05500000000001], [-75.055, 40.05500000000001], [-75.055, 40.065], [-75.065, 40.065], [-75.065, 40.05500000000001]]]}, "properties": {"max_tracer_relative": 7.2e-08, "fraction_of_peak": 0.042352941176470586, "above_threshold": true}}, {"type": "Feature", "geometry": {"type": "Polygon", "coordinates": [[[-75.055, 40.05500000000001], [-75.04499999999999, 40.05500000000001], [-75.04499999999999, 40.065], [-75.055, 40.065], [-75.055, 40.05500000000001]]]}, "properties": {"max_tracer_relative": 6.4e-08, "fraction_of_peak": 0.037647058823529415, "above_threshold": true}}, {"type": "Feature", "geometry": {"type": "Polygon", "coordinates": [[[-75.04500000000002, 40.05500000000001], [-75.035, 40.05500000000001], [-75.035, 40.065], [-75.04500000000002, 40.065], [-75.04500000000002, 40.05500000000001]]]}, "properties": {"max_tracer_relative": 5.5e-08, "fraction_of_peak": 0.03235294117647059, "above_threshold": true}}, {"type": "Feature", "geometry": {"type": "Polygon", "coordinates": [[[-75.035, 40.05500000000001], [-75.025, 40.05500000000001], [-75.025, 40.065], [-75.035, 40.065], [-75.035, 40.05500000000001]]]}, "properties": {"max_tracer_relative": 4.9e-08, "fraction_of_peak": 0.028823529411764706, "above_threshold": true}}, {"type": "Feature", "geometry": {"type": "Polygon", "coordinates": [[[-75.025, 40.05500000000001], [-75.01499999999999, 40.05500000000001], [-75.01499999999999, 40.065], [-75.025, 40.065], [-75.025, 40.05500000000001]]]}, "properties": {"max_tracer_relative": 3.8e-08, "fraction_of_peak": 0.02235294117647059, "above_threshold": true}}, {"type": "Feature", "geometry": {"type": "Polygon", "coordinates": [[[-75.01500000000001, 40.05500000000001], [-75.005, 40.05500000000001], [-75.005, 40.065], [-75.01500000000001, 40.065], [-75.01500000000001, 40.05500000000001]]]}, "properties": {"max_tracer_relative": 4.4e-08, "fraction_of_peak": 0.025882352941176467, "above_threshold": true}}, {"type": "Feature", "geometry": {"type": "Polygon", "coordinates": [[[-75.005, 40.05500000000001], [-74.995, 40.05500000000001], [-74.995, 40.065], [-75.005, 40.065], [-75.005, 40.05500000000001]]]}, "properties": {"max_tracer_relative": 6e-08, "fraction_of_peak": 0.03529411764705882, "above_threshold": true}}, {"type": "Feature", "geometry": {"type": "Polygon", "coordinates": [[[-74.995, 40.05500000000001], [-74.98499999999999, 40.05500000000001], [-74.98499999999999, 40.065], [-74.995, 40.065], [-74.995, 40.05500000000001]]]}, "properties": {"max_tracer_relative": 3.4e-08, "fraction_of_peak": 0.02, "above_threshold": true}}, {"type": "Feature", "geometry": {"type": "Polygon", "coordinates": [[[-74.98500000000001, 40.05500000000001], [-74.975, 40.05500000000001], [-74.975, 40.065], [-74.98500000000001, 40.065], [-74.98500000000001, 40.05500000000001]]]}, "properties": {"max_tracer_relative": 3.8e-08, "fraction_of_peak": 0.02235294117647059, "above_threshold": true}}, {"type": "Feature", "geometry": {"type": "Polygon", "coordinates": [[[-75.11500000000001, 40.065], [-75.10499999999999, 40.065], [-75.10499999999999, 40.075], [-75.11500000000001, 40.075], [-75.11500000000001, 40.065]]]}, "properties": {"max_tracer_relative": 1.8e-08, "fraction_of_peak": 0.010588235294117647, "above_threshold": true}}, {"type": "Feature", "geometry": {"type": "Polygon", "coordinates": [[[-75.10499999999999, 40.065], [-75.095, 40.065], [-75.095, 40.075], [-75.10499999999999, 40.075], [-75.10499999999999, 40.065]]]}, "properties": {"max_tracer_relative": 3.8e-08, "fraction_of_peak": 0.02235294117647059, "above_threshold": true}}, {"type": "Feature", "geometry": {"type": "Polygon", "coordinates": [[[-75.095, 40.065], [-75.08500000000001, 40.065], [-75.08500000000001, 40.075], [-75.095, 40.075], [-75.095, 40.065]]]}, "properties": {"max_tracer_relative": 6.4e-08, "fraction_of_peak": 0.037647058823529415, "above_threshold": true}}, {"type": "Feature", "geometry": {"type": "Polygon", "coordinates": [[[-75.08500000000001, 40.065], [-75.07499999999999, 40.065], [-75.07499999999999, 40.075], [-75.08500000000001, 40.075], [-75.08500000000001, 40.065]]]}, "properties": {"max_tracer_relative": 8.8e-08, "fraction_of_peak": 0.051764705882352935, "above_threshold": true}}, {"type": "Feature", "geometry": {"type": "Polygon", "coordinates": [[[-75.07499999999999, 40.065], [-75.065, 40.065], [-75.065, 40.075], [-75.07499999999999, 40.075], [-75.07499999999999, 40.065]]]}, "properties": {"max_tracer_relative": 1e-07, "fraction_of_peak": 0.058823529411764705, "above_threshold": true}}, {"type": "Feature", "geometry": {"type": "Polygon", "coordinates": [[[-75.065, 40.065], [-75.055, 40.065], [-75.055, 40.075], [-75.065, 40.075], [-75.065, 40.065]]]}, "properties": {"max_tracer_relative": 8.5e-08, "fraction_of_peak": 0.049999999999999996, "above_threshold": true}}, {"type": "Feature", "geometry": {"type": "Polygon", "coordinates": [[[-75.055, 40.065], [-75.04499999999999, 40.065], [-75.04499999999999, 40.075], [-75.055, 40.075], [-75.055, 40.065]]]}, "properties": {"max_tracer_relative": 5.5e-08, "fraction_of_peak": 0.03235294117647059, "above_threshold": true}}, {"type": "Feature", "geometry": {"type": "Polygon", "coordinates": [[[-75.04500000000002, 40.065], [-75.035, 40.065], [-75.035, 40.075], [-75.04500000000002, 40.075], [-75.04500000000002, 40.065]]]}, "properties": {"max_tracer_relative": 4.4e-08, "fraction_of_peak": 0.025882352941176467, "above_threshold": true}}, {"type": "Feature", "geometry": {"type": "Polygon", "coordinates": [[[-75.035, 40.065], [-75.025, 40.065], [-75.025, 40.075], [-75.035, 40.075], [-75.035, 40.065]]]}, "properties": {"max_tracer_relative": 4.6e-08, "fraction_of_peak": 0.027058823529411764, "above_threshold": true}}, {"type": "Feature", "geometry": {"type": "Polygon", "coordinates": [[[-75.025, 40.065], [-75.01499999999999, 40.065], [-75.01499999999999, 40.075], [-75.025, 40.075], [-75.025, 40.065]]]}, "properties": {"max_tracer_relative": 3.4e-08, "fraction_of_peak": 0.02, "above_threshold": true}}, {"type": "Feature", "geometry": {"type": "Polygon", "coordinates": [[[-75.01500000000001, 40.065], [-75.005, 40.065], [-75.005, 40.075], [-75.01500000000001, 40.075], [-75.01500000000001, 40.065]]]}, "properties": {"max_tracer_relative": 3.8e-08, "fraction_of_peak": 0.02235294117647059, "above_threshold": true}}, {"type": "Feature", "geometry": {"type": "Polygon", "coordinates": [[[-75.005, 40.065], [-74.995, 40.065], [-74.995, 40.075], [-75.005, 40.075], [-75.005, 40.065]]]}, "properties": {"max_tracer_relative": 3.4e-08, "fraction_of_peak": 0.02, "above_threshold": true}}, {"type": "Feature", "geometry": {"type": "Polygon", "coordinates": [[[-74.995, 40.065], [-74.98499999999999, 40.065], [-74.98499999999999, 40.075], [-74.995, 40.075], [-74.995, 40.065]]]}, "properties": {"max_tracer_relative": 4.8e-08, "fraction_of_peak": 0.02823529411764706, "above_threshold": true}}, {"type": "Feature", "geometry": {"type": "Polygon", "coordinates": [[[-74.98500000000001, 40.065], [-74.975, 40.065], [-74.975, 40.075], [-74.98500000000001, 40.075], [-74.98500000000001, 40.065]]]}, "properties": {"max_tracer_relative": 3e-08, "fraction_of_peak": 0.01764705882352941, "above_threshold": true}}, {"type": "Feature", "geometry": {"type": "Polygon", "coordinates": [[[-75.10499999999999, 40.075], [-75.095, 40.075], [-75.095, 40.084999999999994], [-75.10499999999999, 40.084999999999994], [-75.10499999999999, 40.075]]]}, "properties": {"max_tracer_relative": 3.9e-08, "fraction_of_peak": 0.022941176470588236, "above_threshold": true}}, {"type": "Feature", "geometry": {"type": "Polygon", "coordinates": [[[-75.095, 40.075], [-75.08500000000001, 40.075], [-75.08500000000001, 40.084999999999994], [-75.095, 40.084999999999994], [-75.095, 40.075]]]}, "properties": {"max_tracer_relative": 4.5e-08, "fraction_of_peak": 0.026470588235294117, "above_threshold": true}}, {"type": "Feature", "geometry": {"type": "Polygon", "coordinates": [[[-75.08500000000001, 40.075], [-75.07499999999999, 40.075], [-75.07499999999999, 40.084999999999994], [-75.08500000000001, 40.084999999999994], [-75.08500000000001, 40.075]]]}, "properties": {"max_tracer_relative": 6.4e-08, "fraction_of_peak": 0.037647058823529415, "above_threshold": true}}, {"type": "Feature", "geometry": {"type": "Polygon", "coordinates": [[[-75.07499999999999, 40.075], [-75.065, 40.075], [-75.065, 40.084999999999994], [-75.07499999999999, 40.084999999999994], [-75.07499999999999, 40.075]]]}, "properties": {"max_tracer_relative": 1e-07, "fraction_of_peak": 0.058823529411764705, "above_threshold": true}}, {"type": "Feature", "geometry": {"type": "Polygon", "coordinates": [[[-75.065, 40.075], [-75.055, 40.075], [-75.055, 40.084999999999994], [-75.065, 40.084999999999994], [-75.065, 40.075]]]}, "properties": {"max_tracer_relative": 8.4e-08, "fraction_of_peak": 0.04941176470588235, "above_threshold": true}}, {"type": "Feature", "geometry": {"type": "Polygon", "coordinates": [[[-75.055, 40.075], [-75.04499999999999, 40.075], [-75.04499999999999, 40.084999999999994], [-75.055, 40.084999999999994], [-75.055, 40.075]]]}, "properties": {"max_tracer_relative": 6e-08, "fraction_of_peak": 0.03529411764705882, "above_threshold": true}}, {"type": "Feature", "geometry": {"type": "Polygon", "coordinates": [[[-75.04500000000002, 40.075], [-75.035, 40.075], [-75.035, 40.084999999999994], [-75.04500000000002, 40.084999999999994], [-75.04500000000002, 40.075]]]}, "properties": {"max_tracer_relative": 5.1e-08, "fraction_of_peak": 0.03, "above_threshold": true}}, {"type": "Feature", "geometry": {"type": "Polygon", "coordinates": [[[-75.035, 40.075], [-75.025, 40.075], [-75.025, 40.084999999999994], [-75.035, 40.084999999999994], [-75.035, 40.075]]]}, "properties": {"max_tracer_relative": 4.1e-08, "fraction_of_peak": 0.024117647058823532, "above_threshold": true}}, {"type": "Feature", "geometry": {"type": "Polygon", "coordinates": [[[-75.025, 40.075], [-75.01499999999999, 40.075], [-75.01499999999999, 40.084999999999994], [-75.025, 40.084999999999994], [-75.025, 40.075]]]}, "properties": {"max_tracer_relative": 3.6e-08, "fraction_of_peak": 0.021176470588235293, "above_threshold": true}}, {"type": "Feature", "geometry": {"type": "Polygon", "coordinates": [[[-75.01500000000001, 40.075], [-75.005, 40.075], [-75.005, 40.084999999999994], [-75.01500000000001, 40.084999999999994], [-75.01500000000001, 40.075]]]}, "properties": {"max_tracer_relative": 3.7e-08, "fraction_of_peak": 0.02176470588235294, "above_threshold": true}}, {"type": "Feature", "geometry": {"type": "Polygon", "coordinates": [[[-75.005, 40.075], [-74.995, 40.075], [-74.995, 40.084999999999994], [-75.005, 40.084999999999994], [-75.005, 40.075]]]}, "properties": {"max_tracer_relative": 3.1e-08, "fraction_of_peak": 0.018235294117647058, "above_threshold": true}}, {"type": "Feature", "geometry": {"type": "Polygon", "coordinates": [[[-74.995, 40.075], [-74.98499999999999, 40.075], [-74.98499999999999, 40.084999999999994], [-74.995, 40.084999999999994], [-74.995, 40.075]]]}, "properties": {"max_tracer_relative": 2.9e-08, "fraction_of_peak": 0.017058823529411765, "above_threshold": true}}, {"type": "Feature", "geometry": {"type": "Polygon", "coordinates": [[[-74.98500000000001, 40.075], [-74.975, 40.075], [-74.975, 40.084999999999994], [-74.98500000000001, 40.084999999999994], [-74.98500000000001, 40.075]]]}, "properties": {"max_tracer_relative": 3.4e-08, "fraction_of_peak": 0.02, "above_threshold": true}}]}