{"type": "FeatureCollection", "name": "emr_site", "x_description": "EMR Eastern facility point and distance rings from the reference map (ring features are points with radius_m — re-draw as circles).", "x_sources": ["EMR Eastern facility marker: from the camden pipeline maps. Per-site addresses (shredder, scrapyard, etc.) are in landmarks_sophia.geojson."], "x_built_by": "camden/scripts/build_handoff.py", "features": [{"type": "Feature", "geometry": {"type": "Point", "coordinates": [-75.12862946332181, 39.926309013731036]}, "properties": {"name": "0.5 mi ring around EMR", "radius_m": 804.672, "radius_mi": 0.5, "style": {"color": "red", "weight": 1.0, "opacity": 0.45, "fill": false, "fillColor": "red", "fillOpacity": 0.2, "dashArray": "4 4", "radius": 804.672}}}, {"type": "Feature", "geometry": {"type": "Point", "coordinates": [-75.12862946332181, 39.926309013731036]}, "properties": {"name": "1 mi ring around EMR", "radius_m": 1609.344, "radius_mi": 1.0, "style": {"color": "red", "weight": 1.0, "opacity": 0.45, "fill": false, "fillColor": "red", "fillOpacity": 0.2, "dashArray": "4 4", "radius": 1609.344}}}, {"type": "Feature", "geometry": {"type": "Point", "coordinates": [-75.12862946332181, 39.926309013731036]}, "properties": {"name": "2 mi ring around EMR", "radius_m": 3218.688, "radius_mi": 2.0, "style": {"color": "red", "weight": 1.0, "opacity": 0.45, "fill": false, "fillColor": "red", "fillOpacity": 0.2, "dashArray": "4 4", "radius": 3218.688}}}, {"type": "Feature", "geometry": {"type": "Point", "coordinates": [-75.12862946332181, 39.926309013731036]}, "properties": {"name": "5 mi ring around EMR", "radius_m": 8046.72, "radius_mi": 5.0, "style": {"color": "red", "weight": 1.0, "opacity": 0.45, "fill": false, "fillColor": "red", "fillOpacity": 0.2, "dashArray": "4 4", "radius": 8046.72}}}, {"type": "Feature", "geometry": {"type": "Point", "coordinates": [-75.12862946332181, 39.926309013731036]}, "properties": {"name": "EMR Eastern (Camden scrap yard)", "icon": {"markerColor": "red", "icon": "fire", "iconColor": "white"}}}]}