{"type": "FeatureCollection", "name": "receptors_nursing_homes_cms", "x_description": "Nursing homes (CMS) (18) — sensitive-receptor points near EMR with distance from the facility; marker style/icon from the reference map baked in.", "x_sources": ["CMS provider directories (certified hospitals / nursing homes)."], "x_built_by": "camden/scripts/build_handoff.py", "features": [{"type": "Feature", "geometry": {"type": "Point", "coordinates": [-75.115, 39.9356]}, "properties": {"name": "MAJESTIC CENTER FOR REHAB & SUB-ACUTE CARE", "category": "Nursing homes (CMS)", "distance_mi_from_emr": 0.97, "address": "CAMDEN, NJ", "icon": {"markerColor": "darkpurple", "icon": "bed", "iconColor": "white"}}}, {"type": "Feature", "geometry": {"type": "Point", "coordinates": [-75.154, 39.9172]}, "properties": {"name": "ST MONICA CENTER FOR REHABILITATION & HEALTHCARE", "category": "Nursing homes (CMS)", "distance_mi_from_emr": 1.48, "address": "PHILADELPHIA, PA", "icon": {"markerColor": "darkpurple", "icon": "bed", "iconColor": "white"}}}, {"type": "Feature", "geometry": {"type": "Point", "coordinates": [-75.114, 39.9458]}, "properties": {"name": "ABIGAIL HOUSE FOR NURSING & REHABILITATION", "category": "Nursing homes (CMS)", "distance_mi_from_emr": 1.55, "address": "CAMDEN, NJ", "icon": {"markerColor": "darkpurple", "icon": "bed", "iconColor": "white"}}}, {"type": "Feature", "geometry": {"type": "Point", "coordinates": [-75.169, 39.9264]}, "properties": {"name": "FOX SUBACUTE AT SOUTH PHILADELPHIA", "category": "Nursing homes (CMS)", "distance_mi_from_emr": 2.14, "address": "PHILADELPHIA, PA", "icon": {"markerColor": "darkpurple", "icon": "bed", "iconColor": "white"}}}, {"type": "Feature", "geometry": {"type": "Point", "coordinates": [-75.168, 39.945]}, "properties": {"name": "GRADUATE POST ACUTE", "category": "Nursing homes (CMS)", "distance_mi_from_emr": 2.45, "address": "PHILADELPHIA, PA", "icon": {"markerColor": "darkpurple", "icon": "bed", "iconColor": "white"}}}, {"type": "Feature", "geometry": {"type": "Point", "coordinates": [-75.076, 39.9187]}, "properties": {"name": "UNITED METHODIST COMMUNITIES AT COLLINGSWOOD", "category": "Nursing homes (CMS)", "distance_mi_from_emr": 2.84, "address": "COLLINGSWOOD, NJ", "icon": {"markerColor": "darkpurple", "icon": "bed", "iconColor": "white"}}}, {"type": "Feature", "geometry": {"type": "Point", "coordinates": [-75.154, 39.964]}, "properties": {"name": "TUCKER HOUSE NURSING AND REHABILITATION CENTER", "category": "Nursing homes (CMS)", "distance_mi_from_emr": 2.93, "address": "PHILADELPHIA, PA", "icon": {"markerColor": "darkpurple", "icon": "bed", "iconColor": "white"}}}, {"type": "Feature", "geometry": {"type": "Point", "coordinates": [-75.167, 39.9593]}, "properties": {"name": "LOGAN SQUARE REHABILITATION AND HEALTHCARE CENTER", "category": "Nursing homes (CMS)", "distance_mi_from_emr": 3.05, "address": "PHILADELPHIA, PA", "icon": {"markerColor": "darkpurple", "icon": "bed", "iconColor": "white"}}}, {"type": "Feature", "geometry": {"type": "Point", "coordinates": [-75.068, 39.9276]}, "properties": {"name": "RIVER FRONT REHABILITATION AND HEALTHCARE CENTER", "category": "Nursing homes (CMS)", "distance_mi_from_emr": 3.21, "address": "PENNSAUKEN, NJ", "icon": {"markerColor": "darkpurple", "icon": "bed", "iconColor": "white"}}}, {"type": "Feature", "geometry": {"type": "Point", "coordinates": [-75.196, 39.9548]}, "properties": {"name": "UNIVERSITY CITY REHABILITATION AND HEALTHCARE CTR", "category": "Nursing homes (CMS)", "distance_mi_from_emr": 4.08, "address": "PHILADELPHIA, PA", "icon": {"markerColor": "darkpurple", "icon": "bed", "iconColor": "white"}}}, {"type": "Feature", "geometry": {"type": "Point", "coordinates": [-75.198, 39.9638]}, "properties": {"name": "RITTENHOUSE POST ACUTE", "category": "Nursing homes (CMS)", "distance_mi_from_emr": 4.5, "address": "PHILADELPHIA, PA", "icon": {"markerColor": "darkpurple", "icon": "bed", "iconColor": "white"}}}, {"type": "Feature", "geometry": {"type": "Point", "coordinates": [-75.214, 39.9459]}, "properties": {"name": "RENAISSANCE HEALTHCARE & REHABILITATION CENTER", "category": "Nursing homes (CMS)", "distance_mi_from_emr": 4.72, "address": "PHILADELPHIA, PA", "icon": {"markerColor": "darkpurple", "icon": "bed", "iconColor": "white"}}}, {"type": "Feature", "geometry": {"type": "Point", "coordinates": [-75.036, 39.9381]}, "properties": {"name": "ARISTACARE AT CHERRY HILL", "category": "Nursing homes (CMS)", "distance_mi_from_emr": 4.97, "address": "CHERRY HILL, NJ", "icon": {"markerColor": "darkpurple", "icon": "bed", "iconColor": "white"}}}, {"type": "Feature", "geometry": {"type": "Point", "coordinates": [-75.211, 39.9626]}, "properties": {"name": "WEST PARK REHABILITATION AND NURSING CENTER", "category": "Nursing homes (CMS)", "distance_mi_from_emr": 5.03, "address": "PHILADELPHIA, PA", "icon": {"markerColor": "darkpurple", "icon": "bed", "iconColor": "white"}}}, {"type": "Feature", "geometry": {"type": "Point", "coordinates": [-75.222, 39.9407]}, "properties": {"name": "HOLY FAMILY HOME", "category": "Nursing homes (CMS)", "distance_mi_from_emr": 5.05, "address": "PHILADELPHIA, PA", "icon": {"markerColor": "darkpurple", "icon": "bed", "iconColor": "white"}}}, {"type": "Feature", "geometry": {"type": "Point", "coordinates": [-75.212, 39.9732]}, "properties": {"name": "CENTENNIAL HEALTHCARE AND REHABILITATION CENTER", "category": "Nursing homes (CMS)", "distance_mi_from_emr": 5.48, "address": "PHILADELPHIA, PA", "icon": {"markerColor": "darkpurple", "icon": "bed", "iconColor": "white"}}}, {"type": "Feature", "geometry": {"type": "Point", "coordinates": [-75.22, 39.9928]}, "properties": {"name": "KEARSLEY REHABILITATION AND NURSING CENTER", "category": "Nursing homes (CMS)", "distance_mi_from_emr": 6.67, "address": "PHILADELPHIA, PA", "icon": {"markerColor": "darkpurple", "icon": "bed", "iconColor": "white"}}}, {"type": "Feature", "geometry": {"type": "Point", "coordinates": [-75.218, 39.9948]}, "properties": {"name": "SIMPSON HOUSE INC", "category": "Nursing homes (CMS)", "distance_mi_from_emr": 6.69, "address": "PHILADELPHIA, PA", "icon": {"markerColor": "darkpurple", "icon": "bed", "iconColor": "white"}}}]}