{"type": "FeatureCollection", "name": "receptors_schools_k_12_nces", "x_description": "Schools (K-12, NCES) (208) — sensitive-receptor points near EMR with distance from the facility; marker style/icon from the reference map baked in.", "x_sources": ["NCES public/private school directories."], "x_built_by": "camden/scripts/build_handoff.py", "features": [{"type": "Feature", "geometry": {"type": "Point", "coordinates": [-75.118153, 39.923287]}, "properties": {"name": "Pride Academy", "category": "Schools (K-12, NCES)", "distance_mi_from_emr": 0.59, "address": "1701 South 6th Street, Camden NJ 8104", "icon": {"markerColor": "blue", "icon": "graduation-cap", "iconColor": "white"}}}, {"type": "Feature", "geometry": {"type": "Point", "coordinates": [-75.12233, 39.935078]}, "properties": {"name": "Hope Community Charter School", "category": "Schools (K-12, NCES)", "distance_mi_from_emr": 0.69, "address": "836 S. 4th Street, Camden NJ 8103", "icon": {"markerColor": "blue", "icon": "graduation-cap", "iconColor": "white"}}}, {"type": "Feature", "geometry": {"type": "Point", "coordinates": [-75.11961, 39.939088]}, "properties": {"name": "KIPP: Cooper Norcross A New Jersey Nonprofit Corporation", "category": "Schools (K-12, NCES)", "distance_mi_from_emr": 1.0, "address": "525 Clinton Street, Camden NJ 8103", "icon": {"markerColor": "blue", "icon": "graduation-cap", "iconColor": "white"}}}, {"type": "Feature", "geometry": {"type": "Point", "coordinates": [-75.108472, 39.928938]}, "properties": {"name": "Freedom Prep Charter School", "category": "Schools (K-12, NCES)", "distance_mi_from_emr": 1.08, "address": "1000 Atlantic AVE, CAMDEN NJ 8104", "icon": {"markerColor": "blue", "icon": "graduation-cap", "iconColor": "white"}}}, {"type": "Feature", "geometry": {"type": "Point", "coordinates": [-75.108472, 39.928938]}, "properties": {"name": "Camden Virtua", "category": "Schools (K-12, NCES)", "distance_mi_from_emr": 1.08, "address": "1000 ATLANTIC AVE, CAMDEN NJ 8104", "icon": {"markerColor": "blue", "icon": "graduation-cap", "iconColor": "white"}}}, {"type": "Feature", "geometry": {"type": "Point", "coordinates": [-75.111767, 39.916535]}, "properties": {"name": "Henry B. Wilson Family School", "category": "Schools (K-12, NCES)", "distance_mi_from_emr": 1.12, "address": "2250 South 8th Street, CAMDEN NJ 8104", "icon": {"markerColor": "blue", "icon": "graduation-cap", "iconColor": "white"}}}, {"type": "Feature", "geometry": {"type": "Point", "coordinates": [-75.106478, 39.925256]}, "properties": {"name": "Camden Prep Inc.", "category": "Schools (K-12, NCES)", "distance_mi_from_emr": 1.18, "address": "1575 Mt. Ephraim Ave, Camden NJ 8104", "icon": {"markerColor": "blue", "icon": "graduation-cap", "iconColor": "white"}}}, {"type": "Feature", "geometry": {"type": "Point", "coordinates": [-75.1509, 39.9238]}, "properties": {"name": "Furness Horace HS", "category": "Schools (K-12, NCES)", "distance_mi_from_emr": 1.19, "address": "1900 S 3rd St, Philadelphia PA 19148", "icon": {"markerColor": "blue", "icon": "graduation-cap", "iconColor": "white"}}}, {"type": "Feature", "geometry": {"type": "Point", "coordinates": [-75.10739, 39.920337]}, "properties": {"name": "Riletta Twyne Cream Early Childhood Center", "category": "Schools (K-12, NCES)", "distance_mi_from_emr": 1.2, "address": "1875 Mulford Street, CAMDEN NJ 8104", "icon": {"markerColor": "blue", "icon": "graduation-cap", "iconColor": "white"}}}, {"type": "Feature", "geometry": {"type": "Point", "coordinates": [-75.1509, 39.9188]}, "properties": {"name": "Sharswood George Sch", "category": "Schools (K-12, NCES)", "distance_mi_from_emr": 1.29, "address": "2300 S 2nd St, Philadelphia PA 19148", "icon": {"markerColor": "blue", "icon": "graduation-cap", "iconColor": "white"}}}, {"type": "Feature", "geometry": {"type": "Point", "coordinates": [-75.110036, 39.913385]}, "properties": {"name": "Morgan Village Middle School", "category": "Schools (K-12, NCES)", "distance_mi_from_emr": 1.33, "address": "990 Morgan Boulevard, Camden NJ 8104", "icon": {"markerColor": "blue", "icon": "graduation-cap", "iconColor": "white"}}}, {"type": "Feature", "geometry": {"type": "Point", "coordinates": [-75.1528, 39.9337]}, "properties": {"name": "Vare-Washington El Sch", "category": "Schools (K-12, NCES)", "distance_mi_from_emr": 1.38, "address": "1198 S 5th St, Philadelphia PA 19147", "icon": {"markerColor": "blue", "icon": "graduation-cap", "iconColor": "white"}}}, {"type": "Feature", "geometry": {"type": "Point", "coordinates": [-75.118301, 39.94608]}, "properties": {"name": "Leap Academy University Charter School", "category": "Schools (K-12, NCES)", "distance_mi_from_emr": 1.47, "address": "130 North Broadway, CAMDEN NJ 8102", "icon": {"markerColor": "blue", "icon": "graduation-cap", "iconColor": "white"}}}, {"type": "Feature", "geometry": {"type": "Point", "coordinates": [-75.115746, 39.945324]}, "properties": {"name": "Environment Community Opportunity (ECO) Charter School", "category": "Schools (K-12, NCES)", "distance_mi_from_emr": 1.48, "address": "817 CARPENTER STREET, CAMDEN NJ 8102", "icon": {"markerColor": "blue", "icon": "graduation-cap", "iconColor": "white"}}}, {"type": "Feature", "geometry": {"type": "Point", "coordinates": [-75.1563, 39.93]}, "properties": {"name": "Kirkbride Eliza B Sch", "category": "Schools (K-12, NCES)", "distance_mi_from_emr": 1.49, "address": "1501 S 7th St, Philadelphia PA 19147", "icon": {"markerColor": "blue", "icon": "graduation-cap", "iconColor": "white"}}}, {"type": "Feature", "geometry": {"type": "Point", "coordinates": [-75.1509, 39.9395]}, "properties": {"name": "Meredith William M Sch", "category": "Schools (K-12, NCES)", "distance_mi_from_emr": 1.49, "address": "725 S 5th St, Philadelphia PA 19147", "icon": {"markerColor": "blue", "icon": "graduation-cap", "iconColor": "white"}}}, {"type": "Feature", "geometry": {"type": "Point", "coordinates": [-75.1539, 39.9367]}, "properties": {"name": "Nebinger George W Sch", "category": "Schools (K-12, NCES)", "distance_mi_from_emr": 1.52, "address": "601 Carpenter St, Philadelphia PA 19147", "icon": {"markerColor": "blue", "icon": "graduation-cap", "iconColor": "white"}}}, {"type": "Feature", "geometry": {"type": "Point", "coordinates": [-75.1548, 39.9171]}, "properties": {"name": "Taggart John H Sch", "category": "Schools (K-12, NCES)", "distance_mi_from_emr": 1.53, "address": "400 W Porter St, Philadelphia PA 19148", "icon": {"markerColor": "blue", "icon": "graduation-cap", "iconColor": "white"}}}, {"type": "Feature", "geometry": {"type": "Point", "coordinates": [-75.100787, 39.937581]}, "properties": {"name": "Early Childhood Development Center", "category": "Schools (K-12, NCES)", "distance_mi_from_emr": 1.67, "address": "1602 Pine Street, CAMDEN NJ 8103", "icon": {"markerColor": "blue", "icon": "graduation-cap", "iconColor": "white"}}}, {"type": "Feature", "geometry": {"type": "Point", "coordinates": [-75.1604, 39.926]}, "properties": {"name": "Southwark Sch", "category": "Schools (K-12, NCES)", "distance_mi_from_emr": 1.68, "address": "1835 S 9th St, Philadelphia PA 19148", "icon": {"markerColor": "blue", "icon": "graduation-cap", "iconColor": "white"}}}, {"type": "Feature", "geometry": {"type": "Point", "coordinates": [-75.098996, 39.936956]}, "properties": {"name": "Forest Hill School", "category": "Schools (K-12, NCES)", "distance_mi_from_emr": 1.73, "address": "1625 Wildwood Avenue, CAMDEN NJ 8103", "icon": {"markerColor": "blue", "icon": "graduation-cap", "iconColor": "white"}}}, {"type": "Feature", "geometry": {"type": "Point", "coordinates": [-75.1607, 39.9208]}, "properties": {"name": "Key Francis Scott Sch", "category": "Schools (K-12, NCES)", "distance_mi_from_emr": 1.74, "address": "2230 S 8th St, Philadelphia PA 19148", "icon": {"markerColor": "blue", "icon": "graduation-cap", "iconColor": "white"}}}, {"type": "Feature", "geometry": {"type": "Point", "coordinates": [-75.097693, 39.936045]}, "properties": {"name": "Dr. Charles E. Brimm Medical Arts High School", "category": "Schools (K-12, NCES)", "distance_mi_from_emr": 1.77, "address": "1875 Park Blvd, CAMDEN NJ 8103", "icon": {"markerColor": "blue", "icon": "graduation-cap", "iconColor": "white"}}}, {"type": "Feature", "geometry": {"type": "Point", "coordinates": [-75.097693, 39.936045]}, "properties": {"name": "Camden Big Picture Learning Academy", "category": "Schools (K-12, NCES)", "distance_mi_from_emr": 1.77, "address": "1875 Park Boulevard, CAMDEN NJ 8103", "icon": {"markerColor": "blue", "icon": "graduation-cap", "iconColor": "white"}}}, {"type": "Feature", "geometry": {"type": "Point", "coordinates": [-75.097693, 39.936045]}, "properties": {"name": "Camden High School", "category": "Schools (K-12, NCES)", "distance_mi_from_emr": 1.77, "address": "1700 Park Boulevard, CAMDEN NJ 8103", "icon": {"markerColor": "blue", "icon": "graduation-cap", "iconColor": "white"}}}, {"type": "Feature", "geometry": {"type": "Point", "coordinates": [-75.097693, 39.936045]}, "properties": {"name": "Creative Arts High School", "category": "Schools (K-12, NCES)", "distance_mi_from_emr": 1.77, "address": "1875 Park Blvd, CAMDEN NJ 8103", "icon": {"markerColor": "blue", "icon": "graduation-cap", "iconColor": "white"}}}, {"type": "Feature", "geometry": {"type": "Point", "coordinates": [-75.1527, 39.9446]}, "properties": {"name": "McCall Gen George A Sch", "category": "Schools (K-12, NCES)", "distance_mi_from_emr": 1.8, "address": "325 S 7th St, Philadelphia PA 19106", "icon": {"markerColor": "blue", "icon": "graduation-cap", "iconColor": "white"}}}, {"type": "Feature", "geometry": {"type": "Point", "coordinates": [-75.1472, 39.9496]}, "properties": {"name": "Mastery CHS-Lenfest Campus", "category": "Schools (K-12, NCES)", "distance_mi_from_emr": 1.89, "address": "35 S. 4th Street, Philadelphia PA 19106", "icon": {"markerColor": "blue", "icon": "graduation-cap", "iconColor": "white"}}}, {"type": "Feature", "geometry": {"type": "Point", "coordinates": [-75.0941, 39.9191]}, "properties": {"name": "Woodlynne Boro Public School", "category": "Schools (K-12, NCES)", "distance_mi_from_emr": 1.9, "address": "131 ELM AVENUE, WOODLYNNE NJ 8107", "icon": {"markerColor": "blue", "icon": "graduation-cap", "iconColor": "white"}}}, {"type": "Feature", "geometry": {"type": "Point", "coordinates": [-75.1634, 39.9346]}, "properties": {"name": "Fanny Jackson Coppin Sch", "category": "Schools (K-12, NCES)", "distance_mi_from_emr": 1.93, "address": "1213 S 12th St, Philadelphia PA 19147", "icon": {"markerColor": "blue", "icon": "graduation-cap", "iconColor": "white"}}}, {"type": "Feature", "geometry": {"type": "Point", "coordinates": [-75.105104, 39.904695]}, "properties": {"name": "Yorkship Elementary School", "category": "Schools (K-12, NCES)", "distance_mi_from_emr": 1.95, "address": "1251 Collings Road, CAMDEN NJ 8104", "icon": {"markerColor": "blue", "icon": "graduation-cap", "iconColor": "white"}}}, {"type": "Feature", "geometry": {"type": "Point", "coordinates": [-75.121883, 39.954022]}, "properties": {"name": "Cooper's Poynt Family School", "category": "Schools (K-12, NCES)", "distance_mi_from_emr": 1.95, "address": "201 State Street, CAMDEN NJ 8102", "icon": {"markerColor": "blue", "icon": "graduation-cap", "iconColor": "white"}}}, {"type": "Feature", "geometry": {"type": "Point", "coordinates": [-75.1634, 39.9154]}, "properties": {"name": "Fell D Newlin Sch", "category": "Schools (K-12, NCES)", "distance_mi_from_emr": 1.99, "address": "900 W Oregon Ave, Philadelphia PA 19148", "icon": {"markerColor": "blue", "icon": "graduation-cap", "iconColor": "white"}}}, {"type": "Feature", "geometry": {"type": "Point", "coordinates": [-75.1618, 39.94]}, "properties": {"name": "Academy at Palumbo", "category": "Schools (K-12, NCES)", "distance_mi_from_emr": 2.0, "address": "1100 Catharine St, Philadelphia PA 19147", "icon": {"markerColor": "blue", "icon": "graduation-cap", "iconColor": "white"}}}, {"type": "Feature", "geometry": {"type": "Point", "coordinates": [-75.1636, 39.9147]}, "properties": {"name": "Mastery CS - Thomas Campus", "category": "Schools (K-12, NCES)", "distance_mi_from_emr": 2.02, "address": "927 Johnston St, Philadelphia PA 19148", "icon": {"markerColor": "blue", "icon": "graduation-cap", "iconColor": "white"}}}, {"type": "Feature", "geometry": {"type": "Point", "coordinates": [-75.165656, 39.93418]}, "properties": {"name": "Christopher Columbus CS", "category": "Schools (K-12, NCES)", "distance_mi_from_emr": 2.04, "address": "South Building, Philadelphia PA 19147", "icon": {"markerColor": "blue", "icon": "graduation-cap", "iconColor": "white"}}}, {"type": "Feature", "geometry": {"type": "Point", "coordinates": [-75.1524, 39.9503]}, "properties": {"name": "Constitution HS", "category": "Schools (K-12, NCES)", "distance_mi_from_emr": 2.08, "address": "18 S 7th St, Philadelphia PA 19106", "icon": {"markerColor": "blue", "icon": "graduation-cap", "iconColor": "white"}}}, {"type": "Feature", "geometry": {"type": "Point", "coordinates": [-75.1682, 39.9234]}, "properties": {"name": "South Philadelphia HS", "category": "Schools (K-12, NCES)", "distance_mi_from_emr": 2.11, "address": "2101 S Broad St, Philadelphia PA 19148", "icon": {"markerColor": "blue", "icon": "graduation-cap", "iconColor": "white"}}}, {"type": "Feature", "geometry": {"type": "Point", "coordinates": [-75.1655, 39.9394]}, "properties": {"name": "Creative and Performing Arts", "category": "Schools (K-12, NCES)", "distance_mi_from_emr": 2.15, "address": "901 S Broad St, Philadelphia PA 19147", "icon": {"markerColor": "blue", "icon": "graduation-cap", "iconColor": "white"}}}, {"type": "Feature", "geometry": {"type": "Point", "coordinates": [-75.1684, 39.9189]}, "properties": {"name": "Jenks Abram Sch", "category": "Schools (K-12, NCES)", "distance_mi_from_emr": 2.17, "address": "2501 S 13th St, Philadelphia PA 19148", "icon": {"markerColor": "blue", "icon": "graduation-cap", "iconColor": "white"}}}, {"type": "Feature", "geometry": {"type": "Point", "coordinates": [-75.100765, 39.950167]}, "properties": {"name": "Mastery Schools of Camden Inc.", "category": "Schools (K-12, NCES)", "distance_mi_from_emr": 2.21, "address": "1001 North 17th Street, Camden NJ 8105", "icon": {"markerColor": "blue", "icon": "graduation-cap", "iconColor": "white"}}}, {"type": "Feature", "geometry": {"type": "Point", "coordinates": [-75.123252, 39.894084]}, "properties": {"name": "Gloucester City Middle School", "category": "Schools (K-12, NCES)", "distance_mi_from_emr": 2.24, "address": "500 Market Street, Gloucester City NJ 8030", "icon": {"markerColor": "blue", "icon": "graduation-cap", "iconColor": "white"}}}, {"type": "Feature", "geometry": {"type": "Point", "coordinates": [-75.09336, 39.94435]}, "properties": {"name": "Thomas H. Dudley Family School", "category": "Schools (K-12, NCES)", "distance_mi_from_emr": 2.25, "address": "2250 Berwick Street, Camden NJ 8105", "icon": {"markerColor": "blue", "icon": "graduation-cap", "iconColor": "white"}}}, {"type": "Feature", "geometry": {"type": "Point", "coordinates": [-75.170265, 39.920017]}, "properties": {"name": "Philadelphia Performing Arts CS", "category": "Schools (K-12, NCES)", "distance_mi_from_emr": 2.25, "address": "2600 S Broad Street, Philadelphia PA 19145", "icon": {"markerColor": "blue", "icon": "graduation-cap", "iconColor": "white"}}}, {"type": "Feature", "geometry": {"type": "Point", "coordinates": [-75.1677, 39.9408]}, "properties": {"name": "Universal Institute CS", "category": "Schools (K-12, NCES)", "distance_mi_from_emr": 2.3, "address": "800 S 15th Street, Philadelphia PA 19146", "icon": {"markerColor": "blue", "icon": "graduation-cap", "iconColor": "white"}}}, {"type": "Feature", "geometry": {"type": "Point", "coordinates": [-75.0895, 39.9117]}, "properties": {"name": "Thomas Sharp Elementary School", "category": "Schools (K-12, NCES)", "distance_mi_from_emr": 2.31, "address": "400 COMLY AVE, WEST COLLINGSWOOD NJ 8107", "icon": {"markerColor": "blue", "icon": "graduation-cap", "iconColor": "white"}}}, {"type": "Feature", "geometry": {"type": "Point", "coordinates": [-75.1728, 39.9316]}, "properties": {"name": "Childs George W Sch", "category": "Schools (K-12, NCES)", "distance_mi_from_emr": 2.37, "address": "1599 Wharton St, Philadelphia PA 19146", "icon": {"markerColor": "blue", "icon": "graduation-cap", "iconColor": "white"}}}, {"type": "Feature", "geometry": {"type": "Point", "coordinates": [-75.1708, 39.9404]}, "properties": {"name": "Stanton Edwin M Sch", "category": "Schools (K-12, NCES)", "distance_mi_from_emr": 2.44, "address": "1700 Christian St, Philadelphia PA 19146", "icon": {"markerColor": "blue", "icon": "graduation-cap", "iconColor": "white"}}}, {"type": "Feature", "geometry": {"type": "Point", "coordinates": [-75.168903, 39.944972]}, "properties": {"name": "Independence CS", "category": "Schools (K-12, NCES)", "distance_mi_from_emr": 2.49, "address": "1600 Lombard Street, Philadelphia PA 19146", "icon": {"markerColor": "blue", "icon": "graduation-cap", "iconColor": "white"}}}, {"type": "Feature", "geometry": {"type": "Point", "coordinates": [-75.177, 39.9246]}, "properties": {"name": "Girard Stephen Sch", "category": "Schools (K-12, NCES)", "distance_mi_from_emr": 2.57, "address": "1800 Snyder Ave, Philadelphia PA 19145", "icon": {"markerColor": "blue", "icon": "graduation-cap", "iconColor": "white"}}}, {"type": "Feature", "geometry": {"type": "Point", "coordinates": [-75.0806, 39.9208]}, "properties": {"name": "Mark Newbie Elementary School", "category": "Schools (K-12, NCES)", "distance_mi_from_emr": 2.57, "address": "2 EAST BROWNING RD, COLLINGSWOOD NJ 8108", "icon": {"markerColor": "blue", "icon": "graduation-cap", "iconColor": "white"}}}, {"type": "Feature", "geometry": {"type": "Point", "coordinates": [-75.081476, 39.937236]}, "properties": {"name": "A.E. Burling High School", "category": "Schools (K-12, NCES)", "distance_mi_from_emr": 2.61, "address": "3600 Harris Avenue, Pennsauken NJ 8110", "icon": {"markerColor": "blue", "icon": "graduation-cap", "iconColor": "white"}}}, {"type": "Feature", "geometry": {"type": "Point", "coordinates": [-75.081476, 39.937236]}, "properties": {"name": "A.E. Burling Elementary School", "category": "Schools (K-12, NCES)", "distance_mi_from_emr": 2.61, "address": "3600 HARRIS AVENUE, PENNSAUKEN NJ 8105", "icon": {"markerColor": "blue", "icon": "graduation-cap", "iconColor": "white"}}}, {"type": "Feature", "geometry": {"type": "Point", "coordinates": [-75.093551, 39.953333]}, "properties": {"name": "Veterans Memorial Family School", "category": "Schools (K-12, NCES)", "distance_mi_from_emr": 2.63, "address": "800 N 26th Street, CAMDEN NJ 8105", "icon": {"markerColor": "blue", "icon": "graduation-cap", "iconColor": "white"}}}, {"type": "Feature", "geometry": {"type": "Point", "coordinates": [-75.176744, 39.914571]}, "properties": {"name": "Bregy F Amedee Sch", "category": "Schools (K-12, NCES)", "distance_mi_from_emr": 2.68, "address": "1700 Bigler St, Philadelphia PA 19145", "icon": {"markerColor": "blue", "icon": "graduation-cap", "iconColor": "white"}}}, {"type": "Feature", "geometry": {"type": "Point", "coordinates": [-75.1561, 39.959]}, "properties": {"name": "Folk Arts-Cultural Treasures CS", "category": "Schools (K-12, NCES)", "distance_mi_from_emr": 2.69, "address": "1023 Callowhill St, Philadelphia PA 19123", "icon": {"markerColor": "blue", "icon": "graduation-cap", "iconColor": "white"}}}, {"type": "Feature", "geometry": {"type": "Point", "coordinates": [-75.1761, 39.9418]}, "properties": {"name": "Arthur Chester A Sch", "category": "Schools (K-12, NCES)", "distance_mi_from_emr": 2.73, "address": "2000 Catharine St, Philadelphia PA 19146", "icon": {"markerColor": "blue", "icon": "graduation-cap", "iconColor": "white"}}}, {"type": "Feature", "geometry": {"type": "Point", "coordinates": [-75.1483, 39.9639]}, "properties": {"name": "Kearny Gen Philip Sch", "category": "Schools (K-12, NCES)", "distance_mi_from_emr": 2.8, "address": "601 Fairmount Ave, Philadelphia PA 19123", "icon": {"markerColor": "blue", "icon": "graduation-cap", "iconColor": "white"}}}, {"type": "Feature", "geometry": {"type": "Point", "coordinates": [-75.1814, 39.9295]}, "properties": {"name": "McDaniel Delaplaine Sch", "category": "Schools (K-12, NCES)", "distance_mi_from_emr": 2.8, "address": "1801 S 22nd Street, Philadelphia PA 19145", "icon": {"markerColor": "blue", "icon": "graduation-cap", "iconColor": "white"}}}, {"type": "Feature", "geometry": {"type": "Point", "coordinates": [-75.114196, 39.886968]}, "properties": {"name": "Cold Springs School", "category": "Schools (K-12, NCES)", "distance_mi_from_emr": 2.82, "address": "1194 MARKET STREET, GLOUCESTER CITY NJ 8030", "icon": {"markerColor": "blue", "icon": "graduation-cap", "iconColor": "white"}}}, {"type": "Feature", "geometry": {"type": "Point", "coordinates": [-75.0758, 39.9181]}, "properties": {"name": "James A. Garfield Elementary School", "category": "Schools (K-12, NCES)", "distance_mi_from_emr": 2.86, "address": "480 HADDON AVE, COLLINGSWOOD NJ 8108", "icon": {"markerColor": "blue", "icon": "graduation-cap", "iconColor": "white"}}}, {"type": "Feature", "geometry": {"type": "Point", "coordinates": [-75.0773, 39.9127]}, "properties": {"name": "Collingswood High School", "category": "Schools (K-12, NCES)", "distance_mi_from_emr": 2.88, "address": "424 COLLINGS AVE, COLLINGSWOOD NJ 8108", "icon": {"markerColor": "blue", "icon": "graduation-cap", "iconColor": "white"}}}, {"type": "Feature", "geometry": {"type": "Point", "coordinates": [-75.0768, 39.913]}, "properties": {"name": "Collingswood Middle School", "category": "Schools (K-12, NCES)", "distance_mi_from_emr": 2.9, "address": "414 COLLINGS AVE, COLLINGSWOOD NJ 8108", "icon": {"markerColor": "blue", "icon": "graduation-cap", "iconColor": "white"}}}, {"type": "Feature", "geometry": {"type": "Point", "coordinates": [-75.1831, 39.9221]}, "properties": {"name": "Gamp", "category": "Schools (K-12, NCES)", "distance_mi_from_emr": 2.9, "address": "23rd and Ritner Sts, Philadelphia PA 19145", "icon": {"markerColor": "blue", "icon": "graduation-cap", "iconColor": "white"}}}, {"type": "Feature", "geometry": {"type": "Point", "coordinates": [-75.1612, 39.9612]}, "properties": {"name": "Math Civics and Sciences CS", "category": "Schools (K-12, NCES)", "distance_mi_from_emr": 2.96, "address": "447 N Broad St, Philadelphia PA 19123", "icon": {"markerColor": "blue", "icon": "graduation-cap", "iconColor": "white"}}}, {"type": "Feature", "geometry": {"type": "Point", "coordinates": [-75.168191, 39.956667]}, "properties": {"name": "Philadelphia Electrical & Tech CHS", "category": "Schools (K-12, NCES)", "distance_mi_from_emr": 2.97, "address": "1709 Benjamin Franklin Parkway, Philadelphia PA 19103", "icon": {"markerColor": "blue", "icon": "graduation-cap", "iconColor": "white"}}}, {"type": "Feature", "geometry": {"type": "Point", "coordinates": [-75.111, 39.8855]}, "properties": {"name": "Gloucester City High School", "category": "Schools (K-12, NCES)", "distance_mi_from_emr": 2.97, "address": "1300 MARKET STREET, GLOUCESTER CITY NJ 8030", "icon": {"markerColor": "blue", "icon": "graduation-cap", "iconColor": "white"}}}, {"type": "Feature", "geometry": {"type": "Point", "coordinates": [-75.08062, 39.948689]}, "properties": {"name": "Octavio V. Catto Community Family School", "category": "Schools (K-12, NCES)", "distance_mi_from_emr": 2.98, "address": "3100 WESTFIELD AVE, CAMDEN NJ 8105", "icon": {"markerColor": "blue", "icon": "graduation-cap", "iconColor": "white"}}}, {"type": "Feature", "geometry": {"type": "Point", "coordinates": [-75.084118, 39.900034]}, "properties": {"name": "Oaklyn Public School", "category": "Schools (K-12, NCES)", "distance_mi_from_emr": 2.98, "address": "136 KENDALL BLVD, OAKLYN NJ 8107", "icon": {"markerColor": "blue", "icon": "graduation-cap", "iconColor": "white"}}}, {"type": "Feature", "geometry": {"type": "Point", "coordinates": [-75.084118, 39.900034]}, "properties": {"name": "Collingswood Pre School at Oaklyn", "category": "Schools (K-12, NCES)", "distance_mi_from_emr": 2.98, "address": "136 Kendall Blvd, Oaklyn NJ 8107", "icon": {"markerColor": "blue", "icon": "graduation-cap", "iconColor": "white"}}}, {"type": "Feature", "geometry": {"type": "Point", "coordinates": [-75.1432, 39.9681]}, "properties": {"name": "Bodine William W HS", "category": "Schools (K-12, NCES)", "distance_mi_from_emr": 2.99, "address": "1101 N 4th St, Philadelphia PA 19123", "icon": {"markerColor": "blue", "icon": "graduation-cap", "iconColor": "white"}}}, {"type": "Feature", "geometry": {"type": "Point", "coordinates": [-75.1626, 39.961]}, "properties": {"name": "The SD of Philadelphia Virtual Academy", "category": "Schools (K-12, NCES)", "distance_mi_from_emr": 3.0, "address": "440 North Broad St, Philadelphia PA 19130", "icon": {"markerColor": "blue", "icon": "graduation-cap", "iconColor": "white"}}}, {"type": "Feature", "geometry": {"type": "Point", "coordinates": [-75.159519, 39.962919]}, "properties": {"name": "Parkway Center City Middle College", "category": "Schools (K-12, NCES)", "distance_mi_from_emr": 3.01, "address": "540 N 13th Street, Philadelphia PA 19123", "icon": {"markerColor": "blue", "icon": "graduation-cap", "iconColor": "white"}}}, {"type": "Feature", "geometry": {"type": "Point", "coordinates": [-75.185693, 39.925811]}, "properties": {"name": "Universal Vare CS", "category": "Schools (K-12, NCES)", "distance_mi_from_emr": 3.02, "address": "2100 South 24th Street, Philadelphia PA 19145", "icon": {"markerColor": "blue", "icon": "graduation-cap", "iconColor": "white"}}}, {"type": "Feature", "geometry": {"type": "Point", "coordinates": [-75.1745, 39.9524]}, "properties": {"name": "Freire CS", "category": "Schools (K-12, NCES)", "distance_mi_from_emr": 3.03, "address": "2027 Chestnut Street, Philadelphia PA 19103", "icon": {"markerColor": "blue", "icon": "graduation-cap", "iconColor": "white"}}}, {"type": "Feature", "geometry": {"type": "Point", "coordinates": [-75.148251, 39.9678]}, "properties": {"name": "Young Scholars CS", "category": "Schools (K-12, NCES)", "distance_mi_from_emr": 3.05, "address": "900 N Marshall St, Philadelphia PA 19123", "icon": {"markerColor": "blue", "icon": "graduation-cap", "iconColor": "white"}}}, {"type": "Feature", "geometry": {"type": "Point", "coordinates": [-75.1716, 39.9558]}, "properties": {"name": "Russell Byers CS", "category": "Schools (K-12, NCES)", "distance_mi_from_emr": 3.06, "address": "1911 Arch St, Philadelphia PA 19103", "icon": {"markerColor": "blue", "icon": "graduation-cap", "iconColor": "white"}}}, {"type": "Feature", "geometry": {"type": "Point", "coordinates": [-75.156191, 39.96516]}, "properties": {"name": "Spring Garden Sch", "category": "Schools (K-12, NCES)", "distance_mi_from_emr": 3.06, "address": "1146 Mellon St, Philadelphia PA 19123", "icon": {"markerColor": "blue", "icon": "graduation-cap", "iconColor": "white"}}}, {"type": "Feature", "geometry": {"type": "Point", "coordinates": [-75.077427, 39.94676]}, "properties": {"name": "East Side High School", "category": "Schools (K-12, NCES)", "distance_mi_from_emr": 3.06, "address": "3100 Federal Street, CAMDEN NJ 8105", "icon": {"markerColor": "blue", "icon": "graduation-cap", "iconColor": "white"}}}, {"type": "Feature", "geometry": {"type": "Point", "coordinates": [-75.1868, 39.9285]}, "properties": {"name": "Preparatory CS of Mathematics Science Te", "category": "Schools (K-12, NCES)", "distance_mi_from_emr": 3.09, "address": "1928 Point Breeze Avenue, Philadelphia PA 19145", "icon": {"markerColor": "blue", "icon": "graduation-cap", "iconColor": "white"}}}, {"type": "Feature", "geometry": {"type": "Point", "coordinates": [-75.086784, 39.895176]}, "properties": {"name": "Audubon Park Preschool", "category": "Schools (K-12, NCES)", "distance_mi_from_emr": 3.09, "address": "2 Road C, Audubon Park NJ 8106", "icon": {"markerColor": "blue", "icon": "graduation-cap", "iconColor": "white"}}}, {"type": "Feature", "geometry": {"type": "Point", "coordinates": [-75.085848, 39.95758]}, "properties": {"name": "Camden's Promise Charter School", "category": "Schools (K-12, NCES)", "distance_mi_from_emr": 3.13, "address": "879 Beideman Ave, Camden NJ 8105", "icon": {"markerColor": "blue", "icon": "graduation-cap", "iconColor": "white"}}}, {"type": "Feature", "geometry": {"type": "Point", "coordinates": [-75.1621, 39.9637]}, "properties": {"name": "Franklin Benjamin HS", "category": "Schools (K-12, NCES)", "distance_mi_from_emr": 3.13, "address": "550 N Broad St, Philadelphia PA 19130", "icon": {"markerColor": "blue", "icon": "graduation-cap", "iconColor": "white"}}}, {"type": "Feature", "geometry": {"type": "Point", "coordinates": [-75.1776, 39.9523]}, "properties": {"name": "Greenfield Albert M Sch", "category": "Schools (K-12, NCES)", "distance_mi_from_emr": 3.16, "address": "2200 Chestnut St, Philadelphia PA 19103", "icon": {"markerColor": "blue", "icon": "graduation-cap", "iconColor": "white"}}}, {"type": "Feature", "geometry": {"type": "Point", "coordinates": [-75.130164, 39.972269]}, "properties": {"name": "Adaire Alexander Sch", "category": "Schools (K-12, NCES)", "distance_mi_from_emr": 3.18, "address": "1300 E Palmer St, Philadelphia PA 19125", "icon": {"markerColor": "blue", "icon": "graduation-cap", "iconColor": "white"}}}, {"type": "Feature", "geometry": {"type": "Point", "coordinates": [-75.162306, 39.964468]}, "properties": {"name": "Science Leadership Academy", "category": "Schools (K-12, NCES)", "distance_mi_from_emr": 3.18, "address": "1482 Green St, Philadelphia PA 19130", "icon": {"markerColor": "blue", "icon": "graduation-cap", "iconColor": "white"}}}, {"type": "Feature", "geometry": {"type": "Point", "coordinates": [-75.1272, 39.9728]}, "properties": {"name": "Penn Treaty Sch", "category": "Schools (K-12, NCES)", "distance_mi_from_emr": 3.21, "address": "600 E Thompson St, Philadelphia PA 19125", "icon": {"markerColor": "blue", "icon": "graduation-cap", "iconColor": "white"}}}, {"type": "Feature", "geometry": {"type": "Point", "coordinates": [-75.1658, 39.9635]}, "properties": {"name": "Masterman Julia R Sec Sch", "category": "Schools (K-12, NCES)", "distance_mi_from_emr": 3.24, "address": "1699 Spring Garden St, Philadelphia PA 19130", "icon": {"markerColor": "blue", "icon": "graduation-cap", "iconColor": "white"}}}, {"type": "Feature", "geometry": {"type": "Point", "coordinates": [-75.069855, 39.913415]}, "properties": {"name": "Collingswood Pre Sch Penguins Childhood Center", "category": "Schools (K-12, NCES)", "distance_mi_from_emr": 3.24, "address": "201 Dayton Avenue, Collingswood NJ 8108", "icon": {"markerColor": "blue", "icon": "graduation-cap", "iconColor": "white"}}}, {"type": "Feature", "geometry": {"type": "Point", "coordinates": [-75.1631, 39.9651]}, "properties": {"name": "Franklin LC", "category": "Schools (K-12, NCES)", "distance_mi_from_emr": 3.24, "address": "616 N 15th St, Philadelphia PA 19130", "icon": {"markerColor": "blue", "icon": "graduation-cap", "iconColor": "white"}}}, {"type": "Feature", "geometry": {"type": "Point", "coordinates": [-75.076719, 39.952826]}, "properties": {"name": "Dr. Henry H. Davis Elementary School", "category": "Schools (K-12, NCES)", "distance_mi_from_emr": 3.3, "address": "3425 Cramer Street, CAMDEN NJ 8105", "icon": {"markerColor": "blue", "icon": "graduation-cap", "iconColor": "white"}}}, {"type": "Feature", "geometry": {"type": "Point", "coordinates": [-75.146, 39.9725]}, "properties": {"name": "Ludlow James R Sch", "category": "Schools (K-12, NCES)", "distance_mi_from_emr": 3.32, "address": "550 W Master St, Philadelphia PA 19122", "icon": {"markerColor": "blue", "icon": "graduation-cap", "iconColor": "white"}}}, {"type": "Feature", "geometry": {"type": "Point", "coordinates": [-75.0664, 39.9197]}, "properties": {"name": "William P Tatem Elementary School", "category": "Schools (K-12, NCES)", "distance_mi_from_emr": 3.33, "address": "265 LINCOLN AVENUE, COLLINGSWOOD NJ 8108", "icon": {"markerColor": "blue", "icon": "graduation-cap", "iconColor": "white"}}}, {"type": "Feature", "geometry": {"type": "Point", "coordinates": [-75.160613, 39.968103]}, "properties": {"name": "People for People CS", "category": "Schools (K-12, NCES)", "distance_mi_from_emr": 3.35, "address": "800 North Broad Street, Philadelphia PA 19130", "icon": {"markerColor": "blue", "icon": "graduation-cap", "iconColor": "white"}}}, {"type": "Feature", "geometry": {"type": "Point", "coordinates": [-75.1185, 39.8782]}, "properties": {"name": "Alice Costello Elementary School", "category": "Schools (K-12, NCES)", "distance_mi_from_emr": 3.37, "address": "301 Haakon rd., BROOKLAWN NJ 8030", "icon": {"markerColor": "blue", "icon": "graduation-cap", "iconColor": "white"}}}, {"type": "Feature", "geometry": {"type": "Point", "coordinates": [-75.1677, 39.9648]}, "properties": {"name": "Waring Laura W Sch", "category": "Schools (K-12, NCES)", "distance_mi_from_emr": 3.37, "address": "1801 Green St, Philadelphia PA 19130", "icon": {"markerColor": "blue", "icon": "graduation-cap", "iconColor": "white"}}}, {"type": "Feature", "geometry": {"type": "Point", "coordinates": [-75.0683, 39.942]}, "properties": {"name": "G.H. Carson Elementary School", "category": "Schools (K-12, NCES)", "distance_mi_from_emr": 3.38, "address": "4150 GARFIELD AVENUE, PENNSAUKEN NJ 8109", "icon": {"markerColor": "blue", "icon": "graduation-cap", "iconColor": "white"}}}, {"type": "Feature", "geometry": {"type": "Point", "coordinates": [-75.1359, 39.9749]}, "properties": {"name": "Moffet John Sch", "category": "Schools (K-12, NCES)", "distance_mi_from_emr": 3.38, "address": "127 W Oxford St, Philadelphia PA 19122", "icon": {"markerColor": "blue", "icon": "graduation-cap", "iconColor": "white"}}}, {"type": "Feature", "geometry": {"type": "Point", "coordinates": [-75.066964, 39.912078]}, "properties": {"name": "Zane North Elementary School", "category": "Schools (K-12, NCES)", "distance_mi_from_emr": 3.41, "address": "801 STOKES AVENUE, COLLINGSWOOD NJ 8108", "icon": {"markerColor": "blue", "icon": "graduation-cap", "iconColor": "white"}}}, {"type": "Feature", "geometry": {"type": "Point", "coordinates": [-75.0656, 39.9392]}, "properties": {"name": "Camden County Technical School-Pennsauken", "category": "Schools (K-12, NCES)", "distance_mi_from_emr": 3.46, "address": "6008 Browning Road, Pennsauken NJ 8109", "icon": {"markerColor": "blue", "icon": "graduation-cap", "iconColor": "white"}}}, {"type": "Feature", "geometry": {"type": "Point", "coordinates": [-75.07162, 39.90021]}, "properties": {"name": "Clyde S. Jennings Elementary School", "category": "Schools (K-12, NCES)", "distance_mi_from_emr": 3.52, "address": "100 CEDAR AVENUE, OAKLYN NJ 8107", "icon": {"markerColor": "blue", "icon": "graduation-cap", "iconColor": "white"}}}, {"type": "Feature", "geometry": {"type": "Point", "coordinates": [-75.1333, 39.9778]}, "properties": {"name": "Kensington Creative & Performing Arts HS", "category": "Schools (K-12, NCES)", "distance_mi_from_emr": 3.57, "address": "1901 N. Front St, Philadelphia PA 19122", "icon": {"markerColor": "blue", "icon": "graduation-cap", "iconColor": "white"}}}, {"type": "Feature", "geometry": {"type": "Point", "coordinates": [-75.158631, 39.9729]}, "properties": {"name": "Youth Build Phila CS", "category": "Schools (K-12, NCES)", "distance_mi_from_emr": 3.59, "address": "1231 N Broad St 5th floor, Philadelphia PA 19122", "icon": {"markerColor": "blue", "icon": "graduation-cap", "iconColor": "white"}}}, {"type": "Feature", "geometry": {"type": "Point", "coordinates": [-75.0773, 39.9605]}, "properties": {"name": "Baldwin Elementary School", "category": "Schools (K-12, NCES)", "distance_mi_from_emr": 3.6, "address": "41ST & SHARON TERRACE, PENNSAUKEN NJ 8110", "icon": {"markerColor": "blue", "icon": "graduation-cap", "iconColor": "white"}}}, {"type": "Feature", "geometry": {"type": "Point", "coordinates": [-75.1977, 39.9352]}, "properties": {"name": "Universal Alcorn CS", "category": "Schools (K-12, NCES)", "distance_mi_from_emr": 3.71, "address": "3200 Dickinson Street, Philadelphia PA 19146", "icon": {"markerColor": "blue", "icon": "graduation-cap", "iconColor": "white"}}}, {"type": "Feature", "geometry": {"type": "Point", "coordinates": [-75.0907, 39.8811]}, "properties": {"name": "Mary Bray Elementary School", "category": "Schools (K-12, NCES)", "distance_mi_from_emr": 3.71, "address": "225 WEST KINGS HIGHWAY, MOUNT EPHRAIM NJ 8059", "icon": {"markerColor": "blue", "icon": "graduation-cap", "iconColor": "white"}}}, {"type": "Feature", "geometry": {"type": "Point", "coordinates": [-75.1986, 39.9339]}, "properties": {"name": "Universal Audenried CS", "category": "Schools (K-12, NCES)", "distance_mi_from_emr": 3.74, "address": "3301 Tasker Street, Philadelphia PA 19145", "icon": {"markerColor": "blue", "icon": "graduation-cap", "iconColor": "white"}}}, {"type": "Feature", "geometry": {"type": "Point", "coordinates": [-75.1268, 39.9812]}, "properties": {"name": "Hackett Horatio B Sch", "category": "Schools (K-12, NCES)", "distance_mi_from_emr": 3.79, "address": "2161 E York Street, Philadelphia PA 19125", "icon": {"markerColor": "blue", "icon": "graduation-cap", "iconColor": "white"}}}, {"type": "Feature", "geometry": {"type": "Point", "coordinates": [-75.1735, 39.9698]}, "properties": {"name": "Bache-Martin Sch", "category": "Schools (K-12, NCES)", "distance_mi_from_emr": 3.83, "address": "2201 Brown St, Philadelphia PA 19130", "icon": {"markerColor": "blue", "icon": "graduation-cap", "iconColor": "white"}}}, {"type": "Feature", "geometry": {"type": "Point", "coordinates": [-75.1542, 39.979]}, "properties": {"name": "Dunbar Paul L Sch", "category": "Schools (K-12, NCES)", "distance_mi_from_emr": 3.88, "address": "1750 N 12th St, Philadelphia PA 19122", "icon": {"markerColor": "blue", "icon": "graduation-cap", "iconColor": "white"}}}, {"type": "Feature", "geometry": {"type": "Point", "coordinates": [-75.0734, 39.8883]}, "properties": {"name": "Mansion Avenue School", "category": "Schools (K-12, NCES)", "distance_mi_from_emr": 3.93, "address": "300 MANSION AVENUE, AUDUBON NJ 8106", "icon": {"markerColor": "blue", "icon": "graduation-cap", "iconColor": "white"}}}, {"type": "Feature", "geometry": {"type": "Point", "coordinates": [-75.146191, 39.98221]}, "properties": {"name": "The U School: Innovative Lab", "category": "Schools (K-12, NCES)", "distance_mi_from_emr": 3.97, "address": "2000 N 7th St, Philadelphia PA 19122", "icon": {"markerColor": "blue", "icon": "graduation-cap", "iconColor": "white"}}}, {"type": "Feature", "geometry": {"type": "Point", "coordinates": [-75.0764, 39.8849]}, "properties": {"name": "Audubon Junior/Senior High School", "category": "Schools (K-12, NCES)", "distance_mi_from_emr": 3.98, "address": "350 EDGEWOOD AVENUE, AUDUBON NJ 8106", "icon": {"markerColor": "blue", "icon": "graduation-cap", "iconColor": "white"}}}, {"type": "Feature", "geometry": {"type": "Point", "coordinates": [-75.1411, 39.9834]}, "properties": {"name": "McKinley William Sch", "category": "Schools (K-12, NCES)", "distance_mi_from_emr": 4.0, "address": "2101 N Orkney St, Philadelphia PA 19122", "icon": {"markerColor": "blue", "icon": "graduation-cap", "iconColor": "white"}}}, {"type": "Feature", "geometry": {"type": "Point", "coordinates": [-75.0538, 39.9178]}, "properties": {"name": "Strawbridge Elementary School", "category": "Schools (K-12, NCES)", "distance_mi_from_emr": 4.01, "address": "307 STRAWBRIDGE AVENUE, WESTMONT NJ 8108", "icon": {"markerColor": "blue", "icon": "graduation-cap", "iconColor": "white"}}}, {"type": "Feature", "geometry": {"type": "Point", "coordinates": [-75.126458, 39.984302]}, "properties": {"name": "Kensington HS", "category": "Schools (K-12, NCES)", "distance_mi_from_emr": 4.01, "address": "2501 Coral St, Philadelphia PA 19125", "icon": {"markerColor": "blue", "icon": "graduation-cap", "iconColor": "white"}}}, {"type": "Feature", "geometry": {"type": "Point", "coordinates": [-75.0852, 39.8785]}, "properties": {"name": "Raymond W. Kershaw School", "category": "Schools (K-12, NCES)", "distance_mi_from_emr": 4.03, "address": "125 SOUTH BLACK HORSE PIKE, MOUNT EPHRAIM NJ 8059", "icon": {"markerColor": "blue", "icon": "graduation-cap", "iconColor": "white"}}}, {"type": "Feature", "geometry": {"type": "Point", "coordinates": [-75.1282, 39.9846]}, "properties": {"name": "Kensington Health Sciences", "category": "Schools (K-12, NCES)", "distance_mi_from_emr": 4.03, "address": "2463 Emerald St, Philadelphia PA 19125", "icon": {"markerColor": "blue", "icon": "graduation-cap", "iconColor": "white"}}}, {"type": "Feature", "geometry": {"type": "Point", "coordinates": [-75.05529, 39.941814]}, "properties": {"name": "Roosevelt Science Technology Engineering and Mathematics (ST", "category": "Schools (K-12, NCES)", "distance_mi_from_emr": 4.03, "address": "5526 WISTERIA AVE, PENNSAUKEN NJ 8109", "icon": {"markerColor": "blue", "icon": "graduation-cap", "iconColor": "white"}}}, {"type": "Feature", "geometry": {"type": "Point", "coordinates": [-75.0645, 39.8943]}, "properties": {"name": "Haviland Avenue School", "category": "Schools (K-12, NCES)", "distance_mi_from_emr": 4.05, "address": "240 SOUTH HAVILAND AVENUE, AUDUBON NJ 8106", "icon": {"markerColor": "blue", "icon": "graduation-cap", "iconColor": "white"}}}, {"type": "Feature", "geometry": {"type": "Point", "coordinates": [-75.1104, 39.9834]}, "properties": {"name": "Richmond Sch", "category": "Schools (K-12, NCES)", "distance_mi_from_emr": 4.06, "address": "2944 Belgrade St, Philadelphia PA 19134", "icon": {"markerColor": "blue", "icon": "graduation-cap", "iconColor": "white"}}}, {"type": "Feature", "geometry": {"type": "Point", "coordinates": [-75.1648, 39.9784]}, "properties": {"name": "Meade Gen George C Sch", "category": "Schools (K-12, NCES)", "distance_mi_from_emr": 4.08, "address": "1600 N 18th St, Philadelphia PA 19121", "icon": {"markerColor": "blue", "icon": "graduation-cap", "iconColor": "white"}}}, {"type": "Feature", "geometry": {"type": "Point", "coordinates": [-75.0567, 39.9048]}, "properties": {"name": "Haddon Township High School", "category": "Schools (K-12, NCES)", "distance_mi_from_emr": 4.09, "address": "406 MEMORIAL AVENUE, WESTMONT NJ 8108", "icon": {"markerColor": "blue", "icon": "graduation-cap", "iconColor": "white"}}}, {"type": "Feature", "geometry": {"type": "Point", "coordinates": [-75.194177, 39.957728]}, "properties": {"name": "Powel Samuel Sch", "category": "Schools (K-12, NCES)", "distance_mi_from_emr": 4.1, "address": "3610 Warren St, Philadelphia PA 19104", "icon": {"markerColor": "blue", "icon": "graduation-cap", "iconColor": "white"}}}, {"type": "Feature", "geometry": {"type": "Point", "coordinates": [-75.194177, 39.957728]}, "properties": {"name": "Science Leadership Academy MS", "category": "Schools (K-12, NCES)", "distance_mi_from_emr": 4.1, "address": "3610 Warren St, Philadelphia PA 19104", "icon": {"markerColor": "blue", "icon": "graduation-cap", "iconColor": "white"}}}, {"type": "Feature", "geometry": {"type": "Point", "coordinates": [-75.1043, 39.8694]}, "properties": {"name": "Bellmawr Park Elementary School", "category": "Schools (K-12, NCES)", "distance_mi_from_emr": 4.14, "address": "29 PEACH ROAD, BELLMAWR NJ 8031", "icon": {"markerColor": "blue", "icon": "graduation-cap", "iconColor": "white"}}}, {"type": "Feature", "geometry": {"type": "Point", "coordinates": [-75.1269, 39.8664]}, "properties": {"name": "Parkview Elementary School", "category": "Schools (K-12, NCES)", "distance_mi_from_emr": 4.14, "address": "101 BIRCH ST, WESTVILLE NJ 8093", "icon": {"markerColor": "blue", "icon": "graduation-cap", "iconColor": "white"}}}, {"type": "Feature", "geometry": {"type": "Point", "coordinates": [-75.1276, 39.9867]}, "properties": {"name": "Brown Henry A Sch", "category": "Schools (K-12, NCES)", "distance_mi_from_emr": 4.17, "address": "1946 E Sergeant St, Philadelphia PA 19125", "icon": {"markerColor": "blue", "icon": "graduation-cap", "iconColor": "white"}}}, {"type": "Feature", "geometry": {"type": "Point", "coordinates": [-75.1654, 39.9799]}, "properties": {"name": "Alliance for Progress CS", "category": "Schools (K-12, NCES)", "distance_mi_from_emr": 4.18, "address": "1821-39 Cecil B Moore Avenue, Philadelphia PA 19121", "icon": {"markerColor": "blue", "icon": "graduation-cap", "iconColor": "white"}}}, {"type": "Feature", "geometry": {"type": "Point", "coordinates": [-75.128659, 39.986995]}, "properties": {"name": "Sankofa Freedom Academy CS", "category": "Schools (K-12, NCES)", "distance_mi_from_emr": 4.19, "address": "2501 Kensington Avenue, Philadelphia PA 19124", "icon": {"markerColor": "blue", "icon": "graduation-cap", "iconColor": "white"}}}, {"type": "Feature", "geometry": {"type": "Point", "coordinates": [-75.0537, 39.9063]}, "properties": {"name": "Stoy Elementary School", "category": "Schools (K-12, NCES)", "distance_mi_from_emr": 4.2, "address": "206 BRIARWOOD AVENUE, HADDONFIELD NJ 8033", "icon": {"markerColor": "blue", "icon": "graduation-cap", "iconColor": "white"}}}, {"type": "Feature", "geometry": {"type": "Point", "coordinates": [-75.1393, 39.9867]}, "properties": {"name": "Welsh John Sch", "category": "Schools (K-12, NCES)", "distance_mi_from_emr": 4.21, "address": "2331 N 4th St, Philadelphia PA 19133", "icon": {"markerColor": "blue", "icon": "graduation-cap", "iconColor": "white"}}}, {"type": "Feature", "geometry": {"type": "Point", "coordinates": [-75.174261, 39.97628]}, "properties": {"name": "Vaux HS: A Big Picture School", "category": "Schools (K-12, NCES)", "distance_mi_from_emr": 4.21, "address": "2300 W Master St, Philadelphia PA 19121", "icon": {"markerColor": "blue", "icon": "graduation-cap", "iconColor": "white"}}}, {"type": "Feature", "geometry": {"type": "Point", "coordinates": [-75.1129, 39.9863]}, "properties": {"name": "Memphis Street Academy CS @ JP Jones", "category": "Schools (K-12, NCES)", "distance_mi_from_emr": 4.23, "address": "2950 Memphis Street, Philadelphia PA 19134", "icon": {"markerColor": "blue", "icon": "graduation-cap", "iconColor": "white"}}}, {"type": "Feature", "geometry": {"type": "Point", "coordinates": [-75.13207, 39.987456]}, "properties": {"name": "Hunter William H Sch", "category": "Schools (K-12, NCES)", "distance_mi_from_emr": 4.23, "address": "2400 N Front St, Philadelphia PA 19133", "icon": {"markerColor": "blue", "icon": "graduation-cap", "iconColor": "white"}}}, {"type": "Feature", "geometry": {"type": "Point", "coordinates": [-75.0552, 39.8994]}, "properties": {"name": "Van Sciver Elementary School", "category": "Schools (K-12, NCES)", "distance_mi_from_emr": 4.31, "address": "625 RHOADS AVENUE, HADDONFIELD NJ 8033", "icon": {"markerColor": "blue", "icon": "graduation-cap", "iconColor": "white"}}}, {"type": "Feature", "geometry": {"type": "Point", "coordinates": [-75.1788, 39.9755]}, "properties": {"name": "Morris Robert Sch", "category": "Schools (K-12, NCES)", "distance_mi_from_emr": 4.31, "address": "2600 W Thompson St, Philadelphia PA 19121", "icon": {"markerColor": "blue", "icon": "graduation-cap", "iconColor": "white"}}}, {"type": "Feature", "geometry": {"type": "Point", "coordinates": [-75.1615, 39.9835]}, "properties": {"name": "Carver HS", "category": "Schools (K-12, NCES)", "distance_mi_from_emr": 4.32, "address": "1600 W Norris St, Philadelphia PA 19121", "icon": {"markerColor": "blue", "icon": "graduation-cap", "iconColor": "white"}}}, {"type": "Feature", "geometry": {"type": "Point", "coordinates": [-75.1544, 39.9857]}, "properties": {"name": "Philadelphia Military Acad at Elverson", "category": "Schools (K-12, NCES)", "distance_mi_from_emr": 4.32, "address": "2118-2160 N 13th Street, Philadelphia PA 19122", "icon": {"markerColor": "blue", "icon": "graduation-cap", "iconColor": "white"}}}, {"type": "Feature", "geometry": {"type": "Point", "coordinates": [-75.0908, 39.8704]}, "properties": {"name": "Bell Oaks Upper Elementary School", "category": "Schools (K-12, NCES)", "distance_mi_from_emr": 4.35, "address": "256  ANDERSON AVENUE, BELLMAWR NJ 8031", "icon": {"markerColor": "blue", "icon": "graduation-cap", "iconColor": "white"}}}, {"type": "Feature", "geometry": {"type": "Point", "coordinates": [-75.1589, 39.9854]}, "properties": {"name": "Duckrey Tanner Sch", "category": "Schools (K-12, NCES)", "distance_mi_from_emr": 4.39, "address": "1501 W Diamond St, Philadelphia PA 19121", "icon": {"markerColor": "blue", "icon": "graduation-cap", "iconColor": "white"}}}, {"type": "Feature", "geometry": {"type": "Point", "coordinates": [-75.0972, 39.9856]}, "properties": {"name": "Amy At Martin", "category": "Schools (K-12, NCES)", "distance_mi_from_emr": 4.42, "address": "3380 Richmond St, Philadelphia PA 19134", "icon": {"markerColor": "blue", "icon": "graduation-cap", "iconColor": "white"}}}, {"type": "Feature", "geometry": {"type": "Point", "coordinates": [-75.155553, 39.98693]}, "properties": {"name": "TECH Freire CS", "category": "Schools (K-12, NCES)", "distance_mi_from_emr": 4.42, "address": "2221 North Broad Street, Philadelphia PA 19132", "icon": {"markerColor": "blue", "icon": "graduation-cap", "iconColor": "white"}}}, {"type": "Feature", "geometry": {"type": "Point", "coordinates": [-75.1451, 39.9892]}, "properties": {"name": "Hartranft John F Sch", "category": "Schools (K-12, NCES)", "distance_mi_from_emr": 4.43, "address": "720 W Cumberland St, Philadelphia PA 19133", "icon": {"markerColor": "blue", "icon": "graduation-cap", "iconColor": "white"}}}, {"type": "Feature", "geometry": {"type": "Point", "coordinates": [-75.075, 39.8769]}, "properties": {"name": "Glenview Avenue", "category": "Schools (K-12, NCES)", "distance_mi_from_emr": 4.44, "address": "1700 Sycamore Street, HADDON HEIGHTS NJ 8035", "icon": {"markerColor": "blue", "icon": "graduation-cap", "iconColor": "white"}}}, {"type": "Feature", "geometry": {"type": "Point", "coordinates": [-75.0515, 39.9009]}, "properties": {"name": "William G. Rohrer Middle School", "category": "Schools (K-12, NCES)", "distance_mi_from_emr": 4.45, "address": "101 MACARTHUR BOULEVARD, WESTMONT NJ 8108", "icon": {"markerColor": "blue", "icon": "graduation-cap", "iconColor": "white"}}}, {"type": "Feature", "geometry": {"type": "Point", "coordinates": [-75.1945, 39.9663]}, "properties": {"name": "McMichael Morton Sch", "category": "Schools (K-12, NCES)", "distance_mi_from_emr": 4.45, "address": "3543 Fairmount Ave, Philadelphia PA 19104", "icon": {"markerColor": "blue", "icon": "graduation-cap", "iconColor": "white"}}}, {"type": "Feature", "geometry": {"type": "Point", "coordinates": [-75.1659, 39.8677]}, "properties": {"name": "Red Bank Elementary School", "category": "Schools (K-12, NCES)", "distance_mi_from_emr": 4.51, "address": "192 PHILADELPHIA AVE, WEST DEPTFORD NJ 8086", "icon": {"markerColor": "blue", "icon": "graduation-cap", "iconColor": "white"}}}, {"type": "Feature", "geometry": {"type": "Point", "coordinates": [-75.0453, 39.9131]}, "properties": {"name": "Thomas A. Edison Elementary School", "category": "Schools (K-12, NCES)", "distance_mi_from_emr": 4.51, "address": "205 MELROSE AVENUE, WESTMONT NJ 8108", "icon": {"markerColor": "blue", "icon": "graduation-cap", "iconColor": "white"}}}, {"type": "Feature", "geometry": {"type": "Point", "coordinates": [-75.0489, 39.9493]}, "properties": {"name": "Merchantville Elementary School", "category": "Schools (K-12, NCES)", "distance_mi_from_emr": 4.51, "address": "130 S CENTRE ST, MERCHANTVILLE NJ 8109", "icon": {"markerColor": "blue", "icon": "graduation-cap", "iconColor": "white"}}}, {"type": "Feature", "geometry": {"type": "Point", "coordinates": [-75.1694, 39.9845]}, "properties": {"name": "Frederick Douglass Mastery CS", "category": "Schools (K-12, NCES)", "distance_mi_from_emr": 4.56, "address": "2118 West Norris St., Philadelphia PA 19121", "icon": {"markerColor": "blue", "icon": "graduation-cap", "iconColor": "white"}}}, {"type": "Feature", "geometry": {"type": "Point", "coordinates": [-75.0609, 39.8854]}, "properties": {"name": "Atlantic Avenue", "category": "Schools (K-12, NCES)", "distance_mi_from_emr": 4.57, "address": "21 East Atlantic Avenue, HADDON HEIGHTS NJ 8035", "icon": {"markerColor": "blue", "icon": "graduation-cap", "iconColor": "white"}}}, {"type": "Feature", "geometry": {"type": "Point", "coordinates": [-75.2057, 39.957]}, "properties": {"name": "Paul Robeson HS for Human Services", "category": "Schools (K-12, NCES)", "distance_mi_from_emr": 4.6, "address": "4125 Ludlow St, Philadelphia PA 19104", "icon": {"markerColor": "blue", "icon": "graduation-cap", "iconColor": "white"}}}, {"type": "Feature", "geometry": {"type": "Point", "coordinates": [-75.1387, 39.9925]}, "properties": {"name": "DeBurgos Bilingual Magnet MS", "category": "Schools (K-12, NCES)", "distance_mi_from_emr": 4.6, "address": "401 W Lehigh Ave, Philadelphia PA 19133", "icon": {"markerColor": "blue", "icon": "graduation-cap", "iconColor": "white"}}}, {"type": "Feature", "geometry": {"type": "Point", "coordinates": [-75.2082, 39.9532]}, "properties": {"name": "Penn Alexander Sch", "category": "Schools (K-12, NCES)", "distance_mi_from_emr": 4.61, "address": "4209 Spruce St, Philadelphia PA 19104", "icon": {"markerColor": "blue", "icon": "graduation-cap", "iconColor": "white"}}}, {"type": "Feature", "geometry": {"type": "Point", "coordinates": [-75.1801, 39.9804]}, "properties": {"name": "Kelley William D Sch", "category": "Schools (K-12, NCES)", "distance_mi_from_emr": 4.63, "address": "1601 N 28th St, Philadelphia PA 19121", "icon": {"markerColor": "blue", "icon": "graduation-cap", "iconColor": "white"}}}, {"type": "Feature", "geometry": {"type": "Point", "coordinates": [-75.1121, 39.9925]}, "properties": {"name": "Mastbaum Jules E AVTS", "category": "Schools (K-12, NCES)", "distance_mi_from_emr": 4.66, "address": "3116 Frankford Avenue, Philadelphia PA 19134", "icon": {"markerColor": "blue", "icon": "graduation-cap", "iconColor": "white"}}}, {"type": "Feature", "geometry": {"type": "Point", "coordinates": [-75.1316, 39.9937]}, "properties": {"name": "Sheppard Isaac Sch", "category": "Schools (K-12, NCES)", "distance_mi_from_emr": 4.66, "address": "120 W Cambria St, Philadelphia PA 19133", "icon": {"markerColor": "blue", "icon": "graduation-cap", "iconColor": "white"}}}, {"type": "Feature", "geometry": {"type": "Point", "coordinates": [-75.11643, 39.993242]}, "properties": {"name": "Willard Frances E Sch", "category": "Schools (K-12, NCES)", "distance_mi_from_emr": 4.67, "address": "2900 Emerald St, Philadelphia PA 19134", "icon": {"markerColor": "blue", "icon": "graduation-cap", "iconColor": "white"}}}, {"type": "Feature", "geometry": {"type": "Point", "coordinates": [-75.13593, 39.994505]}, "properties": {"name": "Pan American Academy CS", "category": "Schools (K-12, NCES)", "distance_mi_from_emr": 4.73, "address": "2830 North American Street, Philadelphia PA 19133", "icon": {"markerColor": "blue", "icon": "graduation-cap", "iconColor": "white"}}}, {"type": "Feature", "geometry": {"type": "Point", "coordinates": [-75.2164, 39.9406]}, "properties": {"name": "Comegys Benjamin B Sch", "category": "Schools (K-12, NCES)", "distance_mi_from_emr": 4.75, "address": "5100 Greenway Ave, Philadelphia PA 19143", "icon": {"markerColor": "blue", "icon": "graduation-cap", "iconColor": "white"}}}, {"type": "Feature", "geometry": {"type": "Point", "coordinates": [-75.1147, 39.9943]}, "properties": {"name": "Conwell Russell MS", "category": "Schools (K-12, NCES)", "distance_mi_from_emr": 4.76, "address": "1849 E Clearfield St, Philadelphia PA 19134", "icon": {"markerColor": "blue", "icon": "graduation-cap", "iconColor": "white"}}}, {"type": "Feature", "geometry": {"type": "Point", "coordinates": [-75.2186, 39.9283]}, "properties": {"name": "Richard Allen Preparatory CS", "category": "Schools (K-12, NCES)", "distance_mi_from_emr": 4.77, "address": "2601 S 58th St, Philadelphia PA 19143", "icon": {"markerColor": "blue", "icon": "graduation-cap", "iconColor": "white"}}}, {"type": "Feature", "geometry": {"type": "Point", "coordinates": [-75.157974, 39.992034]}, "properties": {"name": "KIPP North Philadelphia CS", "category": "Schools (K-12, NCES)", "distance_mi_from_emr": 4.8, "address": "2539 N. 16th Street, Philadelphia PA 19132", "icon": {"markerColor": "blue", "icon": "graduation-cap", "iconColor": "white"}}}, {"type": "Feature", "geometry": {"type": "Point", "coordinates": [-75.157974, 39.992034]}, "properties": {"name": "KIPP Philadelphia CS", "category": "Schools (K-12, NCES)", "distance_mi_from_emr": 4.8, "address": "2539 N. 16th Street, Philadelphia PA 19132", "icon": {"markerColor": "blue", "icon": "graduation-cap", "iconColor": "white"}}}, {"type": "Feature", "geometry": {"type": "Point", "coordinates": [-75.173647, 39.986668]}, "properties": {"name": "Dick William Sch", "category": "Schools (K-12, NCES)", "distance_mi_from_emr": 4.8, "address": "2498 W Diamond St, Philadelphia PA 19121", "icon": {"markerColor": "blue", "icon": "graduation-cap", "iconColor": "white"}}}, {"type": "Feature", "geometry": {"type": "Point", "coordinates": [-75.1808, 39.9843]}, "properties": {"name": "Gideon Edward Sch", "category": "Schools (K-12, NCES)", "distance_mi_from_emr": 4.87, "address": "2817 W Glenwood Ave, Philadelphia PA 19121", "icon": {"markerColor": "blue", "icon": "graduation-cap", "iconColor": "white"}}}, {"type": "Feature", "geometry": {"type": "Point", "coordinates": [-75.0451, 39.8961]}, "properties": {"name": "Elizabeth Haddon School", "category": "Schools (K-12, NCES)", "distance_mi_from_emr": 4.89, "address": "501 WEST REDMAN AVENUE, HADDONFIELD NJ 8033", "icon": {"markerColor": "blue", "icon": "graduation-cap", "iconColor": "white"}}}, {"type": "Feature", "geometry": {"type": "Point", "coordinates": [-75.1209, 39.997]}, "properties": {"name": "Elkin Lewis Sch", "category": "Schools (K-12, NCES)", "distance_mi_from_emr": 4.9, "address": "3199 D St, Philadelphia PA 19134", "icon": {"markerColor": "blue", "icon": "graduation-cap", "iconColor": "white"}}}, {"type": "Feature", "geometry": {"type": "Point", "coordinates": [-75.2046, 39.967]}, "properties": {"name": "Belmont CS", "category": "Schools (K-12, NCES)", "distance_mi_from_emr": 4.91, "address": "4030 Brown Street, Philadelphia PA 19104", "icon": {"markerColor": "blue", "icon": "graduation-cap", "iconColor": "white"}}}, {"type": "Feature", "geometry": {"type": "Point", "coordinates": [-75.1507, 39.9958]}, "properties": {"name": "Mastery CS-Clymer Elementary", "category": "Schools (K-12, NCES)", "distance_mi_from_emr": 4.94, "address": "1201 W Rush Street, Philadelphia PA 19133", "icon": {"markerColor": "blue", "icon": "graduation-cap", "iconColor": "white"}}}, {"type": "Feature", "geometry": {"type": "Point", "coordinates": [-75.1406, 39.9973]}, "properties": {"name": "Potter-Thomas Sch", "category": "Schools (K-12, NCES)", "distance_mi_from_emr": 4.95, "address": "3001 N 6th St, Philadelphia PA 19133", "icon": {"markerColor": "blue", "icon": "graduation-cap", "iconColor": "white"}}}, {"type": "Feature", "geometry": {"type": "Point", "coordinates": [-75.1056, 39.9962]}, "properties": {"name": "Webster Sch", "category": "Schools (K-12, NCES)", "distance_mi_from_emr": 4.98, "address": "3400 Frankford Ave, Philadelphia PA 19134", "icon": {"markerColor": "blue", "icon": "graduation-cap", "iconColor": "white"}}}, {"type": "Feature", "geometry": {"type": "Point", "coordinates": [-75.0794, 39.8647]}, "properties": {"name": "Ethel M Burke Elementary School", "category": "Schools (K-12, NCES)", "distance_mi_from_emr": 4.99, "address": "112 SOUTH BLACK HORSE PIKE, BELLMAWR NJ 8031", "icon": {"markerColor": "blue", "icon": "graduation-cap", "iconColor": "white"}}}, {"type": "Feature", "geometry": {"type": "Point", "coordinates": [-75.1834, 39.9853]}, "properties": {"name": "Blaine James G Sch", "category": "Schools (K-12, NCES)", "distance_mi_from_emr": 5.0, "address": "3001 W Berks St, Philadelphia PA 19121", "icon": {"markerColor": "blue", "icon": "graduation-cap", "iconColor": "white"}}}, {"type": "Feature", "geometry": {"type": "Point", "coordinates": [-75.2163, 39.9545]}, "properties": {"name": "Lea Henry C Sch", "category": "Schools (K-12, NCES)", "distance_mi_from_emr": 5.04, "address": "4700 Locust St, Philadelphia PA 19139", "icon": {"markerColor": "blue", "icon": "graduation-cap", "iconColor": "white"}}}, {"type": "Feature", "geometry": {"type": "Point", "coordinates": [-75.0568, 39.8782]}, "properties": {"name": "Seventh Avenue", "category": "Schools (K-12, NCES)", "distance_mi_from_emr": 5.05, "address": "316 Seventh Avenue, HADDON HEIGHTS NJ 8035", "icon": {"markerColor": "blue", "icon": "graduation-cap", "iconColor": "white"}}}, {"type": "Feature", "geometry": {"type": "Point", "coordinates": [-75.1815, 39.8652]}, "properties": {"name": "National Park School", "category": "Schools (K-12, NCES)", "distance_mi_from_emr": 5.07, "address": "516 LAKEHURST AVE, NATIONAL PARK NJ 8063", "icon": {"markerColor": "blue", "icon": "graduation-cap", "iconColor": "white"}}}, {"type": "Feature", "geometry": {"type": "Point", "coordinates": [-75.0502, 39.8842]}, "properties": {"name": "Haddon Heights Jr./Sr. High School", "category": "Schools (K-12, NCES)", "distance_mi_from_emr": 5.07, "address": "301 SECOND AVENUE, HADDON HEIGHTS NJ 8035", "icon": {"markerColor": "blue", "icon": "graduation-cap", "iconColor": "white"}}}, {"type": "Feature", "geometry": {"type": "Point", "coordinates": [-75.2124, 39.9621]}, "properties": {"name": "Locke Alain Sch", "category": "Schools (K-12, NCES)", "distance_mi_from_emr": 5.08, "address": "4550 Haverford Ave, Philadelphia PA 19139", "icon": {"markerColor": "blue", "icon": "graduation-cap", "iconColor": "white"}}}, {"type": "Feature", "geometry": {"type": "Point", "coordinates": [-75.214714, 39.959699]}, "properties": {"name": "KIPP Philadelphia Octavius Catto CS", "category": "Schools (K-12, NCES)", "distance_mi_from_emr": 5.11, "address": "4601 Market St, Philadelphia PA 19139", "icon": {"markerColor": "blue", "icon": "graduation-cap", "iconColor": "white"}}}, {"type": "Feature", "geometry": {"type": "Point", "coordinates": [-75.1776, 39.9903]}, "properties": {"name": "Wright Richard R Sch", "category": "Schools (K-12, NCES)", "distance_mi_from_emr": 5.13, "address": "2700 W Dauphin St, Philadelphia PA 19132", "icon": {"markerColor": "blue", "icon": "graduation-cap", "iconColor": "white"}}}, {"type": "Feature", "geometry": {"type": "Point", "coordinates": [-75.1669, 39.995]}, "properties": {"name": "Dobbins AVT HS", "category": "Schools (K-12, NCES)", "distance_mi_from_emr": 5.16, "address": "2150 West Lehigh Avenue, Philadelphia PA 19132", "icon": {"markerColor": "blue", "icon": "graduation-cap", "iconColor": "white"}}}, {"type": "Feature", "geometry": {"type": "Point", "coordinates": [-75.2114, 39.9658]}, "properties": {"name": "Washington Martha Sch", "category": "Schools (K-12, NCES)", "distance_mi_from_emr": 5.16, "address": "766 N 44th St, Philadelphia PA 19104", "icon": {"markerColor": "blue", "icon": "graduation-cap", "iconColor": "white"}}}, {"type": "Feature", "geometry": {"type": "Point", "coordinates": [-75.101852, 39.998186]}, "properties": {"name": "Deep Roots CS", "category": "Schools (K-12, NCES)", "distance_mi_from_emr": 5.16, "address": "3556 Frankford Avenue, Philadelphia PA 19134", "icon": {"markerColor": "blue", "icon": "graduation-cap", "iconColor": "white"}}}, {"type": "Feature", "geometry": {"type": "Point", "coordinates": [-75.218596, 39.955195]}, "properties": {"name": "The Workshop School", "category": "Schools (K-12, NCES)", "distance_mi_from_emr": 5.17, "address": "221 S Hanson St, Philadelphia PA 19139", "icon": {"markerColor": "blue", "icon": "graduation-cap", "iconColor": "white"}}}, {"type": "Feature", "geometry": {"type": "Point", "coordinates": [-75.0543, 39.9753]}, "properties": {"name": "Delair Elementary School", "category": "Schools (K-12, NCES)", "distance_mi_from_emr": 5.19, "address": "850 DEROUSSE AVENUE, DELAIR NJ 8110", "icon": {"markerColor": "blue", "icon": "graduation-cap", "iconColor": "white"}}}, {"type": "Feature", "geometry": {"type": "Point", "coordinates": [-75.2035, 39.9753]}, "properties": {"name": "School of the Future", "category": "Schools (K-12, NCES)", "distance_mi_from_emr": 5.21, "address": "4021 Parkside Ave, Philadelphia PA 19104", "icon": {"markerColor": "blue", "icon": "graduation-cap", "iconColor": "white"}}}, {"type": "Feature", "geometry": {"type": "Point", "coordinates": [-75.161846, 39.855246]}, "properties": {"name": "West Deptford High School", "category": "Schools (K-12, NCES)", "distance_mi_from_emr": 5.22, "address": "1600 OLD CROWN POINT RD, WEST DEPTFORD NJ 8093", "icon": {"markerColor": "blue", "icon": "graduation-cap", "iconColor": "white"}}}, {"type": "Feature", "geometry": {"type": "Point", "coordinates": [-75.210677, 39.969374]}, "properties": {"name": "Philadelphia Learning Academy - South", "category": "Schools (K-12, NCES)", "distance_mi_from_emr": 5.27, "address": "4300 Westminster Ave, Philadelphia PA 19104", "icon": {"markerColor": "blue", "icon": "graduation-cap", "iconColor": "white"}}}, {"type": "Feature", "geometry": {"type": "Point", "coordinates": [-75.0407, 39.9624]}, "properties": {"name": "Benjamin Franklin Elementary School", "category": "Schools (K-12, NCES)", "distance_mi_from_emr": 5.28, "address": "7201 IRVING AVENUE, PENNSAUKEN NJ 8109", "icon": {"markerColor": "blue", "icon": "graduation-cap", "iconColor": "white"}}}, {"type": "Feature", "geometry": {"type": "Point", "coordinates": [-75.1839, 39.9902]}, "properties": {"name": "Strawberry Mansion HS", "category": "Schools (K-12, NCES)", "distance_mi_from_emr": 5.3, "address": "3133 Ridge Ave, Philadelphia PA 19132", "icon": {"markerColor": "blue", "icon": "graduation-cap", "iconColor": "white"}}}, {"type": "Feature", "geometry": {"type": "Point", "coordinates": [-75.21955, 39.95841]}, "properties": {"name": "West Philadelphia HS", "category": "Schools (K-12, NCES)", "distance_mi_from_emr": 5.3, "address": "4901 Chestnut St, Philadelphia PA 19139", "icon": {"markerColor": "blue", "icon": "graduation-cap", "iconColor": "white"}}}, {"type": "Feature", "geometry": {"type": "Point", "coordinates": [-75.215878, 39.964735]}, "properties": {"name": "Middle Years Alternative", "category": "Schools (K-12, NCES)", "distance_mi_from_emr": 5.33, "address": "4725 Fairmont Ave, Philadelphia PA 19139", "icon": {"markerColor": "blue", "icon": "graduation-cap", "iconColor": "white"}}}, {"type": "Feature", "geometry": {"type": "Point", "coordinates": [-75.215878, 39.964735]}, "properties": {"name": "Parkway West", "category": "Schools (K-12, NCES)", "distance_mi_from_emr": 5.33, "address": "4725 Fairmont Ave, Philadelphia PA 19139", "icon": {"markerColor": "blue", "icon": "graduation-cap", "iconColor": "white"}}}, {"type": "Feature", "geometry": {"type": "Point", "coordinates": [-75.1683, 39.9986]}, "properties": {"name": "Peirce Thomas M Sch", "category": "Schools (K-12, NCES)", "distance_mi_from_emr": 5.42, "address": "2300 W Cambria St, Philadelphia PA 19132", "icon": {"markerColor": "blue", "icon": "graduation-cap", "iconColor": "white"}}}, {"type": "Feature", "geometry": {"type": "Point", "coordinates": [-75.0446, 39.8806]}, "properties": {"name": "Avon Elementary School", "category": "Schools (K-12, NCES)", "distance_mi_from_emr": 5.46, "address": "862 MERCER DR, HADDONFIELD NJ 8033", "icon": {"markerColor": "blue", "icon": "graduation-cap", "iconColor": "white"}}}, {"type": "Feature", "geometry": {"type": "Point", "coordinates": [-75.212431, 39.97476]}, "properties": {"name": "Inquiry CS", "category": "Schools (K-12, NCES)", "distance_mi_from_emr": 5.56, "address": "1301 Belmont Avenue, Philadelphia PA 19104", "icon": {"markerColor": "blue", "icon": "graduation-cap", "iconColor": "white"}}}, {"type": "Feature", "geometry": {"type": "Point", "coordinates": [-75.07497, 39.99562]}, "properties": {"name": "Franklin Towne Charter Elementary School", "category": "Schools (K-12, NCES)", "distance_mi_from_emr": 5.57, "address": "4259 Richmond Street, Philadelphia PA 19137", "icon": {"markerColor": "blue", "icon": "graduation-cap", "iconColor": "white"}}}, {"type": "Feature", "geometry": {"type": "Point", "coordinates": [-75.2153, 39.9726]}, "properties": {"name": "Blankenburg Rudolph Sch", "category": "Schools (K-12, NCES)", "distance_mi_from_emr": 5.6, "address": "4600 W Girard Ave, Philadelphia PA 19131", "icon": {"markerColor": "blue", "icon": "graduation-cap", "iconColor": "white"}}}, {"type": "Feature", "geometry": {"type": "Point", "coordinates": [-75.22, 39.9673]}, "properties": {"name": "Rhoads James Sch", "category": "Schools (K-12, NCES)", "distance_mi_from_emr": 5.61, "address": "4901 Parrish St, Philadelphia PA 19139", "icon": {"markerColor": "blue", "icon": "graduation-cap", "iconColor": "white"}}}, {"type": "Feature", "geometry": {"type": "Point", "coordinates": [-75.215599, 39.973319]}, "properties": {"name": "Global Leadership Academy CS", "category": "Schools (K-12, NCES)", "distance_mi_from_emr": 5.64, "address": "4601 Girard Avenue, Philadelphia PA 19131", "icon": {"markerColor": "blue", "icon": "graduation-cap", "iconColor": "white"}}}, {"type": "Feature", "geometry": {"type": "Point", "coordinates": [-75.1837, 39.9974]}, "properties": {"name": "Allen Dr Ethel Sch", "category": "Schools (K-12, NCES)", "distance_mi_from_emr": 5.71, "address": "3200 W Lehigh Ave, Philadelphia PA 19132", "icon": {"markerColor": "blue", "icon": "graduation-cap", "iconColor": "white"}}}, {"type": "Feature", "geometry": {"type": "Point", "coordinates": [-75.213726, 39.977191]}, "properties": {"name": "Discovery CS", "category": "Schools (K-12, NCES)", "distance_mi_from_emr": 5.72, "address": "4700 Parkside, Philadelphia PA 19131", "icon": {"markerColor": "blue", "icon": "graduation-cap", "iconColor": "white"}}}, {"type": "Feature", "geometry": {"type": "Point", "coordinates": [-75.0494, 39.8689]}, "properties": {"name": "Woodland Middle School", "category": "Schools (K-12, NCES)", "distance_mi_from_emr": 5.78, "address": "1 SCHOOL LANE, BARRINGTON NJ 8007", "icon": {"markerColor": "blue", "icon": "graduation-cap", "iconColor": "white"}}}, {"type": "Feature", "geometry": {"type": "Point", "coordinates": [-75.221122, 39.98]}, "properties": {"name": "KIPP DuBois CS", "category": "Schools (K-12, NCES)", "distance_mi_from_emr": 6.14, "address": "5070 Parkside Avenue, Philadelphia PA 19131", "icon": {"markerColor": "blue", "icon": "graduation-cap", "iconColor": "white"}}}, {"type": "Feature", "geometry": {"type": "Point", "coordinates": [-75.221122, 39.98]}, "properties": {"name": "KIPP West Philadelphia CS", "category": "Schools (K-12, NCES)", "distance_mi_from_emr": 6.14, "address": "5070 Parkside Avenue, Philadelphia PA 19131", "icon": {"markerColor": "blue", "icon": "graduation-cap", "iconColor": "white"}}}, {"type": "Feature", "geometry": {"type": "Point", "coordinates": [-75.0343, 39.8584]}, "properties": {"name": "Magnolia", "category": "Schools (K-12, NCES)", "distance_mi_from_emr": 6.86, "address": "420 NORTH WARWICK RD, MAGNOLIA NJ 8049", "icon": {"markerColor": "blue", "icon": "graduation-cap", "iconColor": "white"}}}]}