{"type": "FeatureCollection", "name": "receptors_hospitals_cms_certified", "x_description": "Hospitals (CMS-certified) (10) — sensitive-receptor points near EMR with distance from the facility; marker style/icon from the reference map baked in.", "x_sources": ["CMS provider directories (certified hospitals / nursing homes)."], "x_built_by": "camden/scripts/build_handoff.py", "features": [{"type": "Feature", "geometry": {"type": "Point", "coordinates": [-75.11577395674, 39.940853839241]}, "properties": {"name": "COOPER UNIVERSITY HOSPITAL", "category": "Hospitals (CMS-certified)", "distance_mi_from_emr": 1.21, "address": "Acute Care Hospitals · 1 COOPER PLAZA, CAMDEN, NJ", "icon": {"markerColor": "red", "icon": "plus-square", "iconColor": "white"}}}, {"type": "Feature", "geometry": {"type": "Point", "coordinates": [-75.154845554289, 39.945680181785]}, "properties": {"name": "PENNSYLVANIA HOSPITAL", "category": "Hospitals (CMS-certified)", "distance_mi_from_emr": 1.93, "address": "Acute Care Hospitals · 800 SPRUCE STREET, PHILADELPHIA, PA", "icon": {"markerColor": "red", "icon": "plus-square", "iconColor": "white"}}}, {"type": "Feature", "geometry": {"type": "Point", "coordinates": [-75.155904211118, 39.948237459574]}, "properties": {"name": "WILLS EYE HOSPITAL", "category": "Hospitals (CMS-certified)", "distance_mi_from_emr": 2.09, "address": "Acute Care Hospitals · 840 WALNUT STREET, PHILADELPHIA, PA", "icon": {"markerColor": "red", "icon": "plus-square", "iconColor": "white"}}}, {"type": "Feature", "geometry": {"type": "Point", "coordinates": [-75.169386479053, 39.926424559427]}, "properties": {"name": "MALVERN BEHAVIORAL HEALTH", "category": "Hospitals (CMS-certified)", "distance_mi_from_emr": 2.16, "address": "Psychiatric · 1930 SOUTH BROAD STREET, PHILADELPHIA, PA", "icon": {"markerColor": "red", "icon": "plus-square", "iconColor": "white"}}}, {"type": "Feature", "geometry": {"type": "Point", "coordinates": [-75.158673630059, 39.949674609229]}, "properties": {"name": "THOMAS JEFFERSON UNIVERSITY HOSPITAL", "category": "Hospitals (CMS-certified)", "distance_mi_from_emr": 2.27, "address": "Acute Care Hospitals · 111 SOUTH 11TH STREET, PHILADELPHIA, PA", "icon": {"markerColor": "red", "icon": "plus-square", "iconColor": "white"}}}, {"type": "Feature", "geometry": {"type": "Point", "coordinates": [-75.193774876682, 39.94785990077]}, "properties": {"name": "CHILDREN'S HOSPITAL OF PHILADELPHIA", "category": "Hospitals (CMS-certified)", "distance_mi_from_emr": 3.76, "address": "Childrens · 3401 CIVIC CENTER BLVD, PHILADELPHIA, PA", "icon": {"markerColor": "red", "icon": "plus-square", "iconColor": "white"}}}, {"type": "Feature", "geometry": {"type": "Point", "coordinates": [-75.19267201407, 39.950395607951]}, "properties": {"name": "HOSPITAL OF UNIV OF PENNSYLVANIA", "category": "Hospitals (CMS-certified)", "distance_mi_from_emr": 3.78, "address": "Acute Care Hospitals · 3400 SPRUCE ST, PHILADELPHIA, PA", "icon": {"markerColor": "red", "icon": "plus-square", "iconColor": "white"}}}, {"type": "Feature", "geometry": {"type": "Point", "coordinates": [-75.134807346682, 39.981823226501]}, "properties": {"name": "KENSINGTON HOSPITAL", "category": "Hospitals (CMS-certified)", "distance_mi_from_emr": 3.85, "address": "Acute Care Hospitals · 136 W DIAMOND STREET, PHILADELPHIA, PA", "icon": {"markerColor": "red", "icon": "plus-square", "iconColor": "white"}}}, {"type": "Feature", "geometry": {"type": "Point", "coordinates": [-75.201453326307, 39.949684784205]}, "properties": {"name": "PHILADELPHIA VA MEDICAL CENTER", "category": "Hospitals (CMS-certified)", "distance_mi_from_emr": 4.18, "address": "Acute Care - Veterans Administration · 3900 WOODLAND AVENUE, PHILADELPHIA, PA", "icon": {"markerColor": "red", "icon": "plus-square", "iconColor": "white"}}}, {"type": "Feature", "geometry": {"type": "Point", "coordinates": [-75.19947039462, 39.957216653887]}, "properties": {"name": "PENN PRESBYTERIAN MEDICAL CENTER", "category": "Hospitals (CMS-certified)", "distance_mi_from_emr": 4.32, "address": "Acute Care Hospitals · 51 NORTH 39TH STREET, PHILADELPHIA, PA", "icon": {"markerColor": "red", "icon": "plus-square", "iconColor": "white"}}}]}