{
"type": "FeatureCollection",
"name": "hysplit_trajectory_lines",
"crs": { "type": "name", "properties": { "name": "urn:ogc:def:crs:OGC:1.3:CRS84" } },
"features": [
{ "type": "Feature", "properties": { "traj_num": 1, "start_utc": "2025-02-21 22:00:00", "end_utc": "2025-02-22 22:00:00", "start_eastern": "2025-02-21 17:00:00", "end_eastern": "2025-02-22 17:00:00", "start_level_m": 50.0, "num_points": 25 }, "geometry": { "type": "LineString", "coordinates": [ [ -75.13, 39.927 ], [ -74.919, 39.766 ], [ -74.682, 39.586 ], [ -74.413, 39.37 ], [ -74.121, 39.116 ], [ -73.825, 38.83 ], [ -73.539, 38.532 ], [ -73.271, 38.239 ], [ -73.034, 37.958 ], [ -72.804, 37.684 ], [ -72.557, 37.414 ], [ -72.304, 37.148 ], [ -72.053, 36.884 ], [ -71.803, 36.618 ], [ -71.55, 36.35 ], [ -71.299, 36.088 ], [ -71.059, 35.841 ], [ -70.836, 35.606 ], [ -70.626, 35.387 ], [ -70.415, 35.186 ], [ -70.197, 35.003 ], [ -69.979, 34.831 ], [ -69.778, 34.663 ], [ -69.596, 34.502 ], [ -69.428, 34.359 ] ] } },
{ "type": "Feature", "properties": { "traj_num": 2, "start_utc": "2025-02-21 22:00:00", "end_utc": "2025-02-22 23:00:00", "start_eastern": "2025-02-21 17:00:00", "end_eastern": "2025-02-22 18:00:00", "start_level_m": 50.0, "num_points": 25 }, "geometry": { "type": "LineString", "coordinates": [ [ -75.13, 39.927 ], [ -74.925, 39.77 ], [ -74.697, 39.591 ], [ -74.44, 39.374 ], [ -74.165, 39.12 ], [ -73.888, 38.841 ], [ -73.623, 38.556 ], [ -73.378, 38.276 ], [ -73.15, 38.005 ], [ -72.922, 37.74 ], [ -72.684, 37.481 ], [ -72.445, 37.223 ], [ -72.212, 36.961 ], [ -71.983, 36.697 ], [ -71.76, 36.44 ], [ -71.547, 36.199 ], [ -71.344, 35.972 ], [ -71.144, 35.759 ], [ -70.941, 35.563 ], [ -70.736, 35.382 ], [ -70.53, 35.216 ], [ -70.329, 35.062 ], [ -70.137, 34.915 ], [ -69.951, 34.785 ], [ -69.769, 34.678 ] ] } },
{ "type": "Feature", "properties": { "traj_num": 3, "start_utc": "2025-02-21 22:00:00", "end_utc": "2025-02-23 00:00:00", "start_eastern": "2025-02-21 17:00:00", "end_eastern": "2025-02-22 19:00:00", "start_level_m": 50.0, "num_points": 25 }, "geometry": { "type": "LineString", "coordinates": [ [ -75.13, 39.927 ], [ -74.933, 39.773 ], [ -74.718, 39.595 ], [ -74.476, 39.379 ], [ -74.216, 39.131 ], [ -73.959, 38.865 ], [ -73.715, 38.593 ], [ -73.478, 38.325 ], [ -73.244, 38.061 ], [ -73.014, 37.806 ], [ -72.787, 37.554 ], [ -72.566, 37.302 ], [ -72.353, 37.045 ], [ -72.15, 36.795 ], [ -71.962, 36.563 ], [ -71.787, 36.347 ], [ -71.61, 36.147 ], [ -71.422, 35.962 ], [ -71.226, 35.791 ], [ -71.031, 35.635 ], [ -70.841, 35.491 ], [ -70.655, 35.358 ], [ -70.47, 35.241 ], [ -70.282, 35.147 ], [ -70.094, 35.078 ] ] } },
{ "type": "Feature", "properties": { "traj_num": 4, "start_utc": "2025-02-21 22:00:00", "end_utc": "2025-02-23 01:00:00", "start_eastern": "2025-02-21 17:00:00", "end_eastern": "2025-02-22 20:00:00", "start_level_m": 50.0, "num_points": 25 }, "geometry": { "type": "LineString", "coordinates": [ [ -75.13, 39.927 ], [ -74.947, 39.776 ], [ -74.747, 39.6 ], [ -74.518, 39.391 ], [ -74.273, 39.155 ], [ -74.033, 38.902 ], [ -73.798, 38.643 ], [ -73.557, 38.383 ], [ -73.316, 38.128 ], [ -73.089, 37.88 ], [ -72.879, 37.637 ], [ -72.678, 37.391 ], [ -72.487, 37.152 ], [ -72.311, 36.93 ], [ -72.152, 36.726 ], [ -71.995, 36.54 ], [ -71.823, 36.37 ], [ -71.637, 36.215 ], [ -71.447, 36.071 ], [ -71.26, 35.94 ], [ -71.076, 35.822 ], [ -70.892, 35.721 ], [ -70.702, 35.638 ], [ -70.508, 35.578 ], [ -70.31, 35.537 ] ] } },
{ "type": "Feature", "properties": { "traj_num": 5, "start_utc": "2025-02-21 22:00:00", "end_utc": "2025-02-23 02:00:00", "start_eastern": "2025-02-21 17:00:00", "end_eastern": "2025-02-22 21:00:00", "start_level_m": 50.0, "num_points": 25 }, "geometry": { "type": "LineString", "coordinates": [ [ -75.13, 39.927 ], [ -74.961, 39.778 ], [ -74.772, 39.609 ], [ -74.554, 39.411 ], [ -74.323, 39.188 ], [ -74.088, 38.947 ], [ -73.847, 38.697 ], [ -73.6, 38.447 ], [ -73.364, 38.2 ], [ -73.152, 37.96 ], [ -72.959, 37.726 ], [ -72.777, 37.5 ], [ -72.606, 37.289 ], [ -72.45, 37.096 ], [ -72.297, 36.923 ], [ -72.129, 36.768 ], [ -71.945, 36.63 ], [ -71.754, 36.504 ], [ -71.564, 36.387 ], [ -71.377, 36.281 ], [ -71.188, 36.19 ], [ -70.994, 36.118 ], [ -70.796, 36.064 ], [ -70.588, 36.033 ], [ -70.369, 36.024 ] ] } },
{ "type": "Feature", "properties": { "traj_num": 6, "start_utc": "2025-02-21 22:00:00", "end_utc": "2025-02-23 03:00:00", "start_eastern": "2025-02-21 17:00:00", "end_eastern": "2025-02-22 22:00:00", "start_level_m": 50.0, "num_points": 25 }, "geometry": { "type": "LineString", "coordinates": [ [ -75.13, 39.927 ], [ -74.97, 39.783 ], [ -74.788, 39.622 ], [ -74.58, 39.435 ], [ -74.354, 39.225 ], [ -74.117, 38.995 ], [ -73.87, 38.754 ], [ -73.63, 38.513 ], [ -73.414, 38.275 ], [ -73.22, 38.044 ], [ -73.043, 37.826 ], [ -72.88, 37.626 ], [ -72.728, 37.442 ], [ -72.574, 37.28 ], [ -72.405, 37.138 ], [ -72.219, 37.016 ], [ -72.024, 36.907 ], [ -71.828, 36.807 ], [ -71.634, 36.714 ], [ -71.438, 36.635 ], [ -71.234, 36.574 ], [ -71.026, 36.532 ], [ -70.809, 36.509 ], [ -70.578, 36.506 ], [ -70.338, 36.523 ] ] } },
{ "type": "Feature", "properties": { "traj_num": 7, "start_utc": "2025-02-21 22:00:00", "end_utc": "2025-02-23 04:00:00", "start_eastern": "2025-02-21 17:00:00", "end_eastern": "2025-02-22 23:00:00", "start_level_m": 50.0, "num_points": 25 }, "geometry": { "type": "LineString", "coordinates": [ [ -75.13, 39.927 ], [ -74.973, 39.79 ], [ -74.796, 39.636 ], [ -74.594, 39.459 ], [ -74.371, 39.26 ], [ -74.131, 39.042 ], [ -73.894, 38.813 ], [ -73.677, 38.582 ], [ -73.482, 38.354 ], [ -73.307, 38.138 ], [ -73.148, 37.943 ], [ -73.005, 37.767 ], [ -72.859, 37.614 ], [ -72.693, 37.485 ], [ -72.509, 37.379 ], [ -72.313, 37.288 ], [ -72.111, 37.206 ], [ -71.909, 37.132 ], [ -71.702, 37.069 ], [ -71.489, 37.022 ], [ -71.269, 36.993 ], [ -71.038, 36.981 ], [ -70.793, 36.985 ], [ -70.537, 37.005 ], [ -70.267, 37.034 ] ] } },
{ "type": "Feature", "properties": { "traj_num": 8, "start_utc": "2025-02-21 22:00:00", "end_utc": "2025-02-23 05:00:00", "start_eastern": "2025-02-21 17:00:00", "end_eastern": "2025-02-23 00:00:00", "start_level_m": 50.0, "num_points": 25 }, "geometry": { "type": "LineString", "coordinates": [ [ -75.13, 39.927 ], [ -74.975, 39.796 ], [ -74.802, 39.65 ], [ -74.604, 39.484 ], [ -74.384, 39.296 ], [ -74.156, 39.092 ], [ -73.941, 38.878 ], [ -73.748, 38.66 ], [ -73.572, 38.451 ], [ -73.412, 38.261 ], [ -73.271, 38.089 ], [ -73.13, 37.943 ], [ -72.973, 37.827 ], [ -72.796, 37.737 ], [ -72.602, 37.665 ], [ -72.398, 37.604 ], [ -72.187, 37.553 ], [ -71.971, 37.515 ], [ -71.747, 37.492 ], [ -71.514, 37.487 ], [ -71.268, 37.494 ], [ -71.003, 37.511 ], [ -70.724, 37.541 ], [ -70.434, 37.577 ], [ -70.132, 37.613 ] ] } },
{ "type": "Feature", "properties": { "traj_num": 9, "start_utc": "2025-02-21 22:00:00", "end_utc": "2025-02-23 06:00:00", "start_eastern": "2025-02-21 17:00:00", "end_eastern": "2025-02-23 01:00:00", "start_level_m": 50.0, "num_points": 25 }, "geometry": { "type": "LineString", "coordinates": [ [ -75.13, 39.927 ], [ -74.976, 39.803 ], [ -74.807, 39.668 ], [ -74.613, 39.512 ], [ -74.404, 39.34 ], [ -74.197, 39.155 ], [ -74.005, 38.958 ], [ -73.829, 38.763 ], [ -73.665, 38.584 ], [ -73.517, 38.423 ], [ -73.371, 38.286 ], [ -73.214, 38.181 ], [ -73.041, 38.105 ], [ -72.851, 38.051 ], [ -72.645, 38.01 ], [ -72.427, 37.981 ], [ -72.201, 37.966 ], [ -71.968, 37.968 ], [ -71.726, 37.987 ], [ -71.469, 38.014 ], [ -71.191, 38.044 ], [ -70.892, 38.083 ], [ -70.581, 38.127 ], [ -70.267, 38.172 ], [ -69.95, 38.22 ] ] } },
{ "type": "Feature", "properties": { "traj_num": 10, "start_utc": "2025-02-21 22:00:00", "end_utc": "2025-02-23 07:00:00", "start_eastern": "2025-02-21 17:00:00", "end_eastern": "2025-02-23 02:00:00", "start_level_m": 50.0, "num_points": 25 }, "geometry": { "type": "LineString", "coordinates": [ [ -75.13, 39.927 ], [ -74.978, 39.812 ], [ -74.812, 39.686 ], [ -74.627, 39.545 ], [ -74.436, 39.393 ], [ -74.249, 39.231 ], [ -74.071, 39.063 ], [ -73.902, 38.902 ], [ -73.746, 38.755 ], [ -73.593, 38.633 ], [ -73.431, 38.544 ], [ -73.258, 38.485 ], [ -73.073, 38.448 ], [ -72.872, 38.428 ], [ -72.657, 38.424 ], [ -72.428, 38.435 ], [ -72.186, 38.462 ], [ -71.93, 38.51 ], [ -71.657, 38.567 ], [ -71.363, 38.62 ], [ -71.048, 38.677 ], [ -70.721, 38.735 ], [ -70.395, 38.789 ], [ -70.071, 38.846 ], [ -69.741, 38.901 ] ] } },
{ "type": "Feature", "properties": { "traj_num": 11, "start_utc": "2025-02-21 22:00:00", "end_utc": "2025-02-23 08:00:00", "start_eastern": "2025-02-21 17:00:00", "end_eastern": "2025-02-23 03:00:00", "start_level_m": 50.0, "num_points": 25 }, "geometry": { "type": "LineString", "coordinates": [ [ -75.13, 39.927 ], [ -74.979, 39.821 ], [ -74.82, 39.708 ], [ -74.649, 39.586 ], [ -74.475, 39.456 ], [ -74.303, 39.321 ], [ -74.134, 39.187 ], [ -73.972, 39.061 ], [ -73.812, 38.959 ], [ -73.646, 38.893 ], [ -73.473, 38.858 ], [ -73.289, 38.846 ], [ -73.091, 38.85 ], [ -72.88, 38.875 ], [ -72.65, 38.916 ], [ -72.399, 38.969 ], [ -72.127, 39.044 ], [ -71.837, 39.128 ], [ -71.527, 39.205 ], [ -71.198, 39.281 ], [ -70.858, 39.354 ], [ -70.521, 39.417 ], [ -70.189, 39.474 ], [ -69.855, 39.527 ], [ -69.51, 39.578 ] ] } },
{ "type": "Feature", "properties": { "traj_num": 12, "start_utc": "2025-02-21 22:00:00", "end_utc": "2025-02-23 09:00:00", "start_eastern": "2025-02-21 17:00:00", "end_eastern": "2025-02-23 04:00:00", "start_level_m": 50.0, "num_points": 25 }, "geometry": { "type": "LineString", "coordinates": [ [ -75.13, 39.927 ], [ -74.983, 39.833 ], [ -74.832, 39.737 ], [ -74.675, 39.635 ], [ -74.514, 39.528 ], [ -74.354, 39.419 ], [ -74.196, 39.315 ], [ -74.04, 39.234 ], [ -73.881, 39.191 ], [ -73.717, 39.184 ], [ -73.543, 39.198 ], [ -73.355, 39.228 ], [ -73.156, 39.282 ], [ -72.938, 39.356 ], [ -72.69, 39.445 ], [ -72.416, 39.551 ], [ -72.119, 39.661 ], [ -71.8, 39.761 ], [ -71.459, 39.858 ], [ -71.105, 39.948 ], [ -70.754, 40.025 ], [ -70.411, 40.09 ], [ -70.074, 40.15 ], [ -69.734, 40.215 ], [ -69.387, 40.292 ] ] } },
{ "type": "Feature", "properties": { "traj_num": 13, "start_utc": "2025-02-21 22:00:00", "end_utc": "2025-02-23 10:00:00", "start_eastern": "2025-02-21 17:00:00", "end_eastern": "2025-02-23 05:00:00", "start_level_m": 50.0, "num_points": 25 }, "geometry": { "type": "LineString", "coordinates": [ [ -75.13, 39.927 ], [ -74.989, 39.847 ], [ -74.847, 39.769 ], [ -74.7, 39.685 ], [ -74.551, 39.598 ], [ -74.402, 39.512 ], [ -74.256, 39.444 ], [ -74.111, 39.412 ], [ -73.967, 39.423 ], [ -73.816, 39.462 ], [ -73.654, 39.517 ], [ -73.485, 39.595 ], [ -73.295, 39.696 ], [ -73.066, 39.819 ], [ -72.793, 39.971 ], [ -72.494, 40.124 ], [ -72.18, 40.256 ], [ -71.848, 40.385 ], [ -71.503, 40.509 ], [ -71.145, 40.618 ], [ -70.784, 40.719 ], [ -70.44, 40.822 ], [ -70.122, 40.931 ], [ -69.817, 41.049 ], [ -69.495, 41.176 ] ] } },
{ "type": "Feature", "properties": { "traj_num": 14, "start_utc": "2025-02-21 22:00:00", "end_utc": "2025-02-23 11:00:00", "start_eastern": "2025-02-21 17:00:00", "end_eastern": "2025-02-23 06:00:00", "start_level_m": 50.0, "num_points": 25 }, "geometry": { "type": "LineString", "coordinates": [ [ -75.13, 39.927 ], [ -74.994, 39.862 ], [ -74.86, 39.797 ], [ -74.723, 39.727 ], [ -74.584, 39.656 ], [ -74.448, 39.599 ], [ -74.315, 39.572 ], [ -74.188, 39.583 ], [ -74.061, 39.63 ], [ -73.928, 39.703 ], [ -73.791, 39.802 ], [ -73.637, 39.919 ], [ -73.443, 40.048 ], [ -73.212, 40.2 ], [ -72.957, 40.365 ], [ -72.683, 40.515 ], [ -72.389, 40.655 ], [ -72.084, 40.798 ], [ -71.772, 40.938 ], [ -71.451, 41.065 ], [ -71.119, 41.176 ], [ -70.788, 41.281 ], [ -70.472, 41.394 ], [ -70.16, 41.512 ], [ -69.824, 41.621 ] ] } },
{ "type": "Feature", "properties": { "traj_num": 15, "start_utc": "2025-02-21 22:00:00", "end_utc": "2025-02-23 12:00:00", "start_eastern": "2025-02-21 17:00:00", "end_eastern": "2025-02-23 07:00:00", "start_level_m": 50.0, "num_points": 25 }, "geometry": { "type": "LineString", "coordinates": [ [ -75.13, 39.927 ], [ -75.0, 39.872 ], [ -74.873, 39.815 ], [ -74.745, 39.757 ], [ -74.616, 39.709 ], [ -74.492, 39.687 ], [ -74.374, 39.698 ], [ -74.26, 39.741 ], [ -74.148, 39.814 ], [ -74.038, 39.92 ], [ -73.912, 40.044 ], [ -73.749, 40.168 ], [ -73.551, 40.302 ], [ -73.332, 40.445 ], [ -73.093, 40.585 ], [ -72.827, 40.715 ], [ -72.545, 40.845 ], [ -72.261, 40.983 ], [ -71.982, 41.114 ], [ -71.704, 41.229 ], [ -71.418, 41.326 ], [ -71.122, 41.413 ], [ -70.831, 41.491 ], [ -70.546, 41.559 ], [ -70.237, 41.616 ] ] } },
{ "type": "Feature", "properties": { "traj_num": 16, "start_utc": "2025-02-21 22:00:00", "end_utc": "2025-02-23 13:00:00", "start_eastern": "2025-02-21 17:00:00", "end_eastern": "2025-02-23 08:00:00", "start_level_m": 50.0, "num_points": 25 }, "geometry": { "type": "LineString", "coordinates": [ [ -75.13, 39.927 ], [ -75.005, 39.877 ], [ -74.885, 39.828 ], [ -74.764, 39.787 ], [ -74.644, 39.77 ], [ -74.53, 39.781 ], [ -74.423, 39.821 ], [ -74.321, 39.89 ], [ -74.224, 39.99 ], [ -74.112, 40.107 ], [ -73.966, 40.223 ], [ -73.788, 40.344 ], [ -73.588, 40.472 ], [ -73.372, 40.599 ], [ -73.129, 40.718 ], [ -72.86, 40.838 ], [ -72.585, 40.968 ], [ -72.31, 41.098 ], [ -72.042, 41.213 ], [ -71.773, 41.311 ], [ -71.494, 41.394 ], [ -71.218, 41.462 ], [ -70.954, 41.512 ], [ -70.687, 41.548 ], [ -70.392, 41.575 ] ] } },
{ "type": "Feature", "properties": { "traj_num": 17, "start_utc": "2025-02-21 22:00:00", "end_utc": "2025-02-23 14:00:00", "start_eastern": "2025-02-21 17:00:00", "end_eastern": "2025-02-23 09:00:00", "start_level_m": 50.0, "num_points": 25 }, "geometry": { "type": "LineString", "coordinates": [ [ -75.13, 39.927 ], [ -75.011, 39.882 ], [ -74.895, 39.847 ], [ -74.778, 39.833 ], [ -74.665, 39.845 ], [ -74.559, 39.884 ], [ -74.462, 39.949 ], [ -74.37, 40.043 ], [ -74.264, 40.151 ], [ -74.127, 40.262 ], [ -73.961, 40.373 ], [ -73.775, 40.489 ], [ -73.575, 40.606 ], [ -73.35, 40.719 ], [ -73.098, 40.832 ], [ -72.83, 40.956 ], [ -72.557, 41.084 ], [ -72.289, 41.2 ], [ -72.025, 41.296 ], [ -71.757, 41.377 ], [ -71.491, 41.442 ], [ -71.236, 41.489 ], [ -70.989, 41.517 ], [ -70.726, 41.531 ], [ -70.426, 41.538 ] ] } },
{ "type": "Feature", "properties": { "traj_num": 18, "start_utc": "2025-02-21 22:00:00", "end_utc": "2025-02-23 15:00:00", "start_eastern": "2025-02-21 17:00:00", "end_eastern": "2025-02-23 10:00:00", "start_level_m": 50.0, "num_points": 25 }, "geometry": { "type": "LineString", "coordinates": [ [ -75.13, 39.927 ], [ -75.012, 39.894 ], [ -74.897, 39.884 ], [ -74.783, 39.896 ], [ -74.677, 39.933 ], [ -74.58, 39.996 ], [ -74.489, 40.083 ], [ -74.386, 40.186 ], [ -74.255, 40.292 ], [ -74.097, 40.4 ], [ -73.921, 40.509 ], [ -73.733, 40.619 ], [ -73.522, 40.727 ], [ -73.284, 40.835 ], [ -73.025, 40.954 ], [ -72.752, 41.081 ], [ -72.483, 41.197 ], [ -72.22, 41.291 ], [ -71.958, 41.37 ], [ -71.7, 41.433 ], [ -71.453, 41.479 ], [ -71.215, 41.506 ], [ -70.967, 41.516 ], [ -70.689, 41.517 ], [ -70.38, 41.505 ] ] } },
{ "type": "Feature", "properties": { "traj_num": 19, "start_utc": "2025-02-21 22:00:00", "end_utc": "2025-02-23 16:00:00", "start_eastern": "2025-02-21 17:00:00", "end_eastern": "2025-02-23 11:00:00", "start_level_m": 50.0, "num_points": 25 }, "geometry": { "type": "LineString", "coordinates": [ [ -75.13, 39.927 ], [ -75.01, 39.917 ], [ -74.894, 39.93 ], [ -74.785, 39.966 ], [ -74.687, 40.025 ], [ -74.596, 40.108 ], [ -74.495, 40.206 ], [ -74.367, 40.308 ], [ -74.214, 40.414 ], [ -74.046, 40.519 ], [ -73.866, 40.625 ], [ -73.665, 40.729 ], [ -73.437, 40.833 ], [ -73.186, 40.945 ], [ -72.915, 41.07 ], [ -72.643, 41.186 ], [ -72.379, 41.28 ], [ -72.119, 41.357 ], [ -71.865, 41.418 ], [ -71.623, 41.464 ], [ -71.39, 41.491 ], [ -71.147, 41.501 ], [ -70.877, 41.499 ], [ -70.579, 41.484 ], [ -70.263, 41.464 ] ] } },
{ "type": "Feature", "properties": { "traj_num": 20, "start_utc": "2025-02-21 22:00:00", "end_utc": "2025-02-23 17:00:00", "start_eastern": "2025-02-21 17:00:00", "end_eastern": "2025-02-23 12:00:00", "start_level_m": 50.0, "num_points": 25 }, "geometry": { "type": "LineString", "coordinates": [ [ -75.13, 39.927 ], [ -75.008, 39.939 ], [ -74.895, 39.973 ], [ -74.796, 40.029 ], [ -74.706, 40.107 ], [ -74.606, 40.201 ], [ -74.482, 40.3 ], [ -74.334, 40.403 ], [ -74.171, 40.506 ], [ -73.999, 40.607 ], [ -73.809, 40.706 ], [ -73.594, 40.805 ], [ -73.353, 40.91 ], [ -73.09, 41.028 ], [ -72.816, 41.144 ], [ -72.549, 41.24 ], [ -72.286, 41.317 ], [ -72.03, 41.378 ], [ -71.788, 41.423 ], [ -71.554, 41.451 ], [ -71.309, 41.462 ], [ -71.039, 41.457 ], [ -70.744, 41.44 ], [ -70.432, 41.419 ], [ -70.118, 41.399 ] ] } },
{ "type": "Feature", "properties": { "traj_num": 21, "start_utc": "2025-02-21 22:00:00", "end_utc": "2025-02-23 18:00:00", "start_eastern": "2025-02-21 17:00:00", "end_eastern": "2025-02-23 13:00:00", "start_level_m": 50.0, "num_points": 25 }, "geometry": { "type": "LineString", "coordinates": [ [ -75.13, 39.927 ], [ -75.013, 39.96 ], [ -74.912, 40.012 ], [ -74.822, 40.086 ], [ -74.726, 40.174 ], [ -74.606, 40.269 ], [ -74.464, 40.369 ], [ -74.307, 40.469 ], [ -74.142, 40.566 ], [ -73.965, 40.66 ], [ -73.767, 40.753 ], [ -73.543, 40.848 ], [ -73.295, 40.952 ], [ -73.029, 41.063 ], [ -72.759, 41.162 ], [ -72.491, 41.241 ], [ -72.23, 41.303 ], [ -71.982, 41.35 ], [ -71.743, 41.379 ], [ -71.493, 41.39 ], [ -71.216, 41.385 ], [ -70.915, 41.366 ], [ -70.6, 41.344 ], [ -70.283, 41.326 ], [ -69.969, 41.308 ] ] } },
{ "type": "Feature", "properties": { "traj_num": 22, "start_utc": "2025-02-21 22:00:00", "end_utc": "2025-02-23 19:00:00", "start_eastern": "2025-02-21 17:00:00", "end_eastern": "2025-02-23 14:00:00", "start_level_m": 50.0, "num_points": 25 }, "geometry": { "type": "LineString", "coordinates": [ [ -75.13, 39.927 ], [ -75.024, 39.978 ], [ -74.935, 40.048 ], [ -74.841, 40.131 ], [ -74.725, 40.224 ], [ -74.588, 40.322 ], [ -74.435, 40.419 ], [ -74.276, 40.513 ], [ -74.106, 40.604 ], [ -73.921, 40.692 ], [ -73.714, 40.779 ], [ -73.481, 40.872 ], [ -73.229, 40.97 ], [ -72.963, 41.067 ], [ -72.69, 41.151 ], [ -72.422, 41.215 ], [ -72.164, 41.263 ], [ -71.917, 41.294 ], [ -71.66, 41.307 ], [ -71.375, 41.301 ], [ -71.064, 41.281 ], [ -70.739, 41.257 ], [ -70.415, 41.241 ], [ -70.096, 41.227 ], [ -69.771, 41.215 ] ] } },
{ "type": "Feature", "properties": { "traj_num": 23, "start_utc": "2025-02-21 22:00:00", "end_utc": "2025-02-23 20:00:00", "start_eastern": "2025-02-21 17:00:00", "end_eastern": "2025-02-23 15:00:00", "start_level_m": 50.0, "num_points": 25 }, "geometry": { "type": "LineString", "coordinates": [ [ -75.13, 39.927 ], [ -75.035, 39.996 ], [ -74.942, 40.077 ], [ -74.829, 40.168 ], [ -74.693, 40.266 ], [ -74.544, 40.363 ], [ -74.387, 40.456 ], [ -74.22, 40.544 ], [ -74.042, 40.63 ], [ -73.844, 40.713 ], [ -73.622, 40.799 ], [ -73.38, 40.887 ], [ -73.121, 40.975 ], [ -72.848, 41.059 ], [ -72.573, 41.128 ], [ -72.306, 41.178 ], [ -72.049, 41.211 ], [ -71.783, 41.225 ], [ -71.489, 41.22 ], [ -71.169, 41.198 ], [ -70.833, 41.174 ], [ -70.498, 41.158 ], [ -70.171, 41.148 ], [ -69.844, 41.142 ], [ -69.496, 41.138 ] ] } },
{ "type": "Feature", "properties": { "traj_num": 24, "start_utc": "2025-02-21 22:00:00", "end_utc": "2025-02-23 21:00:00", "start_eastern": "2025-02-21 17:00:00", "end_eastern": "2025-02-23 16:00:00", "start_level_m": 50.0, "num_points": 25 }, "geometry": { "type": "LineString", "coordinates": [ [ -75.13, 39.927 ], [ -75.031, 40.011 ], [ -74.918, 40.102 ], [ -74.783, 40.201 ], [ -74.632, 40.3 ], [ -74.476, 40.393 ], [ -74.309, 40.482 ], [ -74.131, 40.567 ], [ -73.937, 40.649 ], [ -73.721, 40.731 ], [ -73.483, 40.813 ], [ -73.227, 40.894 ], [ -72.953, 40.976 ], [ -72.671, 41.049 ], [ -72.396, 41.101 ], [ -72.129, 41.135 ], [ -71.852, 41.15 ], [ -71.548, 41.145 ], [ -71.217, 41.123 ], [ -70.87, 41.098 ], [ -70.526, 41.084 ], [ -70.192, 41.077 ], [ -69.861, 41.076 ], [ -69.512, 41.079 ], [ -69.128, 41.078 ] ] } }
]
}
