{"type": "FeatureCollection", "name": "footprint_cumulative", "x_description": "Smoothed cumulative HYSPLIT tracer footprint for the 2026-03-10 EMR fire, three bands: ≥1%, ≥10%, ≥50% of peak modeled concentration.", "x_sources": ["NOAA HYSPLIT v5.4.2 unit-source tracer simulation, HRRR 3-km meteorology (2026-03-10 fire). Relative concentration — not measured µg/m³."], "x_built_by": "camden/scripts/build_handoff.py", "features": [{"geometry": {"coordinates": [[[-75.13985628742515, 39.94], [-75.14, 39.94923076923077], [-75.14055555555555, 39.95], [-75.14346153846154, 39.96], [-75.14516431924883, 39.97], [-75.14367647058823, 39.98], [-75.14000000000001, 39.98833333333334], [-75.13986301369863, 39.99], [-75.13965517241378, 40.0], [-75.13904761904762, 40.01], [-75.13555555555556, 40.02000000000001], [-75.13, 40.02454545454545], [-75.12785714285714, 40.03], [-75.12705882352941, 40.04], [-75.12454545454545, 40.05], [-75.12, 40.05344827586207], [-75.11666666666667, 40.06], [-75.11166666666666, 40.07], [-75.11, 40.070952380952384], [-75.10698412698412, 40.08], [-75.1, 40.08], [-75.09, 40.08], [-75.08, 40.08], [-75.07, 40.08], [-75.06, 40.08], [-75.05, 40.08], [-75.04, 40.08], [-75.03, 40.08], [-75.02, 40.08], [-75.01, 40.08], [-75.0, 40.08], [-74.99, 40.08], [-74.98, 40.08], [-74.98, 40.07], [-74.98, 40.06], [-74.98, 40.05], [-74.98, 40.04], [-74.98, 40.03875], [-74.98583333333333, 40.03], [-74.99, 40.02632352941177], [-74.9958904109589, 40.02], [-75.0, 40.01565217391305], [-75.01, 40.01222222222222], [-75.01181818181819, 40.010000000000005], [-75.02, 40.0025], [-75.02333333333334, 40.00000000000001], [-75.03, 39.995000000000005], [-75.03428571428572, 39.99], [-75.04, 39.98466666666666], [-75.047, 39.98], [-75.05, 39.977], [-75.05875, 39.97], [-75.06, 39.96857142857143], [-75.07, 39.96030303030303], [-75.07029411764705, 39.96], [-75.08, 39.95057142857143], [-75.0804347826087, 39.95], [-75.09, 39.941896869244935], [-75.09249394673124, 39.94], [-75.1, 39.93330453563715], [-75.10999999999999, 39.930047058823526], [-75.11001556420234, 39.93], [-75.12, 39.920130769230774], [-75.13, 39.9201], [-75.1399, 39.92999999999999], [-75.13985628742515, 39.94]]], "type": "Polygon"}, "properties": {"band": "outer_1pct", "lower_relative": 1.7e-08, "style": {"color": "#cccccc", "fillColor": "#cccccc", "fillOpacity": 0.35, "opacity": 0.9, "weight": 1.0}, "label": "Modeled footprint: outer extent (≥1% of peak)"}, "type": "Feature"}, {"geometry": {"coordinates": [[[-74.98, 40.011041666666664], [-74.98, 40.01], [-74.98, 40.007999999999996], [-74.980826446281, 40.01], [-74.98, 40.011041666666664]]], "type": "Polygon"}, "properties": {"band": "outer_1pct", "lower_relative": 1.7e-08, "style": {"color": "#cccccc", "fillColor": "#cccccc", "fillOpacity": 0.35, "opacity": 0.9, "weight": 1.0}, "label": "Modeled footprint: outer extent (≥1% of peak)"}, "type": "Feature"}, {"geometry": {"coordinates": [[[-75.13900000000001, 39.93], [-75.13000000000001, 39.92100000000001], [-75.12, 39.92130769230769], [-75.11120622568093, 39.93], [-75.11, 39.933647058823524], [-75.10311224489796, 39.94], [-75.1, 39.9460396039604], [-75.0957671957672, 39.95], [-75.09090909090908, 39.959999999999994], [-75.09, 39.9625], [-75.084, 39.97], [-75.08, 39.977999999999994], [-75.07857142857142, 39.98], [-75.08, 39.983333333333334], [-75.08200000000001, 39.99], [-75.08, 40.0], [-75.08, 40.01], [-75.08, 40.02], [-75.09, 40.03], [-75.1, 40.026666666666664], [-75.104, 40.02], [-75.11, 40.014], [-75.114, 40.01], [-75.12, 40.004999999999995], [-75.12236220472441, 40.0], [-75.12381679389313, 39.99], [-75.1257142857143, 39.98], [-75.128, 39.97], [-75.13, 39.961666666666666], [-75.13064935064935, 39.96], [-75.13460992907801, 39.95], [-75.1380239520958, 39.94], [-75.13900000000001, 39.93]]], "type": "Polygon"}, "properties": {"band": "core_10pct", "lower_relative": 1.7000000000000001e-07, "style": {"color": "#888888", "fillColor": "#888888", "fillOpacity": 0.55, "opacity": 0.9, "weight": 1.0}, "label": "Modeled footprint: plume core (≥10% of peak)"}, "type": "Feature"}, {"geometry": {"coordinates": [[[-75.13499999999999, 39.93], [-75.13, 39.925], [-75.12, 39.92653846153846], [-75.1164980544747, 39.93], [-75.11476744186047, 39.94], [-75.12, 39.948035714285716], [-75.12978260869565, 39.94], [-75.13, 39.939883720930226], [-75.13499999999999, 39.93]]], "type": "Polygon"}, "properties": {"band": "hotspot_50pct", "lower_relative": 8.5e-07, "style": {"color": "#333333", "fillColor": "#333333", "fillOpacity": 0.75, "opacity": 0.9, "weight": 1.0}, "label": "Modeled footprint: highest band (≥50% of peak)"}, "type": "Feature"}]}