{"type": "FeatureCollection", "name": "footprint_raw_cells", "x_description": "Raw 500 m HYSPLIT grid cells at ≥1% of peak. Properties carry fraction_of_peak and max_tracer_relative per cell; fill darkens with fraction.", "x_sources": ["NOAA HYSPLIT v5.4.2 unit-source tracer simulation, HRRR 3-km meteorology (2026-03-10 fire). Relative concentration — not measured µg/m³."], "x_built_by": "camden/scripts/build_handoff.py", "features": [{"geometry": {"coordinates": [[[-75.13499999999999, 39.925], [-75.125, 39.925], [-75.125, 39.935], [-75.13499999999999, 39.935], [-75.13499999999999, 39.925]]], "type": "Polygon"}, "properties": {"above_threshold": true, "fraction_of_peak": 1.0, "max_tracer_relative": 1.7e-06, "style": {"color": "#444", "fillColor": "#282828", "fillOpacity": 0.55, "weight": 0.2}, "label": "Max relative tracer: 1.70e-06"}, "type": "Feature"}, {"geometry": {"coordinates": [[[-75.125, 39.925], [-75.11500000000001, 39.925], [-75.11500000000001, 39.935], [-75.125, 39.935], [-75.125, 39.925]]], "type": "Polygon"}, "properties": {"above_threshold": true, "fraction_of_peak": 0.7647058823529412, "max_tracer_relative": 1.3e-06, "style": {"color": "#444", "fillColor": "#2d2d2d", "fillOpacity": 0.55, "weight": 0.2}, "label": "Max relative tracer: 1.30e-06"}, "type": "Feature"}, {"geometry": {"coordinates": [[[-75.13499999999999, 39.935], [-75.125, 39.935], [-75.125, 39.94499999999999], [-75.13499999999999, 39.94499999999999], [-75.13499999999999, 39.935]]], "type": "Polygon"}, "properties": {"above_threshold": true, "fraction_of_peak": 0.49411764705882355, "max_tracer_relative": 8.4e-07, "style": {"color": "#444", "fillColor": "#353535", "fillOpacity": 0.55, "weight": 0.2}, "label": "Max relative tracer: 8.40e-07"}, "type": "Feature"}, {"geometry": {"coordinates": [[[-75.125, 39.935], [-75.11500000000001, 39.935], [-75.11500000000001, 39.94499999999999], [-75.125, 39.94499999999999], [-75.125, 39.935]]], "type": "Polygon"}, "properties": {"above_threshold": true, "fraction_of_peak": 0.7647058823529412, "max_tracer_relative": 1.3e-06, "style": {"color": "#444", "fillColor": "#2d2d2d", "fillOpacity": 0.55, "weight": 0.2}, "label": "Max relative tracer: 1.30e-06"}, "type": "Feature"}, {"geometry": {"coordinates": [[[-75.11500000000001, 39.935], [-75.10499999999999, 39.935], [-75.10499999999999, 39.94499999999999], [-75.11500000000001, 39.94499999999999], [-75.11500000000001, 39.935]]], "type": "Polygon"}, "properties": {"above_threshold": true, "fraction_of_peak": 0.25882352941176473, "max_tracer_relative": 4.4e-07, "style": {"color": "#444", "fillColor": "#424242", "fillOpacity": 0.55, "weight": 0.2}, "label": "Max relative tracer: 4.40e-07"}, "type": "Feature"}, {"geometry": {"coordinates": [[[-75.10499999999999, 39.935], [-75.095, 39.935], [-75.095, 39.94499999999999], [-75.10499999999999, 39.94499999999999], [-75.10499999999999, 39.935]]], "type": "Polygon"}, "properties": {"above_threshold": true, "fraction_of_peak": 0.02823529411764706, "max_tracer_relative": 4.8e-08, "style": {"color": "#444", "fillColor": "#6d6d6d", "fillOpacity": 0.55, "weight": 0.2}, "label": "Max relative tracer: 4.80e-08"}, "type": "Feature"}, {"geometry": {"coordinates": [[[-75.14500000000001, 39.94500000000001], [-75.13499999999999, 39.94500000000001], [-75.13499999999999, 39.955], [-75.14500000000001, 39.955], [-75.14500000000001, 39.94500000000001]]], "type": "Polygon"}, "properties": {"above_threshold": true, "fraction_of_peak": 0.010588235294117647, "max_tracer_relative": 1.8e-08, "style": {"color": "#444", "fillColor": "#808080", "fillOpacity": 0.55, "weight": 0.2}, "label": "Max relative tracer: 1.80e-08"}, "type": "Feature"}, {"geometry": {"coordinates": [[[-75.13499999999999, 39.94500000000001], [-75.125, 39.94500000000001], [-75.125, 39.955], [-75.13499999999999, 39.955], [-75.13499999999999, 39.94500000000001]]], "type": "Polygon"}, "properties": {"above_threshold": true, "fraction_of_peak": 0.1764705882352941, "max_tracer_relative": 3e-07, "style": {"color": "#444", "fillColor": "#494949", "fillOpacity": 0.55, "weight": 0.2}, "label": "Max relative tracer: 3.00e-07"}, "type": "Feature"}, {"geometry": {"coordinates": [[[-75.125, 39.94500000000001], [-75.11500000000001, 39.94500000000001], [-75.11500000000001, 39.955], [-75.125, 39.955], [-75.125, 39.94500000000001]]], "type": "Polygon"}, "properties": {"above_threshold": true, "fraction_of_peak": 0.43529411764705883, "max_tracer_relative": 7.4e-07, "style": {"color": "#444", "fillColor": "#383838", "fillOpacity": 0.55, "weight": 0.2}, "label": "Max relative tracer: 7.40e-07"}, "type": "Feature"}, {"geometry": {"coordinates": [[[-75.11500000000001, 39.94500000000001], [-75.10499999999999, 39.94500000000001], [-75.10499999999999, 39.955], [-75.11500000000001, 39.955], [-75.11500000000001, 39.94500000000001]]], "type": "Polygon"}, "properties": {"above_threshold": true, "fraction_of_peak": 0.39999999999999997, "max_tracer_relative": 6.8e-07, "style": {"color": "#444", "fillColor": "#393939", "fillOpacity": 0.55, "weight": 0.2}, "label": "Max relative tracer: 6.80e-07"}, "type": "Feature"}, {"geometry": {"coordinates": [[[-75.10499999999999, 39.94500000000001], [-75.095, 39.94500000000001], [-75.095, 39.955], [-75.10499999999999, 39.955], [-75.10499999999999, 39.94500000000001]]], "type": "Polygon"}, "properties": {"above_threshold": true, "fraction_of_peak": 0.14705882352941174, "max_tracer_relative": 2.5e-07, "style": {"color": "#444", "fillColor": "#4d4d4d", "fillOpacity": 0.55, "weight": 0.2}, "label": "Max relative tracer: 2.50e-07"}, "type": "Feature"}, {"geometry": {"coordinates": [[[-75.095, 39.94500000000001], [-75.08500000000001, 39.94500000000001], [-75.08500000000001, 39.955], [-75.095, 39.955], [-75.095, 39.94500000000001]]], "type": "Polygon"}, "properties": {"above_threshold": true, "fraction_of_peak": 0.03588235294117647, "max_tracer_relative": 6.1e-08, "style": {"color": "#444", "fillColor": "#696969", "fillOpacity": 0.55, "weight": 0.2}, "label": "Max relative tracer: 6.10e-08"}, "type": "Feature"}, {"geometry": {"coordinates": [[[-75.14500000000001, 39.955], [-75.13499999999999, 39.955], [-75.13499999999999, 39.965], [-75.14500000000001, 39.965], [-75.14500000000001, 39.955]]], "type": "Polygon"}, "properties": {"above_threshold": true, "fraction_of_peak": 0.015294117647058824, "max_tracer_relative": 2.6e-08, "style": {"color": "#444", "fillColor": "#797979", "fillOpacity": 0.55, "weight": 0.2}, "label": "Max relative tracer: 2.60e-08"}, "type": "Feature"}, {"geometry": {"coordinates": [[[-75.13499999999999, 39.955], [-75.125, 39.955], [-75.125, 39.965], [-75.13499999999999, 39.965], [-75.13499999999999, 39.955]]], "type": "Polygon"}, "properties": {"above_threshold": true, "fraction_of_peak": 0.10588235294117647, "max_tracer_relative": 1.8e-07, "style": {"color": "#444", "fillColor": "#535353", "fillOpacity": 0.55, "weight": 0.2}, "label": "Max relative tracer: 1.80e-07"}, "type": "Feature"}, {"geometry": {"coordinates": [[[-75.125, 39.955], [-75.11500000000001, 39.955], [-75.11500000000001, 39.965], [-75.125, 39.965], [-75.125, 39.955]]], "type": "Polygon"}, "properties": {"above_threshold": true, "fraction_of_peak": 0.30588235294117644, "max_tracer_relative": 5.2e-07, "style": {"color": "#444", "fillColor": "#3f3f3f", "fillOpacity": 0.55, "weight": 0.2}, "label": "Max relative tracer: 5.20e-07"}, "type": "Feature"}, {"geometry": {"coordinates": [[[-75.11500000000001, 39.955], [-75.10499999999999, 39.955], [-75.10499999999999, 39.965], [-75.11500000000001, 39.965], [-75.11500000000001, 39.955]]], "type": "Polygon"}, "properties": {"above_threshold": true, "fraction_of_peak": 0.27647058823529413, "max_tracer_relative": 4.7e-07, "style": {"color": "#444", "fillColor": "#414141", "fillOpacity": 0.55, "weight": 0.2}, "label": "Max relative tracer: 4.70e-07"}, "type": "Feature"}, {"geometry": {"coordinates": [[[-75.10499999999999, 39.955], [-75.095, 39.955], [-75.095, 39.965], [-75.10499999999999, 39.965], [-75.10499999999999, 39.955]]], "type": "Polygon"}, "properties": {"above_threshold": true, "fraction_of_peak": 0.21764705882352942, "max_tracer_relative": 3.7e-07, "style": {"color": "#444", "fillColor": "#454545", "fillOpacity": 0.55, "weight": 0.2}, "label": "Max relative tracer: 3.70e-07"}, "type": "Feature"}, {"geometry": {"coordinates": [[[-75.095, 39.955], [-75.08500000000001, 39.955], [-75.08500000000001, 39.965], [-75.095, 39.965], [-75.095, 39.955]]], "type": "Polygon"}, "properties": {"above_threshold": true, "fraction_of_peak": 0.08823529411764705, "max_tracer_relative": 1.5e-07, "style": {"color": "#444", "fillColor": "#575757", "fillOpacity": 0.55, "weight": 0.2}, "label": "Max relative tracer: 1.50e-07"}, "type": "Feature"}, {"geometry": {"coordinates": [[[-75.08500000000001, 39.955], [-75.07499999999999, 39.955], [-75.07499999999999, 39.965], [-75.08500000000001, 39.965], [-75.08500000000001, 39.955]]], "type": "Polygon"}, "properties": {"above_threshold": true, "fraction_of_peak": 0.029411764705882353, "max_tracer_relative": 5e-08, "style": {"color": "#444", "fillColor": "#6c6c6c", "fillOpacity": 0.55, "weight": 0.2}, "label": "Max relative tracer: 5.00e-08"}, "type": "Feature"}, {"geometry": {"coordinates": [[[-75.14500000000001, 39.965], [-75.13499999999999, 39.965], [-75.13499999999999, 39.974999999999994], [-75.14500000000001, 39.974999999999994], [-75.14500000000001, 39.965]]], "type": "Polygon"}, "properties": {"above_threshold": true, "fraction_of_peak": 0.016470588235294115, "max_tracer_relative": 2.8e-08, "style": {"color": "#444", "fillColor": "#787878", "fillOpacity": 0.55, "weight": 0.2}, "label": "Max relative tracer: 2.80e-08"}, "type": "Feature"}, {"geometry": {"coordinates": [[[-75.13499999999999, 39.965], [-75.125, 39.965], [-75.125, 39.974999999999994], [-75.13499999999999, 39.974999999999994], [-75.13499999999999, 39.965]]], "type": "Polygon"}, "properties": {"above_threshold": true, "fraction_of_peak": 0.07058823529411765, "max_tracer_relative": 1.2e-07, "style": {"color": "#444", "fillColor": "#5b5b5b", "fillOpacity": 0.55, "weight": 0.2}, "label": "Max relative tracer: 1.20e-07"}, "type": "Feature"}, {"geometry": {"coordinates": [[[-75.125, 39.965], [-75.11500000000001, 39.965], [-75.11500000000001, 39.974999999999994], [-75.125, 39.974999999999994], [-75.125, 39.965]]], "type": "Polygon"}, "properties": {"above_threshold": true, "fraction_of_peak": 0.21764705882352942, "max_tracer_relative": 3.7e-07, "style": {"color": "#444", "fillColor": "#454545", "fillOpacity": 0.55, "weight": 0.2}, "label": "Max relative tracer: 3.70e-07"}, "type": "Feature"}, {"geometry": {"coordinates": [[[-75.11500000000001, 39.965], [-75.10499999999999, 39.965], [-75.10499999999999, 39.974999999999994], [-75.11500000000001, 39.974999999999994], [-75.11500000000001, 39.965]]], "type": "Polygon"}, "properties": {"above_threshold": true, "fraction_of_peak": 0.22941176470588237, "max_tracer_relative": 3.9e-07, "style": {"color": "#444", "fillColor": "#444444", "fillOpacity": 0.55, "weight": 0.2}, "label": "Max relative tracer: 3.90e-07"}, "type": "Feature"}, {"geometry": {"coordinates": [[[-75.10499999999999, 39.965], [-75.095, 39.965], [-75.095, 39.974999999999994], [-75.10499999999999, 39.974999999999994], [-75.10499999999999, 39.965]]], "type": "Polygon"}, "properties": {"above_threshold": true, "fraction_of_peak": 0.18235294117647058, "max_tracer_relative": 3.1e-07, "style": {"color": "#444", "fillColor": "#494949", "fillOpacity": 0.55, "weight": 0.2}, "label": "Max relative tracer: 3.10e-07"}, "type": "Feature"}, {"geometry": {"coordinates": [[[-75.095, 39.965], [-75.08500000000001, 39.965], [-75.08500000000001, 39.974999999999994], [-75.095, 39.974999999999994], [-75.095, 39.965]]], "type": "Polygon"}, "properties": {"above_threshold": true, "fraction_of_peak": 0.13529411764705881, "max_tracer_relative": 2.3e-07, "style": {"color": "#444", "fillColor": "#4f4f4f", "fillOpacity": 0.55, "weight": 0.2}, "label": "Max relative tracer: 2.30e-07"}, "type": "Feature"}, {"geometry": {"coordinates": [[[-75.08500000000001, 39.965], [-75.07499999999999, 39.965], [-75.07499999999999, 39.974999999999994], [-75.08500000000001, 39.974999999999994], [-75.08500000000001, 39.965]]], "type": "Polygon"}, "properties": {"above_threshold": true, "fraction_of_peak": 0.07647058823529411, "max_tracer_relative": 1.3e-07, "style": {"color": "#444", "fillColor": "#5a5a5a", "fillOpacity": 0.55, "weight": 0.2}, "label": "Max relative tracer: 1.30e-07"}, "type": "Feature"}, {"geometry": {"coordinates": [[[-75.07499999999999, 39.965], [-75.065, 39.965], [-75.065, 39.974999999999994], [-75.07499999999999, 39.974999999999994], [-75.07499999999999, 39.965]]], "type": "Polygon"}, "properties": {"above_threshold": true, "fraction_of_peak": 0.028823529411764706, "max_tracer_relative": 4.9e-08, "style": {"color": "#444", "fillColor": "#6d6d6d", "fillOpacity": 0.55, "weight": 0.2}, "label": "Max relative tracer: 4.90e-08"}, "type": "Feature"}, {"geometry": {"coordinates": [[[-75.065, 39.965], [-75.055, 39.965], [-75.055, 39.974999999999994], [-75.065, 39.974999999999994], [-75.065, 39.965]]], "type": "Polygon"}, "properties": {"above_threshold": true, "fraction_of_peak": 0.010588235294117647, "max_tracer_relative": 1.8e-08, "style": {"color": "#444", "fillColor": "#808080", "fillOpacity": 0.55, "weight": 0.2}, "label": "Max relative tracer: 1.80e-08"}, "type": "Feature"}, {"geometry": {"coordinates": [[[-75.14500000000001, 39.974999999999994], [-75.13499999999999, 39.974999999999994], [-75.13499999999999, 39.985], [-75.14500000000001, 39.985], [-75.14500000000001, 39.974999999999994]]], "type": "Polygon"}, "properties": {"above_threshold": true, "fraction_of_peak": 0.012941176470588234, "max_tracer_relative": 2.2e-08, "style": {"color": "#444", "fillColor": "#7c7c7c", "fillOpacity": 0.55, "weight": 0.2}, "label": "Max relative tracer: 2.20e-08"}, "type": "Feature"}, {"geometry": {"coordinates": [[[-75.13499999999999, 39.974999999999994], [-75.125, 39.974999999999994], [-75.125, 39.985], [-75.13499999999999, 39.985], [-75.13499999999999, 39.974999999999994]]], "type": "Polygon"}, "properties": {"above_threshold": true, "fraction_of_peak": 0.06470588235294118, "max_tracer_relative": 1.1e-07, "style": {"color": "#444", "fillColor": "#5d5d5d", "fillOpacity": 0.55, "weight": 0.2}, "label": "Max relative tracer: 1.10e-07"}, "type": "Feature"}, {"geometry": {"coordinates": [[[-75.125, 39.974999999999994], [-75.11500000000001, 39.974999999999994], [-75.11500000000001, 39.985], [-75.125, 39.985], [-75.125, 39.974999999999994]]], "type": "Polygon"}, "properties": {"above_threshold": true, "fraction_of_peak": 0.14705882352941174, "max_tracer_relative": 2.5e-07, "style": {"color": "#444", "fillColor": "#4d4d4d", "fillOpacity": 0.55, "weight": 0.2}, "label": "Max relative tracer: 2.50e-07"}, "type": "Feature"}, {"geometry": {"coordinates": [[[-75.11500000000001, 39.974999999999994], [-75.10499999999999, 39.974999999999994], [-75.10499999999999, 39.985], [-75.11500000000001, 39.985], [-75.11500000000001, 39.974999999999994]]], "type": "Polygon"}, "properties": {"above_threshold": true, "fraction_of_peak": 0.1764705882352941, "max_tracer_relative": 3e-07, "style": {"color": "#444", "fillColor": "#494949", "fillOpacity": 0.55, "weight": 0.2}, "label": "Max relative tracer: 3.00e-07"}, "type": "Feature"}, {"geometry": {"coordinates": [[[-75.10499999999999, 39.974999999999994], [-75.095, 39.974999999999994], [-75.095, 39.985], [-75.10499999999999, 39.985], [-75.10499999999999, 39.974999999999994]]], "type": "Polygon"}, "properties": {"above_threshold": true, "fraction_of_peak": 0.17058823529411762, "max_tracer_relative": 2.9e-07, "style": {"color": "#444", "fillColor": "#4a4a4a", "fillOpacity": 0.55, "weight": 0.2}, "label": "Max relative tracer: 2.90e-07"}, "type": "Feature"}, {"geometry": {"coordinates": [[[-75.095, 39.974999999999994], [-75.08500000000001, 39.974999999999994], [-75.08500000000001, 39.985], [-75.095, 39.985], [-75.095, 39.974999999999994]]], "type": "Polygon"}, "properties": {"above_threshold": true, "fraction_of_peak": 0.12352941176470589, "max_tracer_relative": 2.1e-07, "style": {"color": "#444", "fillColor": "#505050", "fillOpacity": 0.55, "weight": 0.2}, "label": "Max relative tracer: 2.10e-07"}, "type": "Feature"}, {"geometry": {"coordinates": [[[-75.08500000000001, 39.974999999999994], [-75.07499999999999, 39.974999999999994], [-75.07499999999999, 39.985], [-75.08500000000001, 39.985], [-75.08500000000001, 39.974999999999994]]], "type": "Polygon"}, "properties": {"above_threshold": true, "fraction_of_peak": 0.10588235294117647, "max_tracer_relative": 1.8e-07, "style": {"color": "#444", "fillColor": "#535353", "fillOpacity": 0.55, "weight": 0.2}, "label": "Max relative tracer: 1.80e-07"}, "type": "Feature"}, {"geometry": {"coordinates": [[[-75.07499999999999, 39.974999999999994], [-75.065, 39.974999999999994], [-75.065, 39.985], [-75.07499999999999, 39.985], [-75.07499999999999, 39.974999999999994]]], "type": "Polygon"}, "properties": {"above_threshold": true, "fraction_of_peak": 0.06470588235294118, "max_tracer_relative": 1.1e-07, "style": {"color": "#444", "fillColor": "#5d5d5d", "fillOpacity": 0.55, "weight": 0.2}, "label": "Max relative tracer: 1.10e-07"}, "type": "Feature"}, {"geometry": {"coordinates": [[[-75.065, 39.974999999999994], [-75.055, 39.974999999999994], [-75.055, 39.985], [-75.065, 39.985], [-75.065, 39.974999999999994]]], "type": "Polygon"}, "properties": {"above_threshold": true, "fraction_of_peak": 0.024705882352941175, "max_tracer_relative": 4.2e-08, "style": {"color": "#444", "fillColor": "#707070", "fillOpacity": 0.55, "weight": 0.2}, "label": "Max relative tracer: 4.20e-08"}, "type": "Feature"}, {"geometry": {"coordinates": [[[-75.055, 39.974999999999994], [-75.04499999999999, 39.974999999999994], [-75.04499999999999, 39.985], [-75.055, 39.985], [-75.055, 39.974999999999994]]], "type": "Polygon"}, "properties": {"above_threshold": true, "fraction_of_peak": 0.011764705882352941, "max_tracer_relative": 2e-08, "style": {"color": "#444", "fillColor": "#7e7e7e", "fillOpacity": 0.55, "weight": 0.2}, "label": "Max relative tracer: 2.00e-08"}, "type": "Feature"}, {"geometry": {"coordinates": [[[-75.13499999999999, 39.985], [-75.125, 39.985], [-75.125, 39.995000000000005], [-75.13499999999999, 39.995000000000005], [-75.13499999999999, 39.985]]], "type": "Polygon"}, "properties": {"above_threshold": true, "fraction_of_peak": 0.05235294117647059, "max_tracer_relative": 8.9e-08, "style": {"color": "#444", "fillColor": "#616161", "fillOpacity": 0.55, "weight": 0.2}, "label": "Max relative tracer: 8.90e-08"}, "type": "Feature"}, {"geometry": {"coordinates": [[[-75.125, 39.985], [-75.11500000000001, 39.985], [-75.11500000000001, 39.995000000000005], [-75.125, 39.995000000000005], [-75.125, 39.985]]], "type": "Polygon"}, "properties": {"above_threshold": true, "fraction_of_peak": 0.12941176470588237, "max_tracer_relative": 2.2e-07, "style": {"color": "#444", "fillColor": "#4f4f4f", "fillOpacity": 0.55, "weight": 0.2}, "label": "Max relative tracer: 2.20e-07"}, "type": "Feature"}, {"geometry": {"coordinates": [[[-75.11500000000001, 39.985], [-75.10499999999999, 39.985], [-75.10499999999999, 39.995000000000005], [-75.11500000000001, 39.995000000000005], [-75.11500000000001, 39.985]]], "type": "Polygon"}, "properties": {"above_threshold": true, "fraction_of_peak": 0.13529411764705881, "max_tracer_relative": 2.3e-07, "style": {"color": "#444", "fillColor": "#4f4f4f", "fillOpacity": 0.55, "weight": 0.2}, "label": "Max relative tracer: 2.30e-07"}, "type": "Feature"}, {"geometry": {"coordinates": [[[-75.10499999999999, 39.985], [-75.095, 39.985], [-75.095, 39.995000000000005], [-75.10499999999999, 39.995000000000005], [-75.10499999999999, 39.985]]], "type": "Polygon"}, "properties": {"above_threshold": true, "fraction_of_peak": 0.17058823529411762, "max_tracer_relative": 2.9e-07, "style": {"color": "#444", "fillColor": "#4a4a4a", "fillOpacity": 0.55, "weight": 0.2}, "label": "Max relative tracer: 2.90e-07"}, "type": "Feature"}, {"geometry": {"coordinates": [[[-75.095, 39.985], [-75.08500000000001, 39.985], [-75.08500000000001, 39.995000000000005], [-75.095, 39.995000000000005], [-75.095, 39.985]]], "type": "Polygon"}, "properties": {"above_threshold": true, "fraction_of_peak": 0.14705882352941174, "max_tracer_relative": 2.5e-07, "style": {"color": "#444", "fillColor": "#4d4d4d", "fillOpacity": 0.55, "weight": 0.2}, "label": "Max relative tracer: 2.50e-07"}, "type": "Feature"}, {"geometry": {"coordinates": [[[-75.08500000000001, 39.985], [-75.07499999999999, 39.985], [-75.07499999999999, 39.995000000000005], [-75.08500000000001, 39.995000000000005], [-75.08500000000001, 39.985]]], "type": "Polygon"}, "properties": {"above_threshold": true, "fraction_of_peak": 0.08823529411764705, "max_tracer_relative": 1.5e-07, "style": {"color": "#444", "fillColor": "#575757", "fillOpacity": 0.55, "weight": 0.2}, "label": "Max relative tracer: 1.50e-07"}, "type": "Feature"}, {"geometry": {"coordinates": [[[-75.07499999999999, 39.985], [-75.065, 39.985], [-75.065, 39.995000000000005], [-75.07499999999999, 39.995000000000005], [-75.07499999999999, 39.985]]], "type": "Polygon"}, "properties": {"above_threshold": true, "fraction_of_peak": 0.07647058823529411, "max_tracer_relative": 1.3e-07, "style": {"color": "#444", "fillColor": "#5a5a5a", "fillOpacity": 0.55, "weight": 0.2}, "label": "Max relative tracer: 1.30e-07"}, "type": "Feature"}, {"geometry": {"coordinates": [[[-75.065, 39.985], [-75.055, 39.985], [-75.055, 39.995000000000005], [-75.065, 39.995000000000005], [-75.065, 39.985]]], "type": "Polygon"}, "properties": {"above_threshold": true, "fraction_of_peak": 0.05058823529411765, "max_tracer_relative": 8.6e-08, "style": {"color": "#444", "fillColor": "#626262", "fillOpacity": 0.55, "weight": 0.2}, "label": "Max relative tracer: 8.60e-08"}, "type": "Feature"}, {"geometry": {"coordinates": [[[-75.055, 39.985], [-75.04499999999999, 39.985], [-75.04499999999999, 39.995000000000005], [-75.055, 39.995000000000005], [-75.055, 39.985]]], "type": "Polygon"}, "properties": {"above_threshold": true, "fraction_of_peak": 0.026470588235294117, "max_tracer_relative": 4.5e-08, "style": {"color": "#444", "fillColor": "#6e6e6e", "fillOpacity": 0.55, "weight": 0.2}, "label": "Max relative tracer: 4.50e-08"}, "type": "Feature"}, {"geometry": {"coordinates": [[[-75.04500000000002, 39.985], [-75.035, 39.985], [-75.035, 39.995000000000005], [-75.04500000000002, 39.995000000000005], [-75.04500000000002, 39.985]]], "type": "Polygon"}, "properties": {"above_threshold": true, "fraction_of_peak": 0.014705882352941176, "max_tracer_relative": 2.5e-08, "style": {"color": "#444", "fillColor": "#7a7a7a", "fillOpacity": 0.55, "weight": 0.2}, "label": "Max relative tracer: 2.50e-08"}, "type": "Feature"}, {"geometry": {"coordinates": [[[-75.13499999999999, 39.995000000000005], [-75.125, 39.995000000000005], [-75.125, 40.004999999999995], [-75.13499999999999, 40.004999999999995], [-75.13499999999999, 39.995000000000005]]], "type": "Polygon"}, "properties": {"above_threshold": true, "fraction_of_peak": 0.04294117647058824, "max_tracer_relative": 7.3e-08, "style": {"color": "#444", "fillColor": "#656565", "fillOpacity": 0.55, "weight": 0.2}, "label": "Max relative tracer: 7.30e-08"}, "type": "Feature"}, {"geometry": {"coordinates": [[[-75.125, 39.995000000000005], [-75.11500000000001, 39.995000000000005], [-75.11500000000001, 40.004999999999995], [-75.125, 40.004999999999995], [-75.125, 39.995000000000005]]], "type": "Polygon"}, "properties": {"above_threshold": true, "fraction_of_peak": 0.11764705882352941, "max_tracer_relative": 2e-07, "style": {"color": "#444", "fillColor": "#515151", "fillOpacity": 0.55, "weight": 0.2}, "label": "Max relative tracer: 2.00e-07"}, "type": "Feature"}, {"geometry": {"coordinates": [[[-75.11500000000001, 39.995000000000005], [-75.10499999999999, 39.995000000000005], [-75.10499999999999, 40.004999999999995], [-75.11500000000001, 40.004999999999995], [-75.11500000000001, 39.995000000000005]]], "type": "Polygon"}, "properties": {"above_threshold": true, "fraction_of_peak": 0.13529411764705881, "max_tracer_relative": 2.3e-07, "style": {"color": "#444", "fillColor": "#4f4f4f", "fillOpacity": 0.55, "weight": 0.2}, "label": "Max relative tracer: 2.30e-07"}, "type": "Feature"}, {"geometry": {"coordinates": [[[-75.10499999999999, 39.995000000000005], [-75.095, 39.995000000000005], [-75.095, 40.004999999999995], [-75.10499999999999, 40.004999999999995], [-75.10499999999999, 39.995000000000005]]], "type": "Polygon"}, "properties": {"above_threshold": true, "fraction_of_peak": 0.12352941176470589, "max_tracer_relative": 2.1e-07, "style": {"color": "#444", "fillColor": "#505050", "fillOpacity": 0.55, "weight": 0.2}, "label": "Max relative tracer: 2.10e-07"}, "type": "Feature"}, {"geometry": {"coordinates": [[[-75.095, 39.995000000000005], [-75.08500000000001, 39.995000000000005], [-75.08500000000001, 40.004999999999995], [-75.095, 40.004999999999995], [-75.095, 39.995000000000005]]], "type": "Polygon"}, "properties": {"above_threshold": true, "fraction_of_peak": 0.12941176470588237, "max_tracer_relative": 2.2e-07, "style": {"color": "#444", "fillColor": "#4f4f4f", "fillOpacity": 0.55, "weight": 0.2}, "label": "Max relative tracer: 2.20e-07"}, "type": "Feature"}, {"geometry": {"coordinates": [[[-75.08500000000001, 39.995000000000005], [-75.07499999999999, 39.995000000000005], [-75.07499999999999, 40.004999999999995], [-75.08500000000001, 40.004999999999995], [-75.08500000000001, 39.995000000000005]]], "type": "Polygon"}, "properties": {"above_threshold": true, "fraction_of_peak": 0.09999999999999999, "max_tracer_relative": 1.7e-07, "style": {"color": "#444", "fillColor": "#555555", "fillOpacity": 0.55, "weight": 0.2}, "label": "Max relative tracer: 1.70e-07"}, "type": "Feature"}, {"geometry": {"coordinates": [[[-75.07499999999999, 39.995000000000005], [-75.065, 39.995000000000005], [-75.065, 40.004999999999995], [-75.07499999999999, 40.004999999999995], [-75.07499999999999, 39.995000000000005]]], "type": "Polygon"}, "properties": {"above_threshold": true, "fraction_of_peak": 0.07058823529411765, "max_tracer_relative": 1.2e-07, "style": {"color": "#444", "fillColor": "#5b5b5b", "fillOpacity": 0.55, "weight": 0.2}, "label": "Max relative tracer: 1.20e-07"}, "type": "Feature"}, {"geometry": {"coordinates": [[[-75.065, 39.995000000000005], [-75.055, 39.995000000000005], [-75.055, 40.004999999999995], [-75.065, 40.004999999999995], [-75.065, 39.995000000000005]]], "type": "Polygon"}, "properties": {"above_threshold": true, "fraction_of_peak": 0.07058823529411765, "max_tracer_relative": 1.2e-07, "style": {"color": "#444", "fillColor": "#5b5b5b", "fillOpacity": 0.55, "weight": 0.2}, "label": "Max relative tracer: 1.20e-07"}, "type": "Feature"}, {"geometry": {"coordinates": [[[-75.055, 39.995000000000005], [-75.04499999999999, 39.995000000000005], [-75.04499999999999, 40.004999999999995], [-75.055, 40.004999999999995], [-75.055, 39.995000000000005]]], "type": "Polygon"}, "properties": {"above_threshold": true, "fraction_of_peak": 0.0388235294117647, "max_tracer_relative": 6.6e-08, "style": {"color": "#444", "fillColor": "#676767", "fillOpacity": 0.55, "weight": 0.2}, "label": "Max relative tracer: 6.60e-08"}, "type": "Feature"}, {"geometry": {"coordinates": [[[-75.04500000000002, 39.995000000000005], [-75.035, 39.995000000000005], [-75.035, 40.004999999999995], [-75.04500000000002, 40.004999999999995], [-75.04500000000002, 39.995000000000005]]], "type": "Polygon"}, "properties": {"above_threshold": true, "fraction_of_peak": 0.025294117647058825, "max_tracer_relative": 4.3e-08, "style": {"color": "#444", "fillColor": "#6f6f6f", "fillOpacity": 0.55, "weight": 0.2}, "label": "Max relative tracer: 4.30e-08"}, "type": "Feature"}, {"geometry": {"coordinates": [[[-75.035, 39.995000000000005], [-75.025, 39.995000000000005], [-75.025, 40.004999999999995], [-75.035, 40.004999999999995], [-75.035, 39.995000000000005]]], "type": "Polygon"}, "properties": {"above_threshold": true, "fraction_of_peak": 0.013529411764705882, "max_tracer_relative": 2.3e-08, "style": {"color": "#444", "fillColor": "#7c7c7c", "fillOpacity": 0.55, "weight": 0.2}, "label": "Max relative tracer: 2.30e-08"}, "type": "Feature"}, {"geometry": {"coordinates": [[[-75.13499999999999, 40.004999999999995], [-75.125, 40.004999999999995], [-75.125, 40.015], [-75.13499999999999, 40.015], [-75.13499999999999, 40.004999999999995]]], "type": "Polygon"}, "properties": {"above_threshold": true, "fraction_of_peak": 0.021176470588235293, "max_tracer_relative": 3.6e-08, "style": {"color": "#444", "fillColor": "#737373", "fillOpacity": 0.55, "weight": 0.2}, "label": "Max relative tracer: 3.60e-08"}, "type": "Feature"}, {"geometry": {"coordinates": [[[-75.125, 40.004999999999995], [-75.11500000000001, 40.004999999999995], [-75.11500000000001, 40.015], [-75.125, 40.015], [-75.125, 40.004999999999995]]], "type": "Polygon"}, "properties": {"above_threshold": true, "fraction_of_peak": 0.08235294117647059, "max_tracer_relative": 1.4e-07, "style": {"color": "#444", "fillColor": "#585858", "fillOpacity": 0.55, "weight": 0.2}, "label": "Max relative tracer: 1.40e-07"}, "type": "Feature"}, {"geometry": {"coordinates": [[[-75.11500000000001, 40.004999999999995], [-75.10499999999999, 40.004999999999995], [-75.10499999999999, 40.015], [-75.11500000000001, 40.015], [-75.11500000000001, 40.004999999999995]]], "type": "Polygon"}, "properties": {"above_threshold": true, "fraction_of_peak": 0.11176470588235295, "max_tracer_relative": 1.9e-07, "style": {"color": "#444", "fillColor": "#525252", "fillOpacity": 0.55, "weight": 0.2}, "label": "Max relative tracer: 1.90e-07"}, "type": "Feature"}, {"geometry": {"coordinates": [[[-75.10499999999999, 40.004999999999995], [-75.095, 40.004999999999995], [-75.095, 40.015], [-75.10499999999999, 40.015], [-75.10499999999999, 40.004999999999995]]], "type": "Polygon"}, "properties": {"above_threshold": true, "fraction_of_peak": 0.12941176470588237, "max_tracer_relative": 2.2e-07, "style": {"color": "#444", "fillColor": "#4f4f4f", "fillOpacity": 0.55, "weight": 0.2}, "label": "Max relative tracer: 2.20e-07"}, "type": "Feature"}, {"geometry": {"coordinates": [[[-75.095, 40.004999999999995], [-75.08500000000001, 40.004999999999995], [-75.08500000000001, 40.015], [-75.095, 40.015], [-75.095, 40.004999999999995]]], "type": "Polygon"}, "properties": {"above_threshold": true, "fraction_of_peak": 0.11764705882352941, "max_tracer_relative": 2e-07, "style": {"color": "#444", "fillColor": "#515151", "fillOpacity": 0.55, "weight": 0.2}, "label": "Max relative tracer: 2.00e-07"}, "type": "Feature"}, {"geometry": {"coordinates": [[[-75.08500000000001, 40.004999999999995], [-75.07499999999999, 40.004999999999995], [-75.07499999999999, 40.015], [-75.08500000000001, 40.015], [-75.08500000000001, 40.004999999999995]]], "type": "Polygon"}, "properties": {"above_threshold": true, "fraction_of_peak": 0.09999999999999999, "max_tracer_relative": 1.7e-07, "style": {"color": "#444", "fillColor": "#555555", "fillOpacity": 0.55, "weight": 0.2}, "label": "Max relative tracer: 1.70e-07"}, "type": "Feature"}, {"geometry": {"coordinates": [[[-75.07499999999999, 40.004999999999995], [-75.065, 40.004999999999995], [-75.065, 40.015], [-75.07499999999999, 40.015], [-75.07499999999999, 40.004999999999995]]], "type": "Polygon"}, "properties": {"above_threshold": true, "fraction_of_peak": 0.06470588235294118, "max_tracer_relative": 1.1e-07, "style": {"color": "#444", "fillColor": "#5d5d5d", "fillOpacity": 0.55, "weight": 0.2}, "label": "Max relative tracer: 1.10e-07"}, "type": "Feature"}, {"geometry": {"coordinates": [[[-75.065, 40.004999999999995], [-75.055, 40.004999999999995], [-75.055, 40.015], [-75.065, 40.015], [-75.065, 40.004999999999995]]], "type": "Polygon"}, "properties": {"above_threshold": true, "fraction_of_peak": 0.05411764705882353, "max_tracer_relative": 9.2e-08, "style": {"color": "#444", "fillColor": "#606060", "fillOpacity": 0.55, "weight": 0.2}, "label": "Max relative tracer: 9.20e-08"}, "type": "Feature"}, {"geometry": {"coordinates": [[[-75.055, 40.004999999999995], [-75.04499999999999, 40.004999999999995], [-75.04499999999999, 40.015], [-75.055, 40.015], [-75.055, 40.004999999999995]]], "type": "Polygon"}, "properties": {"above_threshold": true, "fraction_of_peak": 0.04941176470588235, "max_tracer_relative": 8.4e-08, "style": {"color": "#444", "fillColor": "#626262", "fillOpacity": 0.55, "weight": 0.2}, "label": "Max relative tracer: 8.40e-08"}, "type": "Feature"}, {"geometry": {"coordinates": [[[-75.04500000000002, 40.004999999999995], [-75.035, 40.004999999999995], [-75.035, 40.015], [-75.04500000000002, 40.015], [-75.04500000000002, 40.004999999999995]]], "type": "Polygon"}, "properties": {"above_threshold": true, "fraction_of_peak": 0.03705882352941176, "max_tracer_relative": 6.3e-08, "style": {"color": "#444", "fillColor": "#686868", "fillOpacity": 0.55, "weight": 0.2}, "label": "Max relative tracer: 6.30e-08"}, "type": "Feature"}, {"geometry": {"coordinates": [[[-75.035, 40.004999999999995], [-75.025, 40.004999999999995], [-75.025, 40.015], [-75.035, 40.015], [-75.035, 40.004999999999995]]], "type": "Polygon"}, "properties": {"above_threshold": true, "fraction_of_peak": 0.025294117647058825, "max_tracer_relative": 4.3e-08, "style": {"color": "#444", "fillColor": "#6f6f6f", "fillOpacity": 0.55, "weight": 0.2}, "label": "Max relative tracer: 4.30e-08"}, "type": "Feature"}, {"geometry": {"coordinates": [[[-75.025, 40.004999999999995], [-75.01499999999999, 40.004999999999995], [-75.01499999999999, 40.015], [-75.025, 40.015], [-75.025, 40.004999999999995]]], "type": "Polygon"}, "properties": {"above_threshold": true, "fraction_of_peak": 0.015294117647058824, "max_tracer_relative": 2.6e-08, "style": {"color": "#444", "fillColor": "#797979", "fillOpacity": 0.55, "weight": 0.2}, "label": "Max relative tracer: 2.60e-08"}, "type": "Feature"}, {"geometry": {"coordinates": [[[-74.98500000000001, 40.004999999999995], [-74.975, 40.004999999999995], [-74.975, 40.015], [-74.98500000000001, 40.015], [-74.98500000000001, 40.004999999999995]]], "type": "Polygon"}, "properties": {"above_threshold": true, "fraction_of_peak": 0.010588235294117647, "max_tracer_relative": 1.8e-08, "style": {"color": "#444", "fillColor": "#808080", "fillOpacity": 0.55, "weight": 0.2}, "label": "Max relative tracer: 1.80e-08"}, "type": "Feature"}, {"geometry": {"coordinates": [[[-75.13499999999999, 40.015], [-75.125, 40.015], [-75.125, 40.025000000000006], [-75.13499999999999, 40.025000000000006], [-75.13499999999999, 40.015]]], "type": "Polygon"}, "properties": {"above_threshold": true, "fraction_of_peak": 0.012941176470588234, "max_tracer_relative": 2.2e-08, "style": {"color": "#444", "fillColor": "#7c7c7c", "fillOpacity": 0.55, "weight": 0.2}, "label": "Max relative tracer: 2.20e-08"}, "type": "Feature"}, {"geometry": {"coordinates": [[[-75.125, 40.015], [-75.11500000000001, 40.015], [-75.11500000000001, 40.025000000000006], [-75.125, 40.025000000000006], [-75.125, 40.015]]], "type": "Polygon"}, "properties": {"above_threshold": true, "fraction_of_peak": 0.0488235294117647, "max_tracer_relative": 8.3e-08, "style": {"color": "#444", "fillColor": "#636363", "fillOpacity": 0.55, "weight": 0.2}, "label": "Max relative tracer: 8.30e-08"}, "type": "Feature"}, {"geometry": {"coordinates": [[[-75.11500000000001, 40.015], [-75.10499999999999, 40.015], [-75.10499999999999, 40.025000000000006], [-75.11500000000001, 40.025000000000006], [-75.11500000000001, 40.015]]], "type": "Polygon"}, "properties": {"above_threshold": true, "fraction_of_peak": 0.08235294117647059, "max_tracer_relative": 1.4e-07, "style": {"color": "#444", "fillColor": "#585858", "fillOpacity": 0.55, "weight": 0.2}, "label": "Max relative tracer: 1.40e-07"}, "type": "Feature"}, {"geometry": {"coordinates": [[[-75.10499999999999, 40.015], [-75.095, 40.015], [-75.095, 40.025000000000006], [-75.10499999999999, 40.025000000000006], [-75.10499999999999, 40.015]]], "type": "Polygon"}, "properties": {"above_threshold": true, "fraction_of_peak": 0.11176470588235295, "max_tracer_relative": 1.9e-07, "style": {"color": "#444", "fillColor": "#525252", "fillOpacity": 0.55, "weight": 0.2}, "label": "Max relative tracer: 1.90e-07"}, "type": "Feature"}, {"geometry": {"coordinates": [[[-75.095, 40.015], [-75.08500000000001, 40.015], [-75.08500000000001, 40.025000000000006], [-75.095, 40.025000000000006], [-75.095, 40.015]]], "type": "Polygon"}, "properties": {"above_threshold": true, "fraction_of_peak": 0.10588235294117647, "max_tracer_relative": 1.8e-07, "style": {"color": "#444", "fillColor": "#535353", "fillOpacity": 0.55, "weight": 0.2}, "label": "Max relative tracer: 1.80e-07"}, "type": "Feature"}, {"geometry": {"coordinates": [[[-75.08500000000001, 40.015], [-75.07499999999999, 40.015], [-75.07499999999999, 40.025000000000006], [-75.08500000000001, 40.025000000000006], [-75.08500000000001, 40.015]]], "type": "Polygon"}, "properties": {"above_threshold": true, "fraction_of_peak": 0.09999999999999999, "max_tracer_relative": 1.7e-07, "style": {"color": "#444", "fillColor": "#555555", "fillOpacity": 0.55, "weight": 0.2}, "label": "Max relative tracer: 1.70e-07"}, "type": "Feature"}, {"geometry": {"coordinates": [[[-75.07499999999999, 40.015], [-75.065, 40.015], [-75.065, 40.025000000000006], [-75.07499999999999, 40.025000000000006], [-75.07499999999999, 40.015]]], "type": "Polygon"}, "properties": {"above_threshold": true, "fraction_of_peak": 0.06470588235294118, "max_tracer_relative": 1.1e-07, "style": {"color": "#444", "fillColor": "#5d5d5d", "fillOpacity": 0.55, "weight": 0.2}, "label": "Max relative tracer: 1.10e-07"}, "type": "Feature"}, {"geometry": {"coordinates": [[[-75.065, 40.015], [-75.055, 40.015], [-75.055, 40.025000000000006], [-75.065, 40.025000000000006], [-75.065, 40.015]]], "type": "Polygon"}, "properties": {"above_threshold": true, "fraction_of_peak": 0.04764705882352941, "max_tracer_relative": 8.1e-08, "style": {"color": "#444", "fillColor": "#636363", "fillOpacity": 0.55, "weight": 0.2}, "label": "Max relative tracer: 8.10e-08"}, "type": "Feature"}, {"geometry": {"coordinates": [[[-75.055, 40.015], [-75.04499999999999, 40.015], [-75.04499999999999, 40.025000000000006], [-75.055, 40.025000000000006], [-75.055, 40.015]]], "type": "Polygon"}, "properties": {"above_threshold": true, "fraction_of_peak": 0.04, "max_tracer_relative": 6.8e-08, "style": {"color": "#444", "fillColor": "#666666", "fillOpacity": 0.55, "weight": 0.2}, "label": "Max relative tracer: 6.80e-08"}, "type": "Feature"}, {"geometry": {"coordinates": [[[-75.04500000000002, 40.015], [-75.035, 40.015], [-75.035, 40.025000000000006], [-75.04500000000002, 40.025000000000006], [-75.04500000000002, 40.015]]], "type": "Polygon"}, "properties": {"above_threshold": true, "fraction_of_peak": 0.05411764705882353, "max_tracer_relative": 9.2e-08, "style": {"color": "#444", "fillColor": "#606060", "fillOpacity": 0.55, "weight": 0.2}, "label": "Max relative tracer: 9.20e-08"}, "type": "Feature"}, {"geometry": {"coordinates": [[[-75.035, 40.015], [-75.025, 40.015], [-75.025, 40.025000000000006], [-75.035, 40.025000000000006], [-75.035, 40.015]]], "type": "Polygon"}, "properties": {"above_threshold": true, "fraction_of_peak": 0.038235294117647055, "max_tracer_relative": 6.5e-08, "style": {"color": "#444", "fillColor": "#676767", "fillOpacity": 0.55, "weight": 0.2}, "label": "Max relative tracer: 6.50e-08"}, "type": "Feature"}, {"geometry": {"coordinates": [[[-75.025, 40.015], [-75.01499999999999, 40.015], [-75.01499999999999, 40.025000000000006], [-75.025, 40.025000000000006], [-75.025, 40.015]]], "type": "Polygon"}, "properties": {"above_threshold": true, "fraction_of_peak": 0.024705882352941175, "max_tracer_relative": 4.2e-08, "style": {"color": "#444", "fillColor": "#707070", "fillOpacity": 0.55, "weight": 0.2}, "label": "Max relative tracer: 4.20e-08"}, "type": "Feature"}, {"geometry": {"coordinates": [[[-75.01500000000001, 40.015], [-75.005, 40.015], [-75.005, 40.025000000000006], [-75.01500000000001, 40.025000000000006], [-75.01500000000001, 40.015]]], "type": "Polygon"}, "properties": {"above_threshold": true, "fraction_of_peak": 0.01411764705882353, "max_tracer_relative": 2.4e-08, "style": {"color": "#444", "fillColor": "#7b7b7b", "fillOpacity": 0.55, "weight": 0.2}, "label": "Max relative tracer: 2.40e-08"}, "type": "Feature"}, {"geometry": {"coordinates": [[[-75.005, 40.015], [-74.995, 40.015], [-74.995, 40.025000000000006], [-75.005, 40.025000000000006], [-75.005, 40.015]]], "type": "Polygon"}, "properties": {"above_threshold": true, "fraction_of_peak": 0.013529411764705882, "max_tracer_relative": 2.3e-08, "style": {"color": "#444", "fillColor": "#7c7c7c", "fillOpacity": 0.55, "weight": 0.2}, "label": "Max relative tracer: 2.30e-08"}, "type": "Feature"}, {"geometry": {"coordinates": [[[-75.125, 40.025000000000006], [-75.11500000000001, 40.025000000000006], [-75.11500000000001, 40.035], [-75.125, 40.035], [-75.125, 40.025000000000006]]], "type": "Polygon"}, "properties": {"above_threshold": true, "fraction_of_peak": 0.022941176470588236, "max_tracer_relative": 3.9e-08, "style": {"color": "#444", "fillColor": "#717171", "fillOpacity": 0.55, "weight": 0.2}, "label": "Max relative tracer: 3.90e-08"}, "type": "Feature"}, {"geometry": {"coordinates": [[[-75.11500000000001, 40.025000000000006], [-75.10499999999999, 40.025000000000006], [-75.10499999999999, 40.035], [-75.11500000000001, 40.035], [-75.11500000000001, 40.025000000000006]]], "type": "Polygon"}, "properties": {"above_threshold": true, "fraction_of_peak": 0.07058823529411765, "max_tracer_relative": 1.2e-07, "style": {"color": "#444", "fillColor": "#5b5b5b", "fillOpacity": 0.55, "weight": 0.2}, "label": "Max relative tracer: 1.20e-07"}, "type": "Feature"}, {"geometry": {"coordinates": [[[-75.10499999999999, 40.025000000000006], [-75.095, 40.025000000000006], [-75.095, 40.035], [-75.10499999999999, 40.035], [-75.10499999999999, 40.025000000000006]]], "type": "Polygon"}, "properties": {"above_threshold": true, "fraction_of_peak": 0.09411764705882353, "max_tracer_relative": 1.6e-07, "style": {"color": "#444", "fillColor": "#565656", "fillOpacity": 0.55, "weight": 0.2}, "label": "Max relative tracer: 1.60e-07"}, "type": "Feature"}, {"geometry": {"coordinates": [[[-75.095, 40.025000000000006], [-75.08500000000001, 40.025000000000006], [-75.08500000000001, 40.035], [-75.095, 40.035], [-75.095, 40.025000000000006]]], "type": "Polygon"}, "properties": {"above_threshold": true, "fraction_of_peak": 0.09999999999999999, "max_tracer_relative": 1.7e-07, "style": {"color": "#444", "fillColor": "#555555", "fillOpacity": 0.55, "weight": 0.2}, "label": "Max relative tracer: 1.70e-07"}, "type": "Feature"}, {"geometry": {"coordinates": [[[-75.08500000000001, 40.025000000000006], [-75.07499999999999, 40.025000000000006], [-75.07499999999999, 40.035], [-75.08500000000001, 40.035], [-75.08500000000001, 40.025000000000006]]], "type": "Polygon"}, "properties": {"above_threshold": true, "fraction_of_peak": 0.07058823529411765, "max_tracer_relative": 1.2e-07, "style": {"color": "#444", "fillColor": "#5b5b5b", "fillOpacity": 0.55, "weight": 0.2}, "label": "Max relative tracer: 1.20e-07"}, "type": "Feature"}, {"geometry": {"coordinates": [[[-75.07499999999999, 40.025000000000006], [-75.065, 40.025000000000006], [-75.065, 40.035], [-75.07499999999999, 40.035], [-75.07499999999999, 40.025000000000006]]], "type": "Polygon"}, "properties": {"above_threshold": true, "fraction_of_peak": 0.06470588235294118, "max_tracer_relative": 1.1e-07, "style": {"color": "#444", "fillColor": "#5d5d5d", "fillOpacity": 0.55, "weight": 0.2}, "label": "Max relative tracer: 1.10e-07"}, "type": "Feature"}, {"geometry": {"coordinates": [[[-75.065, 40.025000000000006], [-75.055, 40.025000000000006], [-75.055, 40.035], [-75.065, 40.035], [-75.065, 40.025000000000006]]], "type": "Polygon"}, "properties": {"above_threshold": true, "fraction_of_peak": 0.051176470588235295, "max_tracer_relative": 8.7e-08, "style": {"color": "#444", "fillColor": "#626262", "fillOpacity": 0.55, "weight": 0.2}, "label": "Max relative tracer: 8.70e-08"}, "type": "Feature"}, {"geometry": {"coordinates": [[[-75.055, 40.025000000000006], [-75.04499999999999, 40.025000000000006], [-75.04499999999999, 40.035], [-75.055, 40.035], [-75.055, 40.025000000000006]]], "type": "Polygon"}, "properties": {"above_threshold": true, "fraction_of_peak": 0.03588235294117647, "max_tracer_relative": 6.1e-08, "style": {"color": "#444", "fillColor": "#696969", "fillOpacity": 0.55, "weight": 0.2}, "label": "Max relative tracer: 6.10e-08"}, "type": "Feature"}, {"geometry": {"coordinates": [[[-75.04500000000002, 40.025000000000006], [-75.035, 40.025000000000006], [-75.035, 40.035], [-75.04500000000002, 40.035], [-75.04500000000002, 40.025000000000006]]], "type": "Polygon"}, "properties": {"above_threshold": true, "fraction_of_peak": 0.041176470588235294, "max_tracer_relative": 7e-08, "style": {"color": "#444", "fillColor": "#666666", "fillOpacity": 0.55, "weight": 0.2}, "label": "Max relative tracer: 7.00e-08"}, "type": "Feature"}, {"geometry": {"coordinates": [[[-75.035, 40.025000000000006], [-75.025, 40.025000000000006], [-75.025, 40.035], [-75.035, 40.035], [-75.035, 40.025000000000006]]], "type": "Polygon"}, "properties": {"above_threshold": true, "fraction_of_peak": 0.04058823529411765, "max_tracer_relative": 6.9e-08, "style": {"color": "#444", "fillColor": "#666666", "fillOpacity": 0.55, "weight": 0.2}, "label": "Max relative tracer: 6.90e-08"}, "type": "Feature"}, {"geometry": {"coordinates": [[[-75.025, 40.025000000000006], [-75.01499999999999, 40.025000000000006], [-75.01499999999999, 40.035], [-75.025, 40.035], [-75.025, 40.025000000000006]]], "type": "Polygon"}, "properties": {"above_threshold": true, "fraction_of_peak": 0.03529411764705882, "max_tracer_relative": 6e-08, "style": {"color": "#444", "fillColor": "#696969", "fillOpacity": 0.55, "weight": 0.2}, "label": "Max relative tracer: 6.00e-08"}, "type": "Feature"}, {"geometry": {"coordinates": [[[-75.01500000000001, 40.025000000000006], [-75.005, 40.025000000000006], [-75.005, 40.035], [-75.01500000000001, 40.035], [-75.01500000000001, 40.025000000000006]]], "type": "Polygon"}, "properties": {"above_threshold": true, "fraction_of_peak": 0.025882352941176467, "max_tracer_relative": 4.4e-08, "style": {"color": "#444", "fillColor": "#6f6f6f", "fillOpacity": 0.55, "weight": 0.2}, "label": "Max relative tracer: 4.40e-08"}, "type": "Feature"}, {"geometry": {"coordinates": [[[-75.005, 40.025000000000006], [-74.995, 40.025000000000006], [-74.995, 40.035], [-75.005, 40.035], [-75.005, 40.025000000000006]]], "type": "Polygon"}, "properties": {"above_threshold": true, "fraction_of_peak": 0.014705882352941176, "max_tracer_relative": 2.5e-08, "style": {"color": "#444", "fillColor": "#7a7a7a", "fillOpacity": 0.55, "weight": 0.2}, "label": "Max relative tracer: 2.50e-08"}, "type": "Feature"}, {"geometry": {"coordinates": [[[-74.995, 40.025000000000006], [-74.98499999999999, 40.025000000000006], [-74.98499999999999, 40.035], [-74.995, 40.035], [-74.995, 40.025000000000006]]], "type": "Polygon"}, "properties": {"above_threshold": true, "fraction_of_peak": 0.012941176470588234, "max_tracer_relative": 2.2e-08, "style": {"color": "#444", "fillColor": "#7c7c7c", "fillOpacity": 0.55, "weight": 0.2}, "label": "Max relative tracer: 2.20e-08"}, "type": "Feature"}, {"geometry": {"coordinates": [[[-75.125, 40.035], [-75.11500000000001, 40.035], [-75.11500000000001, 40.045], [-75.125, 40.045], [-75.125, 40.035]]], "type": "Polygon"}, "properties": {"above_threshold": true, "fraction_of_peak": 0.017058823529411765, "max_tracer_relative": 2.9e-08, "style": {"color": "#444", "fillColor": "#777777", "fillOpacity": 0.55, "weight": 0.2}, "label": "Max relative tracer: 2.90e-08"}, "type": "Feature"}, {"geometry": {"coordinates": [[[-75.11500000000001, 40.035], [-75.10499999999999, 40.035], [-75.10499999999999, 40.045], [-75.11500000000001, 40.045], [-75.11500000000001, 40.035]]], "type": "Polygon"}, "properties": {"above_threshold": true, "fraction_of_peak": 0.05529411764705882, "max_tracer_relative": 9.4e-08, "style": {"color": "#444", "fillColor": "#606060", "fillOpacity": 0.55, "weight": 0.2}, "label": "Max relative tracer: 9.40e-08"}, "type": "Feature"}, {"geometry": {"coordinates": [[[-75.10499999999999, 40.035], [-75.095, 40.035], [-75.095, 40.045], [-75.10499999999999, 40.045], [-75.10499999999999, 40.035]]], "type": "Polygon"}, "properties": {"above_threshold": true, "fraction_of_peak": 0.06470588235294118, "max_tracer_relative": 1.1e-07, "style": {"color": "#444", "fillColor": "#5d5d5d", "fillOpacity": 0.55, "weight": 0.2}, "label": "Max relative tracer: 1.10e-07"}, "type": "Feature"}, {"geometry": {"coordinates": [[[-75.095, 40.035], [-75.08500000000001, 40.035], [-75.08500000000001, 40.045], [-75.095, 40.045], [-75.095, 40.035]]], "type": "Polygon"}, "properties": {"above_threshold": true, "fraction_of_peak": 0.07647058823529411, "max_tracer_relative": 1.3e-07, "style": {"color": "#444", "fillColor": "#5a5a5a", "fillOpacity": 0.55, "weight": 0.2}, "label": "Max relative tracer: 1.30e-07"}, "type": "Feature"}, {"geometry": {"coordinates": [[[-75.08500000000001, 40.035], [-75.07499999999999, 40.035], [-75.07499999999999, 40.045], [-75.08500000000001, 40.045], [-75.08500000000001, 40.035]]], "type": "Polygon"}, "properties": {"above_threshold": true, "fraction_of_peak": 0.07058823529411765, "max_tracer_relative": 1.2e-07, "style": {"color": "#444", "fillColor": "#5b5b5b", "fillOpacity": 0.55, "weight": 0.2}, "label": "Max relative tracer: 1.20e-07"}, "type": "Feature"}, {"geometry": {"coordinates": [[[-75.07499999999999, 40.035], [-75.065, 40.035], [-75.065, 40.045], [-75.07499999999999, 40.045], [-75.07499999999999, 40.035]]], "type": "Polygon"}, "properties": {"above_threshold": true, "fraction_of_peak": 0.058823529411764705, "max_tracer_relative": 1e-07, "style": {"color": "#444", "fillColor": "#5f5f5f", "fillOpacity": 0.55, "weight": 0.2}, "label": "Max relative tracer: 1.00e-07"}, "type": "Feature"}, {"geometry": {"coordinates": [[[-75.065, 40.035], [-75.055, 40.035], [-75.055, 40.045], [-75.065, 40.045], [-75.065, 40.035]]], "type": "Polygon"}, "properties": {"above_threshold": true, "fraction_of_peak": 0.05529411764705882, "max_tracer_relative": 9.4e-08, "style": {"color": "#444", "fillColor": "#606060", "fillOpacity": 0.55, "weight": 0.2}, "label": "Max relative tracer: 9.40e-08"}, "type": "Feature"}, {"geometry": {"coordinates": [[[-75.055, 40.035], [-75.04499999999999, 40.035], [-75.04499999999999, 40.045], [-75.055, 40.045], [-75.055, 40.035]]], "type": "Polygon"}, "properties": {"above_threshold": true, "fraction_of_peak": 0.04, "max_tracer_relative": 6.8e-08, "style": {"color": "#444", "fillColor": "#666666", "fillOpacity": 0.55, "weight": 0.2}, "label": "Max relative tracer: 6.80e-08"}, "type": "Feature"}, {"geometry": {"coordinates": [[[-75.04500000000002, 40.035], [-75.035, 40.035], [-75.035, 40.045], [-75.04500000000002, 40.045], [-75.04500000000002, 40.035]]], "type": "Polygon"}, "properties": {"above_threshold": true, "fraction_of_peak": 0.03, "max_tracer_relative": 5.1e-08, "style": {"color": "#444", "fillColor": "#6c6c6c", "fillOpacity": 0.55, "weight": 0.2}, "label": "Max relative tracer: 5.10e-08"}, "type": "Feature"}, {"geometry": {"coordinates": [[[-75.035, 40.035], [-75.025, 40.035], [-75.025, 40.045], [-75.035, 40.045], [-75.035, 40.035]]], "type": "Polygon"}, "properties": {"above_threshold": true, "fraction_of_peak": 0.03470588235294118, "max_tracer_relative": 5.9e-08, "style": {"color": "#444", "fillColor": "#696969", "fillOpacity": 0.55, "weight": 0.2}, "label": "Max relative tracer: 5.90e-08"}, "type": "Feature"}, {"geometry": {"coordinates": [[[-75.025, 40.035], [-75.01499999999999, 40.035], [-75.01499999999999, 40.045], [-75.025, 40.045], [-75.025, 40.035]]], "type": "Polygon"}, "properties": {"above_threshold": true, "fraction_of_peak": 0.03235294117647059, "max_tracer_relative": 5.5e-08, "style": {"color": "#444", "fillColor": "#6b6b6b", "fillOpacity": 0.55, "weight": 0.2}, "label": "Max relative tracer: 5.50e-08"}, "type": "Feature"}, {"geometry": {"coordinates": [[[-75.01500000000001, 40.035], [-75.005, 40.035], [-75.005, 40.045], [-75.01500000000001, 40.045], [-75.01500000000001, 40.035]]], "type": "Polygon"}, "properties": {"above_threshold": true, "fraction_of_peak": 0.02764705882352941, "max_tracer_relative": 4.7e-08, "style": {"color": "#444", "fillColor": "#6e6e6e", "fillOpacity": 0.55, "weight": 0.2}, "label": "Max relative tracer: 4.70e-08"}, "type": "Feature"}, {"geometry": {"coordinates": [[[-75.005, 40.035], [-74.995, 40.035], [-74.995, 40.045], [-75.005, 40.045], [-75.005, 40.035]]], "type": "Polygon"}, "properties": {"above_threshold": true, "fraction_of_peak": 0.028823529411764706, "max_tracer_relative": 4.9e-08, "style": {"color": "#444", "fillColor": "#6d6d6d", "fillOpacity": 0.55, "weight": 0.2}, "label": "Max relative tracer: 4.90e-08"}, "type": "Feature"}, {"geometry": {"coordinates": [[[-74.995, 40.035], [-74.98499999999999, 40.035], [-74.98499999999999, 40.045], [-74.995, 40.045], [-74.995, 40.035]]], "type": "Polygon"}, "properties": {"above_threshold": true, "fraction_of_peak": 0.014705882352941176, "max_tracer_relative": 2.5e-08, "style": {"color": "#444", "fillColor": "#7a7a7a", "fillOpacity": 0.55, "weight": 0.2}, "label": "Max relative tracer: 2.50e-08"}, "type": "Feature"}, {"geometry": {"coordinates": [[[-74.98500000000001, 40.035], [-74.975, 40.035], [-74.975, 40.045], [-74.98500000000001, 40.045], [-74.98500000000001, 40.035]]], "type": "Polygon"}, "properties": {"above_threshold": true, "fraction_of_peak": 0.010588235294117647, "max_tracer_relative": 1.8e-08, "style": {"color": "#444", "fillColor": "#808080", "fillOpacity": 0.55, "weight": 0.2}, "label": "Max relative tracer: 1.80e-08"}, "type": "Feature"}, {"geometry": {"coordinates": [[[-75.125, 40.045], [-75.11500000000001, 40.045], [-75.11500000000001, 40.05499999999999], [-75.125, 40.05499999999999], [-75.125, 40.045]]], "type": "Polygon"}, "properties": {"above_threshold": true, "fraction_of_peak": 0.012941176470588234, "max_tracer_relative": 2.2e-08, "style": {"color": "#444", "fillColor": "#7c7c7c", "fillOpacity": 0.55, "weight": 0.2}, "label": "Max relative tracer: 2.20e-08"}, "type": "Feature"}, {"geometry": {"coordinates": [[[-75.11500000000001, 40.045], [-75.10499999999999, 40.045], [-75.10499999999999, 40.05499999999999], [-75.11500000000001, 40.05499999999999], [-75.11500000000001, 40.045]]], "type": "Polygon"}, "properties": {"above_threshold": true, "fraction_of_peak": 0.041176470588235294, "max_tracer_relative": 7e-08, "style": {"color": "#444", "fillColor": "#666666", "fillOpacity": 0.55, "weight": 0.2}, "label": "Max relative tracer: 7.00e-08"}, "type": "Feature"}, {"geometry": {"coordinates": [[[-75.10499999999999, 40.045], [-75.095, 40.045], [-75.095, 40.05499999999999], [-75.10499999999999, 40.05499999999999], [-75.10499999999999, 40.045]]], "type": "Polygon"}, "properties": {"above_threshold": true, "fraction_of_peak": 0.047058823529411764, "max_tracer_relative": 8e-08, "style": {"color": "#444", "fillColor": "#636363", "fillOpacity": 0.55, "weight": 0.2}, "label": "Max relative tracer: 8.00e-08"}, "type": "Feature"}, {"geometry": {"coordinates": [[[-75.095, 40.045], [-75.08500000000001, 40.045], [-75.08500000000001, 40.05499999999999], [-75.095, 40.05499999999999], [-75.095, 40.045]]], "type": "Polygon"}, "properties": {"above_threshold": true, "fraction_of_peak": 0.07058823529411765, "max_tracer_relative": 1.2e-07, "style": {"color": "#444", "fillColor": "#5b5b5b", "fillOpacity": 0.55, "weight": 0.2}, "label": "Max relative tracer: 1.20e-07"}, "type": "Feature"}, {"geometry": {"coordinates": [[[-75.08500000000001, 40.045], [-75.07499999999999, 40.045], [-75.07499999999999, 40.05499999999999], [-75.08500000000001, 40.05499999999999], [-75.08500000000001, 40.045]]], "type": "Polygon"}, "properties": {"above_threshold": true, "fraction_of_peak": 0.07058823529411765, "max_tracer_relative": 1.2e-07, "style": {"color": "#444", "fillColor": "#5b5b5b", "fillOpacity": 0.55, "weight": 0.2}, "label": "Max relative tracer: 1.20e-07"}, "type": "Feature"}, {"geometry": {"coordinates": [[[-75.07499999999999, 40.045], [-75.065, 40.045], [-75.065, 40.05499999999999], [-75.07499999999999, 40.05499999999999], [-75.07499999999999, 40.045]]], "type": "Polygon"}, "properties": {"above_threshold": true, "fraction_of_peak": 0.058823529411764705, "max_tracer_relative": 1e-07, "style": {"color": "#444", "fillColor": "#5f5f5f", "fillOpacity": 0.55, "weight": 0.2}, "label": "Max relative tracer: 1.00e-07"}, "type": "Feature"}, {"geometry": {"coordinates": [[[-75.065, 40.045], [-75.055, 40.045], [-75.055, 40.05499999999999], [-75.065, 40.05499999999999], [-75.065, 40.045]]], "type": "Polygon"}, "properties": {"above_threshold": true, "fraction_of_peak": 0.048235294117647064, "max_tracer_relative": 8.2e-08, "style": {"color": "#444", "fillColor": "#636363", "fillOpacity": 0.55, "weight": 0.2}, "label": "Max relative tracer: 8.20e-08"}, "type": "Feature"}, {"geometry": {"coordinates": [[[-75.055, 40.045], [-75.04499999999999, 40.045], [-75.04499999999999, 40.05499999999999], [-75.055, 40.05499999999999], [-75.055, 40.045]]], "type": "Polygon"}, "properties": {"above_threshold": true, "fraction_of_peak": 0.04, "max_tracer_relative": 6.8e-08, "style": {"color": "#444", "fillColor": "#666666", "fillOpacity": 0.55, "weight": 0.2}, "label": "Max relative tracer: 6.80e-08"}, "type": "Feature"}, {"geometry": {"coordinates": [[[-75.04500000000002, 40.045], [-75.035, 40.045], [-75.035, 40.05499999999999], [-75.04500000000002, 40.05499999999999], [-75.04500000000002, 40.045]]], "type": "Polygon"}, "properties": {"above_threshold": true, "fraction_of_peak": 0.03, "max_tracer_relative": 5.1e-08, "style": {"color": "#444", "fillColor": "#6c6c6c", "fillOpacity": 0.55, "weight": 0.2}, "label": "Max relative tracer: 5.10e-08"}, "type": "Feature"}, {"geometry": {"coordinates": [[[-75.035, 40.045], [-75.025, 40.045], [-75.025, 40.05499999999999], [-75.035, 40.05499999999999], [-75.035, 40.045]]], "type": "Polygon"}, "properties": {"above_threshold": true, "fraction_of_peak": 0.025882352941176467, "max_tracer_relative": 4.4e-08, "style": {"color": "#444", "fillColor": "#6f6f6f", "fillOpacity": 0.55, "weight": 0.2}, "label": "Max relative tracer: 4.40e-08"}, "type": "Feature"}, {"geometry": {"coordinates": [[[-75.025, 40.045], [-75.01499999999999, 40.045], [-75.01499999999999, 40.05499999999999], [-75.025, 40.05499999999999], [-75.025, 40.045]]], "type": "Polygon"}, "properties": {"above_threshold": true, "fraction_of_peak": 0.029411764705882353, "max_tracer_relative": 5e-08, "style": {"color": "#444", "fillColor": "#6c6c6c", "fillOpacity": 0.55, "weight": 0.2}, "label": "Max relative tracer: 5.00e-08"}, "type": "Feature"}, {"geometry": {"coordinates": [[[-75.01500000000001, 40.045], [-75.005, 40.045], [-75.005, 40.05499999999999], [-75.01500000000001, 40.05499999999999], [-75.01500000000001, 40.045]]], "type": "Polygon"}, "properties": {"above_threshold": true, "fraction_of_peak": 0.03058823529411765, "max_tracer_relative": 5.2e-08, "style": {"color": "#444", "fillColor": "#6c6c6c", "fillOpacity": 0.55, "weight": 0.2}, "label": "Max relative tracer: 5.20e-08"}, "type": "Feature"}, {"geometry": {"coordinates": [[[-75.005, 40.045], [-74.995, 40.045], [-74.995, 40.05499999999999], [-75.005, 40.05499999999999], [-75.005, 40.045]]], "type": "Polygon"}, "properties": {"above_threshold": true, "fraction_of_peak": 0.023529411764705882, "max_tracer_relative": 4e-08, "style": {"color": "#444", "fillColor": "#717171", "fillOpacity": 0.55, "weight": 0.2}, "label": "Max relative tracer: 4.00e-08"}, "type": "Feature"}, {"geometry": {"coordinates": [[[-74.995, 40.045], [-74.98499999999999, 40.045], [-74.98499999999999, 40.05499999999999], [-74.995, 40.05499999999999], [-74.995, 40.045]]], "type": "Polygon"}, "properties": {"above_threshold": true, "fraction_of_peak": 0.024705882352941175, "max_tracer_relative": 4.2e-08, "style": {"color": "#444", "fillColor": "#707070", "fillOpacity": 0.55, "weight": 0.2}, "label": "Max relative tracer: 4.20e-08"}, "type": "Feature"}, {"geometry": {"coordinates": [[[-74.98500000000001, 40.045], [-74.975, 40.045], [-74.975, 40.05499999999999], [-74.98500000000001, 40.05499999999999], [-74.98500000000001, 40.045]]], "type": "Polygon"}, "properties": {"above_threshold": true, "fraction_of_peak": 0.02, "max_tracer_relative": 3.4e-08, "style": {"color": "#444", "fillColor": "#747474", "fillOpacity": 0.55, "weight": 0.2}, "label": "Max relative tracer: 3.40e-08"}, "type": "Feature"}, {"geometry": {"coordinates": [[[-75.11500000000001, 40.05500000000001], [-75.10499999999999, 40.05500000000001], [-75.10499999999999, 40.065], [-75.11500000000001, 40.065], [-75.11500000000001, 40.05500000000001]]], "type": "Polygon"}, "properties": {"above_threshold": true, "fraction_of_peak": 0.021176470588235293, "max_tracer_relative": 3.6e-08, "style": {"color": "#444", "fillColor": "#737373", "fillOpacity": 0.55, "weight": 0.2}, "label": "Max relative tracer: 3.60e-08"}, "type": "Feature"}, {"geometry": {"coordinates": [[[-75.10499999999999, 40.05500000000001], [-75.095, 40.05500000000001], [-75.095, 40.065], [-75.10499999999999, 40.065], [-75.10499999999999, 40.05500000000001]]], "type": "Polygon"}, "properties": {"above_threshold": true, "fraction_of_peak": 0.038235294117647055, "max_tracer_relative": 6.5e-08, "style": {"color": "#444", "fillColor": "#676767", "fillOpacity": 0.55, "weight": 0.2}, "label": "Max relative tracer: 6.50e-08"}, "type": "Feature"}, {"geometry": {"coordinates": [[[-75.095, 40.05500000000001], [-75.08500000000001, 40.05500000000001], [-75.08500000000001, 40.065], [-75.095, 40.065], [-75.095, 40.05500000000001]]], "type": "Polygon"}, "properties": {"above_threshold": true, "fraction_of_peak": 0.048235294117647064, "max_tracer_relative": 8.2e-08, "style": {"color": "#444", "fillColor": "#636363", "fillOpacity": 0.55, "weight": 0.2}, "label": "Max relative tracer: 8.20e-08"}, "type": "Feature"}, {"geometry": {"coordinates": [[[-75.08500000000001, 40.05500000000001], [-75.07499999999999, 40.05500000000001], [-75.07499999999999, 40.065], [-75.08500000000001, 40.065], [-75.08500000000001, 40.05500000000001]]], "type": "Polygon"}, "properties": {"above_threshold": true, "fraction_of_peak": 0.06470588235294118, "max_tracer_relative": 1.1e-07, "style": {"color": "#444", "fillColor": "#5d5d5d", "fillOpacity": 0.55, "weight": 0.2}, "label": "Max relative tracer: 1.10e-07"}, "type": "Feature"}, {"geometry": {"coordinates": [[[-75.07499999999999, 40.05500000000001], [-75.065, 40.05500000000001], [-75.065, 40.065], [-75.07499999999999, 40.065], [-75.07499999999999, 40.05500000000001]]], "type": "Polygon"}, "properties": {"above_threshold": true, "fraction_of_peak": 0.06470588235294118, "max_tracer_relative": 1.1e-07, "style": {"color": "#444", "fillColor": "#5d5d5d", "fillOpacity": 0.55, "weight": 0.2}, "label": "Max relative tracer: 1.10e-07"}, "type": "Feature"}, {"geometry": {"coordinates": [[[-75.065, 40.05500000000001], [-75.055, 40.05500000000001], [-75.055, 40.065], [-75.065, 40.065], [-75.065, 40.05500000000001]]], "type": "Polygon"}, "properties": {"above_threshold": true, "fraction_of_peak": 0.042352941176470586, "max_tracer_relative": 7.2e-08, "style": {"color": "#444", "fillColor": "#656565", "fillOpacity": 0.55, "weight": 0.2}, "label": "Max relative tracer: 7.20e-08"}, "type": "Feature"}, {"geometry": {"coordinates": [[[-75.055, 40.05500000000001], [-75.04499999999999, 40.05500000000001], [-75.04499999999999, 40.065], [-75.055, 40.065], [-75.055, 40.05500000000001]]], "type": "Polygon"}, "properties": {"above_threshold": true, "fraction_of_peak": 0.037647058823529415, "max_tracer_relative": 6.4e-08, "style": {"color": "#444", "fillColor": "#686868", "fillOpacity": 0.55, "weight": 0.2}, "label": "Max relative tracer: 6.40e-08"}, "type": "Feature"}, {"geometry": {"coordinates": [[[-75.04500000000002, 40.05500000000001], [-75.035, 40.05500000000001], [-75.035, 40.065], [-75.04500000000002, 40.065], [-75.04500000000002, 40.05500000000001]]], "type": "Polygon"}, "properties": {"above_threshold": true, "fraction_of_peak": 0.03235294117647059, "max_tracer_relative": 5.5e-08, "style": {"color": "#444", "fillColor": "#6b6b6b", "fillOpacity": 0.55, "weight": 0.2}, "label": "Max relative tracer: 5.50e-08"}, "type": "Feature"}, {"geometry": {"coordinates": [[[-75.035, 40.05500000000001], [-75.025, 40.05500000000001], [-75.025, 40.065], [-75.035, 40.065], [-75.035, 40.05500000000001]]], "type": "Polygon"}, "properties": {"above_threshold": true, "fraction_of_peak": 0.028823529411764706, "max_tracer_relative": 4.9e-08, "style": {"color": "#444", "fillColor": "#6d6d6d", "fillOpacity": 0.55, "weight": 0.2}, "label": "Max relative tracer: 4.90e-08"}, "type": "Feature"}, {"geometry": {"coordinates": [[[-75.025, 40.05500000000001], [-75.01499999999999, 40.05500000000001], [-75.01499999999999, 40.065], [-75.025, 40.065], [-75.025, 40.05500000000001]]], "type": "Polygon"}, "properties": {"above_threshold": true, "fraction_of_peak": 0.02235294117647059, "max_tracer_relative": 3.8e-08, "style": {"color": "#444", "fillColor": "#727272", "fillOpacity": 0.55, "weight": 0.2}, "label": "Max relative tracer: 3.80e-08"}, "type": "Feature"}, {"geometry": {"coordinates": [[[-75.01500000000001, 40.05500000000001], [-75.005, 40.05500000000001], [-75.005, 40.065], [-75.01500000000001, 40.065], [-75.01500000000001, 40.05500000000001]]], "type": "Polygon"}, "properties": {"above_threshold": true, "fraction_of_peak": 0.025882352941176467, "max_tracer_relative": 4.4e-08, "style": {"color": "#444", "fillColor": "#6f6f6f", "fillOpacity": 0.55, "weight": 0.2}, "label": "Max relative tracer: 4.40e-08"}, "type": "Feature"}, {"geometry": {"coordinates": [[[-75.005, 40.05500000000001], [-74.995, 40.05500000000001], [-74.995, 40.065], [-75.005, 40.065], [-75.005, 40.05500000000001]]], "type": "Polygon"}, "properties": {"above_threshold": true, "fraction_of_peak": 0.03529411764705882, "max_tracer_relative": 6e-08, "style": {"color": "#444", "fillColor": "#696969", "fillOpacity": 0.55, "weight": 0.2}, "label": "Max relative tracer: 6.00e-08"}, "type": "Feature"}, {"geometry": {"coordinates": [[[-74.995, 40.05500000000001], [-74.98499999999999, 40.05500000000001], [-74.98499999999999, 40.065], [-74.995, 40.065], [-74.995, 40.05500000000001]]], "type": "Polygon"}, "properties": {"above_threshold": true, "fraction_of_peak": 0.02, "max_tracer_relative": 3.4e-08, "style": {"color": "#444", "fillColor": "#747474", "fillOpacity": 0.55, "weight": 0.2}, "label": "Max relative tracer: 3.40e-08"}, "type": "Feature"}, {"geometry": {"coordinates": [[[-74.98500000000001, 40.05500000000001], [-74.975, 40.05500000000001], [-74.975, 40.065], [-74.98500000000001, 40.065], [-74.98500000000001, 40.05500000000001]]], "type": "Polygon"}, "properties": {"above_threshold": true, "fraction_of_peak": 0.02235294117647059, "max_tracer_relative": 3.8e-08, "style": {"color": "#444", "fillColor": "#727272", "fillOpacity": 0.55, "weight": 0.2}, "label": "Max relative tracer: 3.80e-08"}, "type": "Feature"}, {"geometry": {"coordinates": [[[-75.11500000000001, 40.065], [-75.10499999999999, 40.065], [-75.10499999999999, 40.075], [-75.11500000000001, 40.075], [-75.11500000000001, 40.065]]], "type": "Polygon"}, "properties": {"above_threshold": true, "fraction_of_peak": 0.010588235294117647, "max_tracer_relative": 1.8e-08, "style": {"color": "#444", "fillColor": "#808080", "fillOpacity": 0.55, "weight": 0.2}, "label": "Max relative tracer: 1.80e-08"}, "type": "Feature"}, {"geometry": {"coordinates": [[[-75.10499999999999, 40.065], [-75.095, 40.065], [-75.095, 40.075], [-75.10499999999999, 40.075], [-75.10499999999999, 40.065]]], "type": "Polygon"}, "properties": {"above_threshold": true, "fraction_of_peak": 0.02235294117647059, "max_tracer_relative": 3.8e-08, "style": {"color": "#444", "fillColor": "#727272", "fillOpacity": 0.55, "weight": 0.2}, "label": "Max relative tracer: 3.80e-08"}, "type": "Feature"}, {"geometry": {"coordinates": [[[-75.095, 40.065], [-75.08500000000001, 40.065], [-75.08500000000001, 40.075], [-75.095, 40.075], [-75.095, 40.065]]], "type": "Polygon"}, "properties": {"above_threshold": true, "fraction_of_peak": 0.037647058823529415, "max_tracer_relative": 6.4e-08, "style": {"color": "#444", "fillColor": "#686868", "fillOpacity": 0.55, "weight": 0.2}, "label": "Max relative tracer: 6.40e-08"}, "type": "Feature"}, {"geometry": {"coordinates": [[[-75.08500000000001, 40.065], [-75.07499999999999, 40.065], [-75.07499999999999, 40.075], [-75.08500000000001, 40.075], [-75.08500000000001, 40.065]]], "type": "Polygon"}, "properties": {"above_threshold": true, "fraction_of_peak": 0.051764705882352935, "max_tracer_relative": 8.8e-08, "style": {"color": "#444", "fillColor": "#616161", "fillOpacity": 0.55, "weight": 0.2}, "label": "Max relative tracer: 8.80e-08"}, "type": "Feature"}, {"geometry": {"coordinates": [[[-75.07499999999999, 40.065], [-75.065, 40.065], [-75.065, 40.075], [-75.07499999999999, 40.075], [-75.07499999999999, 40.065]]], "type": "Polygon"}, "properties": {"above_threshold": true, "fraction_of_peak": 0.058823529411764705, "max_tracer_relative": 1e-07, "style": {"color": "#444", "fillColor": "#5f5f5f", "fillOpacity": 0.55, "weight": 0.2}, "label": "Max relative tracer: 1.00e-07"}, "type": "Feature"}, {"geometry": {"coordinates": [[[-75.065, 40.065], [-75.055, 40.065], [-75.055, 40.075], [-75.065, 40.075], [-75.065, 40.065]]], "type": "Polygon"}, "properties": {"above_threshold": true, "fraction_of_peak": 0.049999999999999996, "max_tracer_relative": 8.5e-08, "style": {"color": "#444", "fillColor": "#626262", "fillOpacity": 0.55, "weight": 0.2}, "label": "Max relative tracer: 8.50e-08"}, "type": "Feature"}, {"geometry": {"coordinates": [[[-75.055, 40.065], [-75.04499999999999, 40.065], [-75.04499999999999, 40.075], [-75.055, 40.075], [-75.055, 40.065]]], "type": "Polygon"}, "properties": {"above_threshold": true, "fraction_of_peak": 0.03235294117647059, "max_tracer_relative": 5.5e-08, "style": {"color": "#444", "fillColor": "#6b6b6b", "fillOpacity": 0.55, "weight": 0.2}, "label": "Max relative tracer: 5.50e-08"}, "type": "Feature"}, {"geometry": {"coordinates": [[[-75.04500000000002, 40.065], [-75.035, 40.065], [-75.035, 40.075], [-75.04500000000002, 40.075], [-75.04500000000002, 40.065]]], "type": "Polygon"}, "properties": {"above_threshold": true, "fraction_of_peak": 0.025882352941176467, "max_tracer_relative": 4.4e-08, "style": {"color": "#444", "fillColor": "#6f6f6f", "fillOpacity": 0.55, "weight": 0.2}, "label": "Max relative tracer: 4.40e-08"}, "type": "Feature"}, {"geometry": {"coordinates": [[[-75.035, 40.065], [-75.025, 40.065], [-75.025, 40.075], [-75.035, 40.075], [-75.035, 40.065]]], "type": "Polygon"}, "properties": {"above_threshold": true, "fraction_of_peak": 0.027058823529411764, "max_tracer_relative": 4.6e-08, "style": {"color": "#444", "fillColor": "#6e6e6e", "fillOpacity": 0.55, "weight": 0.2}, "label": "Max relative tracer: 4.60e-08"}, "type": "Feature"}, {"geometry": {"coordinates": [[[-75.025, 40.065], [-75.01499999999999, 40.065], [-75.01499999999999, 40.075], [-75.025, 40.075], [-75.025, 40.065]]], "type": "Polygon"}, "properties": {"above_threshold": true, "fraction_of_peak": 0.02, "max_tracer_relative": 3.4e-08, "style": {"color": "#444", "fillColor": "#747474", "fillOpacity": 0.55, "weight": 0.2}, "label": "Max relative tracer: 3.40e-08"}, "type": "Feature"}, {"geometry": {"coordinates": [[[-75.01500000000001, 40.065], [-75.005, 40.065], [-75.005, 40.075], [-75.01500000000001, 40.075], [-75.01500000000001, 40.065]]], "type": "Polygon"}, "properties": {"above_threshold": true, "fraction_of_peak": 0.02235294117647059, "max_tracer_relative": 3.8e-08, "style": {"color": "#444", "fillColor": "#727272", "fillOpacity": 0.55, "weight": 0.2}, "label": "Max relative tracer: 3.80e-08"}, "type": "Feature"}, {"geometry": {"coordinates": [[[-75.005, 40.065], [-74.995, 40.065], [-74.995, 40.075], [-75.005, 40.075], [-75.005, 40.065]]], "type": "Polygon"}, "properties": {"above_threshold": true, "fraction_of_peak": 0.02, "max_tracer_relative": 3.4e-08, "style": {"color": "#444", "fillColor": "#747474", "fillOpacity": 0.55, "weight": 0.2}, "label": "Max relative tracer: 3.40e-08"}, "type": "Feature"}, {"geometry": {"coordinates": [[[-74.995, 40.065], [-74.98499999999999, 40.065], [-74.98499999999999, 40.075], [-74.995, 40.075], [-74.995, 40.065]]], "type": "Polygon"}, "properties": {"above_threshold": true, "fraction_of_peak": 0.02823529411764706, "max_tracer_relative": 4.8e-08, "style": {"color": "#444", "fillColor": "#6d6d6d", "fillOpacity": 0.55, "weight": 0.2}, "label": "Max relative tracer: 4.80e-08"}, "type": "Feature"}, {"geometry": {"coordinates": [[[-74.98500000000001, 40.065], [-74.975, 40.065], [-74.975, 40.075], [-74.98500000000001, 40.075], [-74.98500000000001, 40.065]]], "type": "Polygon"}, "properties": {"above_threshold": true, "fraction_of_peak": 0.01764705882352941, "max_tracer_relative": 3e-08, "style": {"color": "#444", "fillColor": "#767676", "fillOpacity": 0.55, "weight": 0.2}, "label": "Max relative tracer: 3.00e-08"}, "type": "Feature"}, {"geometry": {"coordinates": [[[-75.10499999999999, 40.075], [-75.095, 40.075], [-75.095, 40.084999999999994], [-75.10499999999999, 40.084999999999994], [-75.10499999999999, 40.075]]], "type": "Polygon"}, "properties": {"above_threshold": true, "fraction_of_peak": 0.022941176470588236, "max_tracer_relative": 3.9e-08, "style": {"color": "#444", "fillColor": "#717171", "fillOpacity": 0.55, "weight": 0.2}, "label": "Max relative tracer: 3.90e-08"}, "type": "Feature"}, {"geometry": {"coordinates": [[[-75.095, 40.075], [-75.08500000000001, 40.075], [-75.08500000000001, 40.084999999999994], [-75.095, 40.084999999999994], [-75.095, 40.075]]], "type": "Polygon"}, "properties": {"above_threshold": true, "fraction_of_peak": 0.026470588235294117, "max_tracer_relative": 4.5e-08, "style": {"color": "#444", "fillColor": "#6e6e6e", "fillOpacity": 0.55, "weight": 0.2}, "label": "Max relative tracer: 4.50e-08"}, "type": "Feature"}, {"geometry": {"coordinates": [[[-75.08500000000001, 40.075], [-75.07499999999999, 40.075], [-75.07499999999999, 40.084999999999994], [-75.08500000000001, 40.084999999999994], [-75.08500000000001, 40.075]]], "type": "Polygon"}, "properties": {"above_threshold": true, "fraction_of_peak": 0.037647058823529415, "max_tracer_relative": 6.4e-08, "style": {"color": "#444", "fillColor": "#686868", "fillOpacity": 0.55, "weight": 0.2}, "label": "Max relative tracer: 6.40e-08"}, "type": "Feature"}, {"geometry": {"coordinates": [[[-75.07499999999999, 40.075], [-75.065, 40.075], [-75.065, 40.084999999999994], [-75.07499999999999, 40.084999999999994], [-75.07499999999999, 40.075]]], "type": "Polygon"}, "properties": {"above_threshold": true, "fraction_of_peak": 0.058823529411764705, "max_tracer_relative": 1e-07, "style": {"color": "#444", "fillColor": "#5f5f5f", "fillOpacity": 0.55, "weight": 0.2}, "label": "Max relative tracer: 1.00e-07"}, "type": "Feature"}, {"geometry": {"coordinates": [[[-75.065, 40.075], [-75.055, 40.075], [-75.055, 40.084999999999994], [-75.065, 40.084999999999994], [-75.065, 40.075]]], "type": "Polygon"}, "properties": {"above_threshold": true, "fraction_of_peak": 0.04941176470588235, "max_tracer_relative": 8.4e-08, "style": {"color": "#444", "fillColor": "#626262", "fillOpacity": 0.55, "weight": 0.2}, "label": "Max relative tracer: 8.40e-08"}, "type": "Feature"}, {"geometry": {"coordinates": [[[-75.055, 40.075], [-75.04499999999999, 40.075], [-75.04499999999999, 40.084999999999994], [-75.055, 40.084999999999994], [-75.055, 40.075]]], "type": "Polygon"}, "properties": {"above_threshold": true, "fraction_of_peak": 0.03529411764705882, "max_tracer_relative": 6e-08, "style": {"color": "#444", "fillColor": "#696969", "fillOpacity": 0.55, "weight": 0.2}, "label": "Max relative tracer: 6.00e-08"}, "type": "Feature"}, {"geometry": {"coordinates": [[[-75.04500000000002, 40.075], [-75.035, 40.075], [-75.035, 40.084999999999994], [-75.04500000000002, 40.084999999999994], [-75.04500000000002, 40.075]]], "type": "Polygon"}, "properties": {"above_threshold": true, "fraction_of_peak": 0.03, "max_tracer_relative": 5.1e-08, "style": {"color": "#444", "fillColor": "#6c6c6c", "fillOpacity": 0.55, "weight": 0.2}, "label": "Max relative tracer: 5.10e-08"}, "type": "Feature"}, {"geometry": {"coordinates": [[[-75.035, 40.075], [-75.025, 40.075], [-75.025, 40.084999999999994], [-75.035, 40.084999999999994], [-75.035, 40.075]]], "type": "Polygon"}, "properties": {"above_threshold": true, "fraction_of_peak": 0.024117647058823532, "max_tracer_relative": 4.1e-08, "style": {"color": "#444", "fillColor": "#707070", "fillOpacity": 0.55, "weight": 0.2}, "label": "Max relative tracer: 4.10e-08"}, "type": "Feature"}, {"geometry": {"coordinates": [[[-75.025, 40.075], [-75.01499999999999, 40.075], [-75.01499999999999, 40.084999999999994], [-75.025, 40.084999999999994], [-75.025, 40.075]]], "type": "Polygon"}, "properties": {"above_threshold": true, "fraction_of_peak": 0.021176470588235293, "max_tracer_relative": 3.6e-08, "style": {"color": "#444", "fillColor": "#737373", "fillOpacity": 0.55, "weight": 0.2}, "label": "Max relative tracer: 3.60e-08"}, "type": "Feature"}, {"geometry": {"coordinates": [[[-75.01500000000001, 40.075], [-75.005, 40.075], [-75.005, 40.084999999999994], [-75.01500000000001, 40.084999999999994], [-75.01500000000001, 40.075]]], "type": "Polygon"}, "properties": {"above_threshold": true, "fraction_of_peak": 0.02176470588235294, "max_tracer_relative": 3.7e-08, "style": {"color": "#444", "fillColor": "#727272", "fillOpacity": 0.55, "weight": 0.2}, "label": "Max relative tracer: 3.70e-08"}, "type": "Feature"}, {"geometry": {"coordinates": [[[-75.005, 40.075], [-74.995, 40.075], [-74.995, 40.084999999999994], [-75.005, 40.084999999999994], [-75.005, 40.075]]], "type": "Polygon"}, "properties": {"above_threshold": true, "fraction_of_peak": 0.018235294117647058, "max_tracer_relative": 3.1e-08, "style": {"color": "#444", "fillColor": "#767676", "fillOpacity": 0.55, "weight": 0.2}, "label": "Max relative tracer: 3.10e-08"}, "type": "Feature"}, {"geometry": {"coordinates": [[[-74.995, 40.075], [-74.98499999999999, 40.075], [-74.98499999999999, 40.084999999999994], [-74.995, 40.084999999999994], [-74.995, 40.075]]], "type": "Polygon"}, "properties": {"above_threshold": true, "fraction_of_peak": 0.017058823529411765, "max_tracer_relative": 2.9e-08, "style": {"color": "#444", "fillColor": "#777777", "fillOpacity": 0.55, "weight": 0.2}, "label": "Max relative tracer: 2.90e-08"}, "type": "Feature"}, {"geometry": {"coordinates": [[[-74.98500000000001, 40.075], [-74.975, 40.075], [-74.975, 40.084999999999994], [-74.98500000000001, 40.084999999999994], [-74.98500000000001, 40.075]]], "type": "Polygon"}, "properties": {"above_threshold": true, "fraction_of_peak": 0.02, "max_tracer_relative": 3.4e-08, "style": {"color": "#444", "fillColor": "#747474", "fillOpacity": 0.55, "weight": 0.2}, "label": "Max relative tracer: 3.40e-08"}, "type": "Feature"}]}