{"type": "FeatureCollection", "name": "monitors_regulatory", "x_description": "Regulatory monitors (AirNow / EPA FRM): hourly max PM2.5 during the fire window. Rendered as yellow diamonds in the reference.", "x_sources": ["EPA AirNow regulatory monitors via OpenAQ v3 (hourly max during fire window)."], "x_built_by": "camden/scripts/build_handoff.py", "features": [{"type": "Feature", "geometry": {"type": "Point", "coordinates": [-75.122314, 39.923969]}, "properties": {"name": "South Camden (AirNow-API)", "pm25_max_ugm3": 13.8, "aqi_band": "Moderate", "peak_observed": "Mar 10 11:00 PM EDT", "distance_mi_from_emr": 0.37, "style": {"shape": "diamond", "fill": "#ffe066"}}}, {"type": "Feature", "geometry": {"type": "Point", "coordinates": [-75.1424, 39.9603]}, "properties": {"name": "FAB (AirNow-API)", "pm25_max_ugm3": 13.3, "aqi_band": "Moderate", "peak_observed": "Mar 10 11:00 PM EDT", "distance_mi_from_emr": 2.46, "style": {"shape": "diamond", "fill": "#ffe066"}}}, {"type": "Feature", "geometry": {"type": "Point", "coordinates": [-75.186783, 39.922516]}, "properties": {"name": "RIT (AirNow-API)", "pm25_max_ugm3": 16.4, "aqi_band": "Moderate", "peak_observed": "Mar 10 11:00 PM EDT", "distance_mi_from_emr": 3.09, "style": {"shape": "diamond", "fill": "#ffe066"}}}, {"type": "Feature", "geometry": {"type": "Point", "coordinates": [-75.080833, 39.991389]}, "properties": {"name": "NEW (AirNow-API)", "pm25_max_ugm3": 9.9, "aqi_band": "Moderate", "peak_observed": "Mar 10 11:00 PM EDT", "distance_mi_from_emr": 5.16, "style": {"shape": "diamond", "fill": "#ffe066"}}}, {"type": "Feature", "geometry": {"type": "Point", "coordinates": [-75.09777, 40.00892]}, "properties": {"name": "LABP (AirNow-API)", "pm25_max_ugm3": 14.9, "aqi_band": "Moderate", "peak_observed": "Mar 10 11:00 PM EDT", "distance_mi_from_emr": 5.94, "style": {"shape": "diamond", "fill": "#ffe066"}}}, {"type": "Feature", "geometry": {"type": "Point", "coordinates": [-75.207205, 39.988842]}, "properties": {"name": "MON (AirNow-API)", "pm25_max_ugm3": 23.0, "aqi_band": "Moderate", "peak_observed": "Mar 10 11:00 PM EDT", "distance_mi_from_emr": 6.0, "style": {"shape": "diamond", "fill": "#ffe066"}}}, {"type": "Feature", "geometry": {"type": "Point", "coordinates": [-75.21212, 39.800339]}, "properties": {"name": "Clarksboro (AirNow-API)", "pm25_max_ugm3": 12.2, "aqi_band": "Moderate", "peak_observed": "Mar 10 10:00 PM EDT", "distance_mi_from_emr": 9.77, "style": {"shape": "diamond", "fill": "#ffe066"}}}, {"type": "Feature", "geometry": {"type": "Point", "coordinates": [-75.3725, 39.8356]}, "properties": {"name": "Chester (AirNow-API)", "pm25_max_ugm3": 33.3, "aqi_band": "Moderate", "peak_observed": "Mar 10 9:00 PM EDT", "distance_mi_from_emr": 14.37, "style": {"shape": "diamond", "fill": "#ffe066"}}}, {"type": "Feature", "geometry": {"type": "Point", "coordinates": [-75.3092, 40.1122]}, "properties": {"name": "Norristown (AirNow-API)", "pm25_max_ugm3": 12.2, "aqi_band": "Moderate", "peak_observed": "Mar 10 10:00 PM EDT", "distance_mi_from_emr": 16.01, "style": {"shape": "diamond", "fill": "#ffe066"}}}, {"type": "Feature", "geometry": {"type": "Point", "coordinates": [-75.413973, 39.818715]}, "properties": {"name": "Marcus Hook (AirNow-API)", "pm25_max_ugm3": 18.1, "aqi_band": "Moderate", "peak_observed": "Mar 10 9:00 PM EDT", "distance_mi_from_emr": 16.86, "style": {"shape": "diamond", "fill": "#ffe066"}}}]}