{"type": "FeatureCollection", "name": "sensors_purpleair", "x_description": "PurpleAir sensors within ~2 mi of EMR: max corrected PM2.5 during the 2026-03-10 fire window. Marker fill encodes AQI band; radius scales with value.", "x_sources": ["PurpleAir API, 10-min data, EPA Barkjohn correction applied (Barkjohn et al. 2021, Atmos. Meas. Tech.)."], "x_built_by": "camden/scripts/build_handoff.py", "features": [{"type": "Feature", "geometry": {"type": "Point", "coordinates": [-75.12143, 39.923466]}, "properties": {"name": "Sbfourthstreet", "pm25_max_ugm3": 54.6, "aqi_band": "Unhealthy for sensitive groups", "peak_observed": "Mar 10 09:30 PM EDT", "distance_mi_from_emr": 0.43, "style": {"color": "white", "weight": 1.2, "opacity": 0.95, "fill": true, "fillColor": "#ffa64d", "fillOpacity": 0.88, "radius": 18.754888171296287}}}, {"type": "Feature", "geometry": {"type": "Point", "coordinates": [-75.12073, 39.92167]}, "properties": {"name": "Center For Environmental Transformation", "pm25_max_ugm3": 40.1, "aqi_band": "Unhealthy for sensitive groups", "peak_observed": "Mar 10 10:00 PM EDT", "distance_mi_from_emr": 0.53, "style": {"color": "white", "weight": 1.2, "opacity": 0.95, "fill": true, "fillColor": "#ffa64d", "fillOpacity": 0.88, "radius": 16.927489376058052}}}, {"type": "Feature", "geometry": {"type": "Point", "coordinates": [-75.11838, 39.940563]}, "properties": {"name": "Cooper Plaza", "pm25_max_ugm3": 162.4, "aqi_band": "Very Unhealthy", "peak_observed": "Mar 10 08:40 PM EDT", "distance_mi_from_emr": 1.12, "style": {"color": "white", "weight": 1.2, "opacity": 0.95, "fill": true, "fillColor": "#a04ba0", "fillOpacity": 0.88, "radius": 28.0}}}, {"type": "Feature", "geometry": {"type": "Point", "coordinates": [-75.157364, 39.919582]}, "properties": {"name": "MSP Air Quality", "pm25_max_ugm3": 13.7, "aqi_band": "Moderate", "peak_observed": "Mar 10 11:00 PM EDT", "distance_mi_from_emr": 1.59, "style": {"color": "white", "weight": 1.2, "opacity": 0.95, "fill": true, "fillColor": "#ffe066", "fillOpacity": 0.88, "radius": 12.401186211353858}}}, {"type": "Feature", "geometry": {"type": "Point", "coordinates": [-75.15665, 39.937244]}, "properties": {"name": "CAC SouthPhilly I95 010a", "pm25_max_ugm3": 12.5, "aqi_band": "Moderate", "peak_observed": "Mar 10 09:50 PM EDT", "distance_mi_from_emr": 1.67, "style": {"color": "white", "weight": 1.2, "opacity": 0.95, "fill": true, "fillColor": "#ffe066", "fillOpacity": 0.88, "radius": 12.093393137673527}}}, {"type": "Feature", "geometry": {"type": "Point", "coordinates": [-75.15964, 39.9305]}, "properties": {"name": "CAC South Philly I95 042", "pm25_max_ugm3": 12.9, "aqi_band": "Moderate", "peak_observed": "Mar 10 09:30 PM EDT", "distance_mi_from_emr": 1.67, "style": {"color": "white", "weight": 1.2, "opacity": 0.95, "fill": true, "fillColor": "#ffe066", "fillOpacity": 0.88, "radius": 12.199869036609787}}}, {"type": "Feature", "geometry": {"type": "Point", "coordinates": [-75.17033, 39.92957]}, "properties": {"name": "CAC South Philly I95 052", "pm25_max_ugm3": 24.7, "aqi_band": "Moderate", "peak_observed": "Mar 10 10:20 PM EDT", "distance_mi_from_emr": 2.22, "style": {"color": "white", "weight": 1.2, "opacity": 0.95, "fill": true, "fillColor": "#ffe066", "fillOpacity": 0.88, "radius": 14.577564284493173}}}, {"type": "Feature", "geometry": {"type": "Point", "coordinates": [-75.17461, 39.935036]}, "properties": {"name": "CAC Point Breeze I95 54", "pm25_max_ugm3": 23.1, "aqi_band": "Moderate", "peak_observed": "Mar 10 10:10 PM EDT", "distance_mi_from_emr": 2.51, "style": {"color": "white", "weight": 1.2, "opacity": 0.95, "fill": true, "fillColor": "#ffe066", "fillOpacity": 0.88, "radius": 14.290564076616109}}}, {"type": "Feature", "geometry": {"type": "Point", "coordinates": [-75.17846, 39.926743]}, "properties": {"name": "CAC South Philly I95 044", "pm25_max_ugm3": 13.9, "aqi_band": "Moderate", "peak_observed": "Mar 10 10:30 PM EDT", "distance_mi_from_emr": 2.64, "style": {"color": "white", "weight": 1.2, "opacity": 0.95, "fill": true, "fillColor": "#ffe066", "fillOpacity": 0.88, "radius": 12.433138468289645}}}, {"type": "Feature", "geometry": {"type": "Point", "coordinates": [-75.15711, 39.96287]}, "properties": {"name": "Green and 12th Philly", "pm25_max_ugm3": 9.9, "aqi_band": "Moderate", "peak_observed": "Mar 10 09:40 PM EDT", "distance_mi_from_emr": 2.94, "style": {"color": "white", "weight": 1.2, "opacity": 0.95, "fill": true, "fillColor": "#ffe066", "fillOpacity": 0.88, "radius": 11.422158469144351}}}, {"type": "Feature", "geometry": {"type": "Point", "coordinates": [-75.17624, 39.950832]}, "properties": {"name": "High floor North side", "pm25_max_ugm3": 14.5, "aqi_band": "Moderate", "peak_observed": "Mar 10 10:00 PM EDT", "distance_mi_from_emr": 3.04, "style": {"color": "white", "weight": 1.2, "opacity": 0.95, "fill": true, "fillColor": "#ffe066", "fillOpacity": 0.88, "radius": 12.580167639804834}}}, {"type": "Feature", "geometry": {"type": "Point", "coordinates": [-75.19013, 39.923244]}, "properties": {"name": "CAC Grays Ferry I95 008", "pm25_max_ugm3": 12.7, "aqi_band": "Moderate", "peak_observed": "Mar 10 10:00 PM EDT", "distance_mi_from_emr": 3.27, "style": {"color": "white", "weight": 1.2, "opacity": 0.95, "fill": true, "fillColor": "#ffe066", "fillOpacity": 0.88, "radius": 12.149188452691108}}}, {"type": "Feature", "geometry": {"type": "Point", "coordinates": [-75.19417, 39.92871]}, "properties": {"name": "CAC Grays Ferry 043", "pm25_max_ugm3": 15.6, "aqi_band": "Moderate", "peak_observed": "Mar 10 07:20 PM EDT", "distance_mi_from_emr": 3.48, "style": {"color": "white", "weight": 1.2, "opacity": 0.95, "fill": true, "fillColor": "#ffe066", "fillOpacity": 0.88, "radius": 12.813364282266196}}}, {"type": "Feature", "geometry": {"type": "Point", "coordinates": [-75.19615, 39.931]}, "properties": {"name": "CAC Grays Ferry I95 041", "pm25_max_ugm3": 14.9, "aqi_band": "Moderate", "peak_observed": "Mar 10 10:50 PM EDT", "distance_mi_from_emr": 3.59, "style": {"color": "white", "weight": 1.2, "opacity": 0.95, "fill": true, "fillColor": "#ffe066", "fillOpacity": 0.88, "radius": 12.668527394884348}}}, {"type": "Feature", "geometry": {"type": "Point", "coordinates": [-75.195206, 39.93765]}, "properties": {"name": "CAC South Philly I95 049(b)", "pm25_max_ugm3": 13.9, "aqi_band": "Moderate", "peak_observed": "Mar 10 10:00 PM EDT", "distance_mi_from_emr": 3.61, "style": {"color": "white", "weight": 1.2, "opacity": 0.95, "fill": true, "fillColor": "#ffe066", "fillOpacity": 0.88, "radius": 12.445264687034532}}}, {"type": "Feature", "geometry": {"type": "Point", "coordinates": [-75.13489, 39.97926]}, "properties": {"name": "Philly Community Wireless Waterloo", "pm25_max_ugm3": 12.4, "aqi_band": "Moderate", "peak_observed": "Mar 10 09:10 PM EDT", "distance_mi_from_emr": 3.67, "style": {"color": "white", "weight": 1.2, "opacity": 0.95, "fill": true, "fillColor": "#ffe066", "fillOpacity": 0.88, "radius": 12.072619923365018}}}, {"type": "Feature", "geometry": {"type": "Point", "coordinates": [-75.13653, 39.982666]}, "properties": {"name": "Philly Community Wireless", "pm25_max_ugm3": 17.5, "aqi_band": "Moderate", "peak_observed": "Mar 10 10:30 PM EDT", "distance_mi_from_emr": 3.92, "style": {"color": "white", "weight": 1.2, "opacity": 0.95, "fill": true, "fillColor": "#ffe066", "fillOpacity": 0.88, "radius": 13.224962781321018}}}, {"type": "Feature", "geometry": {"type": "Point", "coordinates": [-75.133736, 39.982887]}, "properties": {"name": "Norris Square Neighborhood Project", "pm25_max_ugm3": 12.0, "aqi_band": "Moderate", "peak_observed": "Mar 10 09:40 PM EDT", "distance_mi_from_emr": 3.92, "style": {"color": "white", "weight": 1.2, "opacity": 0.95, "fill": true, "fillColor": "#ffe066", "fillOpacity": 0.88, "radius": 11.98193517161676}}}, {"type": "Feature", "geometry": {"type": "Point", "coordinates": [-75.13596, 39.98339]}, "properties": {"name": "West Kensington Ministry", "pm25_max_ugm3": 12.9, "aqi_band": "Moderate", "peak_observed": "Mar 10 09:10 PM EDT", "distance_mi_from_emr": 3.96, "style": {"color": "white", "weight": 1.2, "opacity": 0.95, "fill": true, "fillColor": "#ffe066", "fillOpacity": 0.88, "radius": 12.212450595768072}}}, {"type": "Feature", "geometry": {"type": "Point", "coordinates": [-75.13628, 39.984295]}, "properties": {"name": "Raíces", "pm25_max_ugm3": 7.6, "aqi_band": "Good", "peak_observed": "Mar 10 09:40 PM EDT", "distance_mi_from_emr": 4.03, "style": {"color": "white", "weight": 1.2, "opacity": 0.95, "fill": true, "fillColor": "#a8e0a8", "fillOpacity": 0.88, "radius": 10.75870891131531}}}, {"type": "Feature", "geometry": {"type": "Point", "coordinates": [-75.15507, 39.98242]}, "properties": {"name": "Charles Library", "pm25_max_ugm3": 8.5, "aqi_band": "Good", "peak_observed": "Mar 10 09:10 PM EDT", "distance_mi_from_emr": 4.12, "style": {"color": "white", "weight": 1.2, "opacity": 0.95, "fill": true, "fillColor": "#a8e0a8", "fillOpacity": 0.88, "radius": 11.028027886322064}}}, {"type": "Feature", "geometry": {"type": "Point", "coordinates": [-75.13152, 39.9869]}, "properties": {"name": "Philly Community Wireless First Stop Recovery", "pm25_max_ugm3": 20.4, "aqi_band": "Moderate", "peak_observed": "Mar 10 10:40 PM EDT", "distance_mi_from_emr": 4.19, "style": {"color": "white", "weight": 1.2, "opacity": 0.95, "fill": true, "fillColor": "#ffe066", "fillOpacity": 0.88, "radius": 13.791697910336264}}}, {"type": "Feature", "geometry": {"type": "Point", "coordinates": [-75.18144, 39.97199]}, "properties": {"name": "Fairmount_poplar", "pm25_max_ugm3": 13.2, "aqi_band": "Moderate", "peak_observed": "Mar 10 09:40 PM EDT", "distance_mi_from_emr": 4.22, "style": {"color": "white", "weight": 1.2, "opacity": 0.95, "fill": true, "fillColor": "#ffe066", "fillOpacity": 0.88, "radius": 12.265569027727445}}}, {"type": "Feature", "geometry": {"type": "Point", "coordinates": [-75.12843, 39.991882]}, "properties": {"name": "Somerset Villas", "pm25_max_ugm3": 10.9, "aqi_band": "Moderate", "peak_observed": "Mar 10 09:30 PM EDT", "distance_mi_from_emr": 4.53, "style": {"color": "white", "weight": 1.2, "opacity": 0.95, "fill": true, "fillColor": "#ffe066", "fillOpacity": 0.88, "radius": 11.70624891157168}}}, {"type": "Feature", "geometry": {"type": "Point", "coordinates": [-75.14247, 39.992702]}, "properties": {"name": "Lillian Marrerro Library", "pm25_max_ugm3": 11.4, "aqi_band": "Moderate", "peak_observed": "Mar 10 09:20 PM EDT", "distance_mi_from_emr": 4.65, "style": {"color": "white", "weight": 1.2, "opacity": 0.95, "fill": true, "fillColor": "#ffe066", "fillOpacity": 0.88, "radius": 11.83321344675688}}}, {"type": "Feature", "geometry": {"type": "Point", "coordinates": [-75.212746, 39.945724]}, "properties": {"name": "47th and Regent", "pm25_max_ugm3": 12.3, "aqi_band": "Moderate", "peak_observed": "Mar 10 11:00 PM EDT", "distance_mi_from_emr": 4.65, "style": {"color": "white", "weight": 1.2, "opacity": 0.95, "fill": true, "fillColor": "#ffe066", "fillOpacity": 0.88, "radius": 12.066040009977659}}}, {"type": "Feature", "geometry": {"type": "Point", "coordinates": [-75.21652, 39.932434]}, "properties": {"name": "CAC Kingsessing I95 026", "pm25_max_ugm3": 24.9, "aqi_band": "Moderate", "peak_observed": "Mar 10 09:10 PM EDT", "distance_mi_from_emr": 4.68, "style": {"color": "white", "weight": 1.2, "opacity": 0.95, "fill": true, "fillColor": "#ffe066", "fillOpacity": 0.88, "radius": 14.622960090557326}}}, {"type": "Feature", "geometry": {"type": "Point", "coordinates": [-75.21402, 39.94399]}, "properties": {"name": "CAC Kingsessing I95 009", "pm25_max_ugm3": 51.2, "aqi_band": "Unhealthy for sensitive groups", "peak_observed": "Mar 10 09:50 PM EDT", "distance_mi_from_emr": 4.69, "style": {"color": "white", "weight": 1.2, "opacity": 0.95, "fill": true, "fillColor": "#ffa64d", "fillOpacity": 0.88, "radius": 18.348196111468535}}}, {"type": "Feature", "geometry": {"type": "Point", "coordinates": [-75.21675, 39.939823]}, "properties": {"name": "CAC Kingsessing I95 060", "pm25_max_ugm3": 16.9, "aqi_band": "Moderate", "peak_observed": "Mar 10 11:00 PM EDT", "distance_mi_from_emr": 4.76, "style": {"color": "white", "weight": 1.2, "opacity": 0.95, "fill": true, "fillColor": "#ffe066", "fillOpacity": 0.88, "radius": 13.08711126657623}}}, {"type": "Feature", "geometry": {"type": "Point", "coordinates": [-75.21758, 39.937317]}, "properties": {"name": "CAC Kingsessing I95 025", "pm25_max_ugm3": 18.8, "aqi_band": "Moderate", "peak_observed": "Mar 10 11:00 PM EDT", "distance_mi_from_emr": 4.77, "style": {"color": "white", "weight": 1.2, "opacity": 0.95, "fill": true, "fillColor": "#ffe066", "fillOpacity": 0.88, "radius": 13.485022799801575}}}, {"type": "Feature", "geometry": {"type": "Point", "coordinates": [-75.21247, 39.95412]}, "properties": {"name": "VU_OQ16", "pm25_max_ugm3": 18.9, "aqi_band": "Moderate", "peak_observed": "Mar 10 10:10 PM EDT", "distance_mi_from_emr": 4.84, "style": {"color": "white", "weight": 1.2, "opacity": 0.95, "fill": true, "fillColor": "#ffe066", "fillOpacity": 0.88, "radius": 13.512366601365423}}}, {"type": "Feature", "geometry": {"type": "Point", "coordinates": [-75.21437, 39.95424]}, "properties": {"name": "VU_OQ7", "pm25_max_ugm3": 14.1, "aqi_band": "Moderate", "peak_observed": "Mar 10 11:00 PM EDT", "distance_mi_from_emr": 4.94, "style": {"color": "white", "weight": 1.2, "opacity": 0.95, "fill": true, "fillColor": "#ffe066", "fillOpacity": 0.88, "radius": 12.472396546473345}}}]}