{"type": "FeatureCollection", "name": "site_context", "x_description": "EMR Eastern facility point, PHL ASOS station + mean wind vector during the fire, and 1/2/5-mile rings (GeoJSON points with radius_m — re-draw as circles).", "x_sources": ["PHL ASOS surface observations (NWS/FAA), averaged over the fire window.", "EMR Eastern facility marker: from the camden pipeline maps. Per the reporter's landmarks CSV (2026-06-05) the fires occur at the shredder, 1400 S. Front St — see landmarks_sophia.geojson for per-site addresses."], "x_built_by": "camden/scripts/build_handoff.py", "features": [{"type": "Feature", "geometry": {"type": "Point", "coordinates": [-75.12862946332181, 39.926309013731036]}, "properties": {"name": "1 mi ring around EMR", "radius_m": 1609.344, "radius_mi": 1.0, "style": {"color": "#c60101", "weight": 0.8, "opacity": 0.45, "fill": false, "fillColor": "#c60101", "fillOpacity": 0.2, "dashArray": "4 4", "radius": 1609.344}}}, {"type": "Feature", "geometry": {"type": "Point", "coordinates": [-75.12862946332181, 39.926309013731036]}, "properties": {"name": "2 mi ring around EMR", "radius_m": 3218.688, "radius_mi": 2.0, "style": {"color": "#c60101", "weight": 0.8, "opacity": 0.45, "fill": false, "fillColor": "#c60101", "fillOpacity": 0.2, "dashArray": "4 4", "radius": 3218.688}}}, {"type": "Feature", "geometry": {"type": "Point", "coordinates": [-75.12862946332181, 39.926309013731036]}, "properties": {"name": "5 mi ring around EMR", "radius_m": 8046.72, "radius_mi": 5.0, "style": {"color": "#c60101", "weight": 0.8, "opacity": 0.45, "fill": false, "fillColor": "#c60101", "fillOpacity": 0.2, "dashArray": "4 4", "radius": 8046.72}}}, {"type": "Feature", "geometry": {"type": "Point", "coordinates": [-75.12862946332181, 39.926309013731036]}, "properties": {"name": "EMR Eastern (Camden scrap yard)", "role": "Subject of investigation", "icon": {"markerColor": "red", "iconColor": "white", "icon": "fire", "prefix": "fa", "extraClasses": "fa-rotate-0"}}}, {"type": "Feature", "geometry": {"type": "Point", "coordinates": [-75.2424, 39.8744]}, "properties": {"name": "PHL ASOS station", "style": {"color": "#1a5f9c", "weight": 1.5, "opacity": 1.0, "fill": true, "fillColor": "#1a5f9c", "fillOpacity": 0.6, "radius": 4}}}, {"type": "Feature", "geometry": {"type": "LineString", "coordinates": [[-75.2424, 39.8744], [-75.23404120282078, 39.89743658071273]]}, "properties": {"name": "Avg PHL wind during fire: blowing TO 16° at 4.4 kt mean", "style": {"color": "#1a5f9c", "weight": 4, "opacity": 0.85, "fill": false, "fillColor": "#1a5f9c", "fillOpacity": 0.2}}}]}